id,state.abbrev,station,city,county,zipcode,latitude,longitude
4816,MO,ADAIR COUNTY SHERIFF OFFICE,,,,,
4817,MO,ALTON POLICE DEPT,,,,,
4818,MO,ANDREW COUNTY SHERIFF DEPT,,,,,
4819,MO,ANDREW COUNTY SHERIFFS OFFICE,,,,,
4820,MO,APPLETON CITY POLICE DEPT,,,,,
4821,MO,ARCHIE POLICE DEPT,,,,,
4822,MO,ASH GROVE POLICE DEPT,,,,,
4823,MO,AUDRAIN COUNTY SHERIFF DEPT,,,,,
4824,MO,AUDRAIN COUNTY SHERIFFS OFFICE,,,,,
4825,MO,AURORA POLICE DEPT,,,,,
4826,MO,BARRY COUNTY SHERIFF DEPT,,,,,
4827,MO,BARRY COUNTY SHERIFF OFFICE,,,,,
4828,MO,BARTON COUNTY SHERIFF DEPT,,,,,
4829,MO,BATES CITY POLICE DEPT,,,,,
4830,MO,BATES COUNTY SHERIFF DEPT,,,,,
4831,MO,BATES COUNTY SHERIFFS OFFICE,,,,,
4832,MO,BEL-NOR POLICE DEPARTMENT,,,,,
4833,MO,BELLE POLICE DEPT,,,,,
4834,MO,BELTON POLICE DEPT,,,,,
4835,MO,BENTON COUNTY SHERIFF DEPT,,,,,
4836,MO,BENTON COUNTY SHERIFF OFFICE,,,,,
4837,MO,BENTON COUNTY SHERIFFS OFFICE,,,,,
4838,MO,BERKELEY POLICE DEPT,,,,,
4839,MO,BERNIE POLICE DEPT,,,,,
4840,MO,BEVERLY HILLS POLICE DEPT,,,,,
4841,MO,BISMARCK POLICE DEPT,,,,,
4842,MO,BLUE SPRINGS POLICE DEPT,,,,,
4843,MO,BOLLINGER COUNTY SHERIFF DEPT,,,,,
4844,MO,BOLLINGER COUNTY SHERIFF OFFICE,,,,,
4845,MO,BONNE TERRE POLICE DEPT,,,,,
4846,MO,BOONE COUNTY SHERIFF DEPT,,,,,
4847,MO,BOONVILLE POLICE DEPT,,,,,
4848,MO,BOWLING GREEN POLICE DEPT,,,,,
4849,MO,BRANSON POLICE,,,,,
4850,MO,BROOKFIELD POLICE DEPT,,,,,
4851,MO,BUCHANAN COUNTY SHERIFF DEPT,,,,,
4852,MO,BUCKNER POLICE DEPT,,,,,
4853,MO,BUFFALO POLICE DEPT,,,,,
4854,MO,BUNCETON POLICE DEPT,,,,,
4855,MO,BUTLER POLICE DEPT,,,,,
4856,MO,BYRNES MILL POLICE DEPT,,,,,
4857,MO,CALDWELL COUNTY SHERIFF OFFICE,,,,,
4858,MO,CALDWELL COUNTY SHERIFFS OFFICE,,,,,
4859,MO,CALIFORNIA POLICE DEPT,,,,,
4860,MO,CALLAWAY COUNTY SHERIFF DEPT,,,,,
4861,MO,CALLAWAY COUNTY SHERIFF OFFICE,,,,,
4862,MO,CALVERTON PARK POLICE DEPT,,,,,
4863,MO,CAMDEN COUNTY SHERIFF DEPT,,,,,
4864,MO,CAMDEN COUNTY SHERIFF OFFICE,,,,,
4865,MO,CAMPBELL POLICE DEPT,,,,,
4866,MO,CAPE GIRARDEAU CTY SHERIFF OFFICE,,,,,
4867,MO,CAPE GIRARDEAU CTY SHERIFFS OFFICE,,,,,
4868,MO,CARROLLTON POLICE DEPT,,,,,
4869,MO,CARTER COUNTY SHERIFF'S OFFICE,,,,,
4870,MO,CARTER COUNTY SHERIFFS OFFICE,,,,,
4871,MO,CARTERVILLE POLICE DEPT,,,,,
4872,MO,CARTHAGE POLICE DEPT,,,,,
4873,MO,CARUTHERSVILLE POLICE DEPT,,,,,
4874,MO,CASS COUNTY SHERIFF DEPT,,,,,
4875,MO,CASS COUNTY SHERIFFS OFFICE,,,,,
4876,MO,CEDAR COUNTY SHERIFF DEPT,,,,,
4877,MO,CEDAR COUNTY SHERIFF OFFICE,,,,,
4878,MO,CENTRALIA POLICE DEPT,,,,,
4879,MO,CHRISTIAN COUNTY SHERIFF DEPT,,,,,
4880,MO,CLARENCE POLICE DEPT,,,,,
4881,MO,CLARKTON POLICE DEPT,,,,,
4882,MO,CLAY COUNTY RANGER DIVISION,,,,,
4883,MO,CLAY COUNTY SHERIFF DEPT,,,,,
4884,MO,CLAY COUNTY SHERIFFS DEPT,,,,,
4885,MO,CLAYTON POLICE DEPT,,,,,
4886,MO,CLEVELAND POLICE DEPT,,,,,
4887,MO,CLEVER POLICE DEPT,,,,,
4888,MO,CLINTON COUNTY SHERIFF DEPT,,,,,
4889,MO,COLE COUNTY SHERIFF DEPT,,,,,
4890,MO,COLUMBIA POLICE DEPT,,,,,
4891,MO,CONWAY POLICE DEPT,,,,,
4892,MO,COOPER COUNTY SHERIFF DEPT,,,,,
4893,MO,COOPER COUNTY SHERIFF OFFICE,,,,,
4894,MO,COTTLEVILLE POLICE DEPT,,,,,
4895,MO,CRANE POLICE DEPT,,,,,
4896,MO,CRAWFORD COUNTY SHERIFF DEPT,,,,,
4897,MO,CRAWFORD COUNTY SHERIFF OFFICE,,,,,
4898,MO,CROCKER POLICE DEPT,,,,,
4899,MO,CRYSTAL LAKES POLICE DEPT,,,,,
4900,MO,CUBA POLICE DEPT,,,,,
4901,MO,DALLAS COUNTY SHERIFF OFFICE,,,,,
4902,MO,DAVIESS COUNTY SHERIFF,,,,,
4903,MO,DAVIESS COUNTY SHERIFF OFFICE,,,,,
4904,MO,DENT COUNTY SHERIFF DEPT,,,,,
4905,MO,DESOTO POLICE DEPT,,,,,
4906,MO,DEXTER POLICE DEPT,,,,,
4907,MO,DIXON POLICE DEPT,,,,,
4908,MO,DOJ/USMS ST LOUIS,,,,,
4909,MO,DOOLITTLE POLICE DEPT,,,,,
4910,MO,DOUGLAS COUNTY SHERIFF DEPT,,,,,
4911,MO,DUENWEG POLICE DEPARTMENT,,,,,
4912,MO,DUNKLIN COUNTY SHERIFF DEPT,,,,,
4913,MO,DUNKLIN COUNTY SHERIFF OFFICE,,,,,
4914,MO,DUQUESNE POLICE DEPT,,,,,
4915,MO,EAST LYNNE POLICE DEPT,,,,,
4916,MO,EASTERN MO LAW ENFORCEMENT TRNG CTR,,,,,
4917,MO,EL DORADO SPRINGS POLICE DEPT,,,,,
4918,MO,ELDON POLICE DEPT,,,,,
4919,MO,ELLISVILLE POLICE DEPT,,,,,
4920,MO,ELLSINORE POLICE DEPT,,,,,
4921,MO,ELSBERRY POLICE DEPT,,,,,
4922,MO,EUREKA POLICE DEPT,,,,,
4923,MO,EVERTON POLICE DEPT,,,,,
4924,MO,FAIR GROVE POLICE DEPT,,,,,
4925,MO,FAIR PLAY POLICE DEPT,,,,,
4926,MO,FAIRVIEW POLICE DEPT,,,,,
4927,MO,FAYETTE POLICE DEPT,,,,,
4928,MO,FERGUSON POLICE DEPT,,,,,
4929,MO,FESTUS POLICE DEPT,,,,,
4930,MO,FLORDELL HILLS POLICE DEPARTMENT,,,,,
4931,MO,FOLEY POLICE DEPT,,,,,
4932,MO,FORDLAND POLICE DEPT,,,,,
4933,MO,FORISTELL POLICE DEPT,,,,,
4934,MO,FORSYTH POLICE DEPT,,,,,
4935,MO,FRANKLIN COUNTY NARC ENF,,,,,
4936,MO,FRANKLIN COUNTY SHERIFF DEPT,,,,,
4937,MO,FREDERICKTOWN POLICE DEPT,,,,,
4938,MO,GARDEN CITY POLICE DEPT,,,,,
4939,MO,GASCONADE COUNTY SHERIFF DEPT,,,,,
4940,MO,GERALD POLICE DEPT,,,,,
4941,MO,GIDEON POLICE DEPARTMENT,,,,,
4942,MO,GIDEON POLICE DEPT,,,,,
4943,MO,GLADSTONE DEPT OF PUBLIC SAFETY,,,,,
4944,MO,GRAIN VALLEY POLICE DEPT,,,,,
4945,MO,GREENE COUNTY SHERIFF DEPT,,,,,
4946,MO,GREENE COUNTY SHERIFFS OFFICE,,,,,
4947,MO,GREENFIELD POLICE DEPT,,,,,
4948,MO,GREENWOOD POLICE DEPT,,,,,
4949,MO,HARRISONVILLE POLICE DEPT,,,,,
4950,MO,HARTVILLE POLICE DEPT,,,,,
4951,MO,HENRIETTA POLICE DEPT,,,,,
4952,MO,HERMANN POLICE DEPT,,,,,
4953,MO,HILLSDALE POLICE DEPT,,,,,
4954,MO,HOLDEN POLICE DEPT,,,,,
4955,MO,HOLLISTER POLICE DEPT,,,,,
4956,MO,HOLT COUNTY SHERIFF DEPT,,,,,
4957,MO,HOLT POLICE DEPT,,,,,
4958,MO,HOLTS SUMMIT POLICE DEPT,,,,,
4959,MO,HOWARD COUNTY SHERIFF DEPT,,,,,
4960,MO,HOWARD COUNTY SHERIFFS OFFICE,,,,,
4961,MO,HOWELL COUNTY SHERIFF DEPT,,,,,
4962,MO,HOWELL COUNTY SHERIFFS OFFICE,,,,,
4963,MO,HUMANSVILLE POLICE DEPT,,,,,
4964,MO,HURLEY POLICE DEPT,,,,,
4965,MO,IBERIA POLICE DEPT,,,,,
4966,MO,INDEPENDENCE POLICE DEPT,,,,,
4967,MO,INDIAN POINT POLICE DEPT,,,,,
4968,MO,IRON COUNTY SHERIFF DEPT,,,,,
4969,MO,IRON COUNTY SHERIFF OFFICE,,,,,
4970,MO,IRON MOUNTAIN LAKE POLICE DEPT,,,,,
4971,MO,IRONTON POLICE DEPT,,,,,
4972,MO,JACKSON COUNTY SHERIFF DEPT,,,,,
4973,MO,JACKSON COUNTY SHERIFF OFFICE,,,,,
4974,MO,JAMESTOWN POLICE DEPT,,,,,
4975,MO,JASPER COUNTY SHERIFF DEPT,,,,,
4976,MO,JASPER COUNTY SHERIFFS OFFICE,,,,,
4977,MO,JEFFERSON CITY POLICE DEPT,,,,,
4978,MO,JEFFERSON COLLEGE POLICE DEPT,,,,,
4979,MO,JEFFERSON COLLEGE POLICE HI_ED,,,,,
4980,MO,JEFFERSON COMM COLLEGE POLICE HI_ED,,,,,
4981,MO,JEFFERSON COUNTY SHERIFF DEPT,,,,,
4982,MO,JEFFERSON COUNTY SHERIFFS OFFICE,,,,,
4983,MO,JOHNSON COUNTY SHERIFF DEPT,,,,,
4984,MO,JOHNSON COUNTY SHERIFF OFFICE,,,,,
4985,MO,JOHNSON COUNTY SHERIFFS OFFICE,,,,,
4986,MO,JOPLIN POLICE DEPT,,,,,
4987,MO,KANSAS CITY POLICE DEPT,,,,,
4988,MO,KEARNEY POLICE DEPT,,,,,
4989,MO,KENNETT POLICE DEPT,,,,,
4990,MO,KIMBERLING CITY POLICE DEPT,,,,,
4991,MO,KIRKWOOD POLICE DEPARTMENT,,,,,
4992,MO,KIRKWOOD POLICE DEPT,,,,,
4993,MO,KNOB NOSTER POLICE DEPT,,,,,
4994,MO,KNOBNOSTER POLICE DEPT,,,,,
4995,MO,KNOX COUNTY SHERIFF DEPT,,,,,
4996,MO,LA PLATA POLICE DEPT,,,,,
4997,MO,LACLEDE COUNTY SHERIFF OFFICE,,,,,
4998,MO,LADDONIA POLICE DEPARTMENT,,,,,
4999,MO,LADDONIA POLICE DEPT,,,,,
5000,MO,LAKE OZARK POLICE DEPT,,,,,
5001,MO,LAKE WINNEBAGO POLICE DEPT,,,,,
5002,MO,LAMAR POLICE DEPT,,,,,
5003,MO,LANAGAN POLICE DEPT,,,,,
5004,MO,LAURIE POLICE DEPARTMENT,,,,,
5005,MO,LAWRENCE COUNTY SHERIFF DEPT,,,,,
5006,MO,LAWRENCE COUNTY SHERIFFS OFFICE,,,,,
5007,MO,LEADWOOD POLICE DEPT,,,,,
5008,MO,LEASBURG POLICE DEPT,,,,,
5009,MO,LEWIS COUNTY SHERIFF OFFICE,,,,,
5010,MO,LEXINGTON POLICE DEPT,,,,,
5011,MO,LIBERAL POLICE DEPT,,,,,
5012,MO,LILBOURN POLICE DEPT,,,,,
5013,MO,LINCOLN COUNTY SHERIFF DEPT,,,,,
5014,MO,LINCOLN COUNTY SHERIFFS OFFICE,,,,,
5015,MO,LINCOLN UNIVERSITY POLICE,,,,,
5016,MO,LINCOLN UNIVERSITY POLICE HI_ED,,,,,
5017,MO,LINN CREEK POLICE DEPT,,,,,
5018,MO,LINN POLICE DEPT,,,,,
5019,MO,LONE JACK POLICE DEPT,,,,,
5020,MO,MACON COUNTY SHERIFF DEPT,,,,,
5021,MO,MACON COUNTY SHERIFFS OFFICE,,,,,
5022,MO,MADISON COUNTY SHERIFF DEPT,,,,,
5023,MO,MALDEN POLICE DEPT,,,,,
5024,MO,MARBLE HILL POLICE DEPT,,,,,
5025,MO,MARCELINE POLICE DEPT,,,,,
5026,MO,MARIES COUNTY SHERIFF DEPT,,,,,
5027,MO,MARIES COUNTY SHERIFFS OFFICE,,,,,
5028,MO,MARSHALL POLICE DEPT,,,,,
5029,MO,MARSTON POLICE DEPT,,,,,
5030,MO,MARTHASVILLE POLICE DEPT,,,,,
5031,MO,MCDONALD COUNTY SHERIFF DEPT,,,,,
5032,MO,MCDONALD COUNTY SHERIFFS OFFICE,,,,,
5033,MO,MERRIAM WOODS POLICE DEPT,,,,,
5034,MO,MEXICO DEPARTMENT OF PUBLIC SAFETY,,,,,
5035,MO,MID MO DRUG TASK FORCE,,,,,
5036,MO,MILLER COUNTY SHERIFF DEPT,,,,,
5037,MO,MILLER COUNTY SHERIFFS OFFICE,,,,,
5038,MO,MILLER POLICE DEPT,,,,,
5039,MO,MIRAMIGUOA VILLAGE POLICE DEPT,,,,,
5040,MO,MISSISSIPPI COUNTY SHERIFF DEPT,,,,,
5041,MO,MISSOURI CAPITAL POLICE,,,,,
5042,MO,MO DEPT OF PUBLIC SAFETY,,,,,
5043,MO,MO SOUTHEAST DTF,,,,,
5044,MO,MO STATE HIGHWAY PATROL,,,,,
5045,MO,MOBERLY POLICE DEPT,,,,,
5046,MO,MOLINE ACRES POLICE DEPT,,,,,
5047,MO,MONITEAU COUNTY SHERIFF DEPT,,,,,
5048,MO,MONTGOMERY COUNTY SHERIFF DEPT,,,,,
5049,MO,MONTGOMERY COUNTY SHERIFFS OFFICE,,,,,
5050,MO,MORGAN COUNTY SHERIFF OFFICE,,,,,
5051,MO,MORGAN COUNTY SHERIFFS OFFICE,,,,,
5052,MO,MOSCOW MILLS POLICE DEPT,,,,,
5053,MO,MOUNT VERNON POLICE DEPT,,,,,
5054,MO,MOUNTAIN GROVE POLICE DEPT,,,,,
5055,MO,MOUNTAIN VIEW POLICE DEPT,,,,,
5056,MO,MUSTANG DTF,,,,,
5057,MO,NEOSHO POLICE DEPT,,,,,
5058,MO,NEW BLOOMFIELD POLICE DEPT,,,,,
5059,MO,NEW FRANKLIN POLICE DEPT,,,,,
5060,MO,NEW LONDON POLICE DEPT,,,,,
5061,MO,NEW MADRID COUNTY R-1 CAMPUS POLICE,,,,,
5062,MO,NEW MADRID COUNTY SHERIFF DEPT,,,,,
5063,MO,NEW MADRID COUNTY SHERIFFS DEPT,,,,,
5064,MO,NEW MADRID CTY R-1  POLICE K-12,,,,,
5065,MO,NEW MADRID POLICE DEPT,,,,,
5066,MO,NEW MELLE POLICE DEPT,,,,,
5067,MO,NEWBURG POLICE DEPT,,,,,
5068,MO,NEWTON COUNTY SHERIFF DEPT,,,,,
5069,MO,NEWTON COUNTY SHERIFF OFFICE,,,,,
5070,MO,NIANGUA POLICE DEPT,,,,,
5071,MO,NIXA POLICE DEPT,,,,,
5072,MO,NOEL MARSHAL'S OFFICE,,,,,
5073,MO,NOEL MARSHALS OFFICE,,,,,
5074,MO,NORMANDY POLICE DEPT,,,,,
5075,MO,NORTH MO DTF,,,,,
5076,MO,NORTHWOODS POLICE DEPT,,,,,
5077,MO,OAKVIEW POLICE DEPT,,,,,
5078,MO,OFALLON POLICE DEPARTMENT,,,,,
5079,MO,OREGON COUNTY SHERIFF DEPT,,,,,
5080,MO,OREGON COUNTY SHERIFF OFFICE,,,,,
5081,MO,ORONOGO POLICE DEPARTMENT,,,,,
5082,MO,ORONOGO POLICE DEPT,,,,,
5083,MO,ORRICK POLICE DEPT,,,,,
5084,MO,OSAGE COUNTY SHERIFF DEPT,,,,,
5085,MO,OSCEOLA POLICE DEPT,,,,,
5086,MO,OZARK COUNTY  SHERIFF DEPT,,,,,
5087,MO,OZARK POLICE DEPARTMENT,,,,,
5088,MO,PACIFIC POLICE DEPT,,,,,
5089,MO,PEMISCOT COUNTY SHERIFF DEPT,,,,,
5090,MO,PEMISCOT COUNTY SHERIFF OFFICE,,,,,
5091,MO,PERRY COUNTY SHERIFF DEPT,,,,,
5092,MO,PERRY COUNTY SHERIFF OFFICE,,,,,
5093,MO,PETTIS COUNTY SHERIFF DEPT,,,,,
5094,MO,PETTIS COUNTY SHERIFFS OFFICE,,,,,
5095,MO,PEVELY POLICE DEPT,,,,,
5096,MO,PIEDMONT POLICE DEPT,,,,,
5097,MO,PIKE COUNTY SHERIFF DEPT,,,,,
5098,MO,PIKE COUNTY SHERIFF OFFICE,,,,,
5099,MO,PILOT GROVE CITY POLICE,,,,,
5100,MO,PINEVILLE POLICE DEPT,,,,,
5101,MO,PLATTE COUNTY SHERIFF DEPT,,,,,
5102,MO,PLATTE COUNTY SHERIFF OFFICE,,,,,
5103,MO,PLATTSBURG POLICE DEPT,,,,,
5104,MO,PLEASANT VALLEY POLICE DEPT,,,,,
5105,MO,POPLAR BLUFF POLICE DEPT,,,,,
5106,MO,PORTAGEVILLE POLICE DEPT,,,,,
5107,MO,PULASKI COUNTY SHERIFF DEPT,,,,,
5108,MO,PURCELL POLICE DEPT,,,,,
5109,MO,PURDY POLICE DEPT,,,,,
5110,MO,RALLS COUNTY SHERIFF DEPT,,,,,
5111,MO,RALLS COUNTY SHERIFF OFFICE,,,,,
5112,MO,RANDOLPH COUNTY SHERIFFS OFFICE,,,,,
5113,MO,RAY COUNTY SHERIFF DEPT,,,,,
5114,MO,RAY COUNTY SHERIFFS DEPT,,,,,
5115,MO,REPUBLIC POLICE DEPARTMENT,,,,,
5116,MO,REPUBLIC POLICE DEPT,,,,,
5117,MO,RICH HILL POLICE DEPT,,,,,
5118,MO,RICHLAND POLICE DEPT,,,,,
5119,MO,RIVERVIEW POLICE DEPT,,,,,
5120,MO,ROLLA POLICE DEPT,,,,,
5121,MO,SAINT ANN POLICE DEPT,,,,,
5122,MO,SAINT CHARLES COUNTY SHERIFF DEPT,,,,,
5123,MO,SAINT CHARLES COUNTY SHERIFF'S DEPT,,,,,
5124,MO,SAINT CHARLES COUNTY SHERIFFS DEPT,,,,,
5125,MO,SAINT CLAIR COUNTY SHERIFF DEPT.,,,,,
5126,MO,SAINT FRANCOIS COUNTY SHERIFF DEPT,,,,,
5127,MO,SAINT GENEVIEVE CTY SHERIFF DEPT,,,,,
5128,MO,SAINT GENEVIEVE CTY SHERIFF OFFICE,,,,,
5129,MO,SAINT JAMES POLICE DEPT,,,,,
5130,MO,SAINT JOSEPH POLICE DEPT,,,,,
5131,MO,SAINT LOUIS COUNTY POLICE DEPT,,,,,
5132,MO,SAINT LOUIS METRO POLICE DEPT,,,,,
5133,MO,SALINE COUNTY SHERIFF DEPT,,,,,
5134,MO,SALINE COUNTY SHERIFFS DEPT,,,,,
5135,MO,SAVANNAH POLICE DEPARTMENT,,,,,
5136,MO,SCHUYLER COUNTY SHERIFF DEPT,,,,,
5137,MO,SCHUYLER COUNTY SHERIFF'S OFFICE,,,,,
5138,MO,SCHUYLER COUNTY SHERIFFS OFFICE,,,,,
5139,MO,SCOTLAND COUNTY SHERIFF DEPT,,,,,
5140,MO,SCOTT CITY POLICE DEPT,,,,,
5141,MO,SCOTT COUNTY SHERIFF OFFICE,,,,,
5142,MO,SEDALIA POLICE DEPT,,,,,
5143,MO,SELIGMAN POLICE DEPT,,,,,
5144,MO,SENECA POLICE DEPT,,,,,
5145,MO,SEYMOUR POLICE DEPT,,,,,
5146,MO,SHELBINA POLICE DEPT,,,,,
5147,MO,SOUTHWEST CITY POLICE DEPARTMENT,,,,,
5148,MO,SPRINGFIELD AIRPORT POLICE DEPT,,,,,
5149,MO,SPRINGFIELD BRANSON AIRPORT LEA,,,,,
5150,MO,SPRINGFIELD POLICE DEPT,,,,,
5151,MO,ST. CHARLES CO POLICE DEPARTMENT,,,,,
5152,MO,ST. CHARLES COUNTY POLICE DEPT,,,,,
5153,MO,ST. CLAIR COUNTY SHERIFF OFFICE,,,,,
5154,MO,STODDARD COUNTY SHERIFF DEPT,,,,,
5155,MO,STODDARD COUNTY SHERIFF OFFICE,,,,,
5156,MO,STONE COUNTY SHERIFF DEPT,,,,,
5157,MO,STONE COUNTY SHERIFF OFFICE,,,,,
5158,MO,STOVER POLICE DEPT,,,,,
5159,MO,STURGEON POLICE DEPT,,,,,
5160,MO,SUGAR CREEK POLICE DEPT,,,,,
5161,MO,SWEET SPRINGS POLICE DEPT,,,,,
5162,MO,TERRE DU LAC POLICE DEPT,,,,,
5163,MO,THAYER POLICE DEPT,,,,,
5164,MO,TOWN OF WEST SULLIVAN POLICE DEPT,,,,,
5165,MO,TRENTON POLICE DEPT,,,,,
5166,MO,TROY POLICE DEPARTMENT,,,,,
5167,MO,TROY POLICE DEPT,,,,,
5168,MO,UNION POLICE DEPT,,,,,
5169,MO,UNIONVILLE POLICE DEPT,,,,,
5170,MO,US MARSHAL SERVICE ST LOUIS,,,,,
5171,MO,VELDA CITY POLICE DEPT,,,,,
5172,MO,VERNON COUNTY SHERIFF DEPT,,,,,
5173,MO,VERNON COUNTY SHERIFF OFFICE,,,,,
5174,MO,VERONA POLICE DEPT,,,,,
5175,MO,VERSAILLES POLICE DEPT,,,,,
5176,MO,VIENNA POLICE DEPARTMENT,,,,,
5177,MO,WALNUT GROVE POLICE,,,,,
5178,MO,WARRENTON POLICE DEPT,,,,,
5179,MO,WASHINGTON COUNTY SHERIFF DEPT,,,,,
5180,MO,WASHINGTON COUNTY SHERIFF OFFICE,,,,,
5181,MO,WASHINGTON POLICE DEPT,,,,,
5182,MO,WAVERLY POLICE DEPT,,,,,
5183,MO,WAYNE COUNTY SHERIFF DEPT,,,,,
5184,MO,WAYNESVILLE POLICE DEPT,,,,,
5185,MO,WEBB CITY POLICE DEPT,,,,,
5186,MO,WEBSTER COUNTY SHERIFF DEPT,,,,,
5187,MO,WEBSTER COUNTY SHERIFF OFFICE,,,,,
5188,MO,WELLSTON POLICE DEPT,,,,,
5189,MO,WEST PLAINS POLICE DEPT,,,,,
5190,MO,WESTON POLICE DEPT,,,,,
5191,MO,WHEATON POLICE DEPT,,,,,
5192,MO,WILLARD POLICE DEPT,,,,,
5193,MO,WILLOW SPRINGS POLICE DEPT,,,,,
5194,MO,WINFIELD POLICE DEPT,,,,,
5195,MO,WINONA POLICE DEPT,,,,,
5196,MO,WRIGHT CITY POLICE DEPT,,,,,
5197,MO,WRIGHT COUNTY SHERIFF OFFICE,,,,,
5198,MO,WRIGHT COUNTY SHERIFFS DEPT,,,,,
5199,MS,ADAMS COUNTY SHERIFF DEPT,,,,,
5200,MS,ADAMS COUNTY SHERIFFS OFFICE,,,,,
5201,MS,ALCORN COUNTY SHERIFF DEPT,,,,,
5202,MS,ALCORN COUNTY SHERIFFS OFFICE,,,,,
5203,MS,ATTALA COUNTY SHERIFF DEPT,,,,,
5204,MS,BAY SPRINGS POLICE DEPT,,,,,
5205,MS,BAY ST LOUIS POLICE DEPT,,,,,
5206,MS,BELMONT POLICE DEPT,,,,,
5207,MS,BILOXI POLICE DEPT,,,,,
5208,MS,BOONEVILLE POLICE DEPT,,,,,
5209,MS,BRANDON POLICE DEPT,,,,,
5210,MS,BRUCE POLICE DEPT,,,,,
5211,MS,BYHALIA POLICE DEPT,,,,,
5212,MS,CALHOUN COUNTY SHERIFF DEPT,,,,,
5213,MS,CLARKSDALE POLICE DEPT,,,,,
5214,MS,CLEVELAND POLICE DEPT,,,,,
5215,MS,CLINTON POLICE DEPT,,,,,
5216,MS,COAHOMA COUNTY SHERIFF DEPT,,,,,
5217,MS,COFFEEVILLE POLICE DEPT,,,,,
5218,MS,COLUMBUS POLICE DEPT,,,,,
5219,MS,COPIAH COUNTY SHERIFF DEPT,,,,,
5220,MS,CRYSTAL SPRINGS POLICE DEPT,,,,,
5221,MS,DECATUR POLICE DEPT,,,,,
5222,MS,DESOTO COUNTY SHERIFF DEPT,,,,,
5223,MS,DHS/ICE PEARL,,,,,
5224,MS,DIAMONDHEAD POLICE DEPARTMENT,,,,,
5225,MS,DIBERVILLE POLICE DEPT,,,,,
5226,MS,DOI/NPS NATCHEZ TRACE PKWY,,,,,
5227,MS,DOJ/FBI JACKSON DIV GULFPORT,,,,,
5228,MS,FARMINGTON POLICE DEPT,,,,,
5229,MS,FBI JACKSON DIV GULFPORT RES AGENCY,,,,,
5230,MS,FLORENCE POLICE DEPT,,,,,
5231,MS,FLOWOOD POLICE DEPT,,,,,
5232,MS,FOREST POLICE DEPT,,,,,
5233,MS,FORREST COUNTY SHERIFF DEPT,,,,,
5234,MS,FORREST COUNTY SHERIFFS OFFICE,,,,,
5235,MS,FULTON POLICE DEPT,,,,,
5236,MS,GEORGE COUNTY SHERIFF DEPT,,,,,
5237,MS,GEORGE COUNTY SHERIFF OFFICE,,,,,
5238,MS,GREENE COUNTY SHERIFF DEPT,,,,,
5239,MS,GREENWOOD POLICE DEPT,,,,,
5240,MS,GRENADA COUNTY SHERIFF DEPT,,,,,
5241,MS,GRENADA COUNTY SHERIFFS OFFICE,,,,,
5242,MS,GRENADA POLICE DEPT,,,,,
5243,MS,GULFPORT POLICE DEPT,,,,,
5244,MS,GUNTOWN POLICE DEPT,,,,,
5245,MS,HANCOCK COUNTY SHERIFF OFFICE,,,,,
5246,MS,HANCOCK COUNTY SHERIFFS OFFICE,,,,,
5247,MS,HARRISON COUNTY SHERIFF DEPT,,,,,
5248,MS,HEIDELBERG POLICE DEPT,,,,,
5249,MS,HERNANDO POLICE DEPT,,,,,
5250,MS,HINDS COMM COLLEGE POLICE HI_ED,,,,,
5251,MS,HINDS COMMUNITY COLLEGE POLICE,,,,,
5252,MS,HINDS COUNTY SHERIFF DEPT,,,,,
5253,MS,HINDS COUNTY SHERIFFS OFFICE,,,,,
5254,MS,HOLLY SPRINGS POLICE DEPT,,,,,
5255,MS,HOLMES COMM COLLEGE POLICE HI_ED,,,,,
5256,MS,HOLMES COMMUNITY COLLEGE POLICE,,,,,
5257,MS,JACKSON COUNTY SHERIFF DEPT,,,,,
5258,MS,JACKSON POLICE DEPT,,,,,
5259,MS,JASPER COUNTY SHERIFF DEPT,,,,,
5260,MS,JONES COUNTY SHERIFF DEPT,,,,,
5261,MS,KEMPER COUNTY SHERIFF DEPT,,,,,
5262,MS,KEMPER COUNTY SHERIFFS DEPT,,,,,
5263,MS,KOSCIUSKO POLICE DEPT,,,,,
5264,MS,LAFAYETTE COUNTY METRO NARCOTICS,,,,,
5265,MS,LAFAYETTE COUNTY SHERIFF DEPT,,,,,
5266,MS,LAFAYETTE COUNTY SHERIFFS DEPT,,,,,
5267,MS,LAUDERDALE COUNTY SHERIFF DEPT,,,,,
5268,MS,LAUDERDALE COUNTY SHERIFFS DEPT,,,,,
5269,MS,LEAKE COUNTY SHERIFF DEPT,,,,,
5270,MS,LEAKE COUNTY SHERIFF OFFICE,,,,,
5271,MS,LEE COUNTY SHERIFF DEPT,,,,,
5272,MS,LEFLORE COUNTY SHERIFF DEPT,,,,,
5273,MS,LONG BEACH POLICE DEPT,,,,,
5274,MS,LOUISVILLE POLICE DEPT,,,,,
5275,MS,LOWNDES COUNTY SHERIFF DEPT,,,,,
5276,MS,MACON POLICE DEPT,,,,,
5277,MS,MADISON COUNTY SHERIFF DEPT,,,,,
5278,MS,MADISON COUNTY SHERIFFS OFFICE,,,,,
5279,MS,MARION POLICE DEPT,,,,,
5280,MS,MARSHALL COUNTY SHERIFF DEPT,,,,,
5281,MS,MARSHALL COUNTY SHERIFFS OFFICE,,,,,
5282,MS,MCCOMB POLICE DEPT,,,,,
5283,MS,MERIDIAN POLICE DEPT,,,,,
5284,MS,MONROE COUNTY SHERIFF DEPT,,,,,
5285,MS,MONTGOMERY COUNTY SHERIFF DEPT,,,,,
5286,MS,MS BUREAU OF NARCOTICS,,,,,
5287,MS,MS BUREAU OF NARCOTICS LEA,,,,,
5288,MS,MS DEPT OF CORRECTIONS,,,,,
5289,MS,MS DEPT OF PUBLIC SAFETY,,,,,
5290,MS,MS DEPT OF TRANSPORTATION,,,,,
5291,MS,MS HIGHWAY PATROL,,,,,
5292,MS,MS STATE UNIVERSITY POLICE,,,,,
5293,MS,MS STATE UNIVERSITY POLICE HI_ED,,,,,
5294,MS,MYRTLE POLICE DEPT,,,,,
5295,MS,NATCHEZ POLICE DEPT,,,,,
5296,MS,OCEAN SPRINGS POLICE DEPT,,,,,
5297,MS,OKTIBBEHA COUNTY SHERIFF DEPT,,,,,
5298,MS,OKTIBBEHA COUNTY SHERIFFS OFFICE,,,,,
5299,MS,OLIVE BRANCH POLICE DEPT,,,,,
5300,MS,OXFORD POLICE DEPT,,,,,
5301,MS,PEARL POLICE DEPT,,,,,
5302,MS,PEARL RIVER VALLEY RESERVOIR PD,,,,,
5303,MS,PHILADELPHIA POLICE DEPT,,,,,
5304,MS,PONTOTOC POLICE DEPT,,,,,
5305,MS,PRENTISS POLICE DEPT,,,,,
5306,MS,RALEIGH POLICE DEPT,,,,,
5307,MS,RANKIN COUNTY SHERIFF DEPT,,,,,
5308,MS,RANKIN COUNTY SHERIFFS OFFICE,,,,,
5309,MS,RESERVOIR POLICE DEPT,,,,,
5310,MS,RIDGELAND POLICE DEPT,,,,,
5311,MS,SALTILLO POLICE DEPT,,,,,
5312,MS,SENATOBIA POLICE DEPT,,,,,
5313,MS,SIMPSON COUNTY SHERIFF DEPT,,,,,
5314,MS,SIMPSON COUNTY SHERIFFS OFFICE,,,,,
5315,MS,SMITH COUNTY SHERIFF DEPT,,,,,
5316,MS,SMITH COUNTY SHERIFFS DEPT,,,,,
5317,MS,SOUTHAVEN POLICE DEPT,,,,,
5318,MS,STARKVILLE POLICE DEPT,,,,,
5319,MS,TALLAHATCHIE COUNTY SHERIFF DEPT,,,,,
5320,MS,TATE COUNTY SHERIFF DEPT,,,,,
5321,MS,TATE COUNTY SHERIFFS OFFICE,,,,,
5322,MS,TUPELO POLICE DEPT,,,,,
5323,MS,TUTWILER POLICE DEPT,,,,,
5324,MS,UNIV OF SOUTHERN MS POLICE DEPT,,,,,
5325,MS,UNIV OF SOUTHERN MS POLICE HI_ED,,,,,
5326,MS,US DOI NPS NATCHEZ TRACE PKWY,,,,,
5327,MS,VAIDEN POLICE DEPT,,,,,
5328,MS,WASHINGTON COUNTY SHERIFF DEPT,,,,,
5329,MS,WAYNE COUNTY SHERIFF DEPT,,,,,
5330,MS,WEST POINT POLICE DEPT,,,,,
5331,MS,YALOBUSHA COUNTY SHERIFF DEPT,,,,,
5332,MT,ANACONDA DEER LODGE CTY POLICE DEPT,,,,,
5333,MT,BAKER POLICE DEPT,,,,,
5334,MT,BEAVERHEAD CTY SHERIFF DEPT,,,,,
5335,MT,BEAVERHEAD CTY SHERIFF OFFICE,,,,,
5336,MT,BELGRADE POLICE DEPT,,,,,
5337,MT,BIG HORN CO SHERIFF DEPT,,,,,
5338,MT,BLACKFEET TRIBAL LAW ENFORCEMENT,,,,,
5339,MT,BLAINE CTY SHERIFF DEPT,,,,,
5340,MT,BRIDGER POLICE DEPT,,,,,
5341,MT,BROADWATER CTY SHERIFF DEPT,,,,,
5342,MT,BROADWATER CTY SHERIFF OFFICE,,,,,
5343,MT,CARTER CTY SHERIFF DEPT,,,,,
5344,MT,CASCADE CTY SHERIFF,,,,,
5345,MT,CHINOOK POLICE DEPT,,,,,
5346,MT,CHOUTEAU CTY SHERIFF DEPT,,,,,
5347,MT,COLUMBIA FALLS POLICE DEPT,,,,,
5348,MT,CONRAD POLICE DEPT,,,,,
5349,MT,CUT BANK POLICE DEPT,,,,,
5350,MT,DANIELS CTY SHERIFF DEPT,,,,,
5351,MT,DILLON POLICE DEPT,,,,,
5352,MT,DOJ/DEA BILLINGS,,,,,
5353,MT,DOJ/GAMBLING CONTROL DIV,,,,,
5354,MT,EUREKA POLICE DEPT,,,,,
5355,MT,FALLON CTY SHERIFF DEPT,,,,,
5356,MT,FLATHEAD CTY SHERIFF DEPT,,,,,
5357,MT,FLATHEAD CTY SHERIFF OFFICE,,,,,
5358,MT,FORT BENTON POLICE DEPT,,,,,
5359,MT,FROMBERG POLICE DEPT,,,,,
5360,MT,GALLATIN AIRPORT AUTHORITY,,,,,
5361,MT,GALLATIN CTY SHERIFF DEPT,,,,,
5362,MT,GARFIELD CTY SHERIFF DEPT,,,,,
5363,MT,GLACIER CTY SHERIFF DEPT,,,,,
5364,MT,GLASGOW POLICE DEPT,,,,,
5365,MT,GOLDEN VALLEY CTY SHERIFF,,,,,
5366,MT,GRANITE CTY SHERIFF DEPT,,,,,
5367,MT,GREAT FALLS INTL AIRPORT PD,,,,,
5368,MT,GREAT FALLS POLICE DEPT,,,,,
5369,MT,HAVRE POLICE DEPT,,,,,
5370,MT,HELENA CITY POLICE DEPT,,,,,
5371,MT,HOT SPRINGS POLICE DEPT,,,,,
5372,MT,JUDITH BASIN CO SHERIFF'S OFFICE,,,,,
5373,MT,LAUREL POLICE DEPT,,,,,
5374,MT,LEWIS AND CLARK CTY SHERIFF DEPT,,,,,
5375,MT,LEWISTOWN POLICE DEPT,,,,,
5376,MT,LINCOLN COUNTY SHERIFFS OFFICE,,,,,
5377,MT,LINCOLN CTY SHERIFF DEPT,,,,,
5378,MT,MCCONE COUNTY SHERIFF'S OFFICE,,,,,
5379,MT,MCCONE COUNTY SHERIFFS OFFICE,,,,,
5380,MT,MEAGHER CTY SHERIFF DEPT,,,,,
5381,MT,MEAGHER CTY SHERIFF OFFICE,,,,,
5382,MT,MISSOULA CTY SHERIFF DEPT,,,,,
5383,MT,MISSOULA POLICE DEPT,,,,,
5384,MT,MT DEPT OF CORR HELENA,,,,,
5385,MT,MT DEPT OF FISH/WILDLIFE/PARKS  1,,,,,
5386,MT,MT DEPT OF LIVESTOCK,,,,,
5387,MT,MT DOJ GAMBLING CONTROL DIVISION,,,,,
5388,MT,MT HIGHWAY PATROL HELENA,,,,,
5389,MT,MT STATE PRISON,,,,,
5390,MT,MUSSELSHELL CTY SHERIFF,,,,,
5391,MT,PARK CTY SHERIFF DEPT,,,,,
5392,MT,PETROLEUM CTY SHERIFF DEPT,,,,,
5393,MT,PHILLIPS CTY SHERIFF DEPT,,,,,
5394,MT,POLSON POLICE DEPT,,,,,
5395,MT,PONDERA CTY SHERIFF DEPT,,,,,
5396,MT,POPLAR CITY POLICE DEPT,,,,,
5397,MT,POWDER RIVER CTY SHERIFF DEPT,,,,,
5398,MT,POWELL CTY SHERIFF DEPT,,,,,
5399,MT,PRAIRIE CO SHERIFF DEPT,,,,,
5400,MT,RICHLAND CTY SHERIFF OFFICE,,,,,
5401,MT,ROOSEVELT CTY SHERIFF DEPT,,,,,
5402,MT,SANDERS CTY SHERIFF DEPT,,,,,
5403,MT,SHERIDAN CTY SHERIFF DEPT,,,,,
5404,MT,SWEET GRASS CTY SHERIFF DEPT,,,,,
5405,MT,TETON CTY SHERIFF DEPT,,,,,
5406,MT,TOOLE CTY SHERIFF DEPT,,,,,
5407,MT,TROY CITY POLICE DEPT,,,,,
5408,MT,VALLEY CTY SHERIFF DEPT,,,,,
5409,MT,WHEATLAND CTY SHERIFF OFFICE,,,,,
5410,MT,WHITEFISH POLICE DEPT,,,,,
5411,MT,YELLOWSTONE CTY SHERIFF DEPT,,,,,
5412,NC,ABERDEEN POLICE DEPT,,,,,
5413,NC,AHOSKIE POLICE DEPT,,,,,
5414,NC,ALAMANCE COUNTY SHERIFF DEPT,,,,,
5415,NC,ALAMANCE COUNTY SHERIFF'S OFFICE,,,,,
5416,NC,ALBEMARLE POLICE DEPARTMENT,,,,,
5417,NC,ALBEMARLE POLICE DEPT,,,,,
5418,NC,ALBERT ELLIS AIRPORT POLICE AGENCY,,,,,
5419,NC,ALBERT J ELLIS AIRPORT PD LEA,,,,,
5420,NC,ALBERT J ELLIS AIRPORT POLICE DEPT,,,,,
5421,NC,ALEXANDER COUNTY SHERIFF DEPT,,,,,
5422,NC,ALEXANDER COUNTY SHERIFF'S OFFICE,,,,,
5423,NC,ALEXANDER COUNTY SHERIFFS OFFICE,,,,,
5424,NC,ALLEGHANY COUNTY SHERIFF DEPT,,,,,
5425,NC,ALLEGHANY COUNTY SHERIFF'S OFFICE,,,,,
5426,NC,ALLEGHANY COUNTY SHERIFFS OFFICE,,,,,
5427,NC,ANDREWS POLICE DEPARTMENT,,,,,
5428,NC,ANDREWS POLICE DEPT,,,,,
5429,NC,ANSON COUNTY SHERIFFS OFFICE,,,,,
5430,NC,APPALACHIAN STATE UNIV POLICE,,,,,
5431,NC,ARBORETUM SPECIAL POLICE DEPT,,,,,
5432,NC,ARCHDALE POLICE DEPT,,,,,
5433,NC,ASHE COUNTY SHERIFF OFFICE,,,,,
5434,NC,ASHE COUNTY SHERIFF'S OFFICE,,,,,
5435,NC,ASHE COUNTY SHERIFFS OFFICE,,,,,
5436,NC,ASHEBORO POLICE DEPT,,,,,
5437,NC,ASHEVILLE POLICE DEPARTMENT,,,,,
5438,NC,ASHEVILLE POLICE DEPT,,,,,
5439,NC,ASHEVILLE REGIONAL AIRPORT POLICE,,,,,
5440,NC,ATLANTIC BEACH POLICE DEPT,,,,,
5441,NC,AVERY COUNTY SHERIFF DEPT,,,,,
5442,NC,AVERY COUNTY SHERIFF'S OFFICE,,,,,
5443,NC,AVERY COUNTY SHERIFFS OFFICE,,,,,
5444,NC,AYDEN POLICE DEPARTMENT,,,,,
5445,NC,AYDEN POLICE DEPT,,,,,
5446,NC,BADIN POLICE DEPT,,,,,
5447,NC,BALD HEAD ISLAND POLICE,,,,,
5448,NC,BANNER ELK POLICE DEPT,,,,,
5449,NC,BEAUFORT COUNTY SHERIFF DEPT,,,,,
5450,NC,BEAUFORT COUNTY SHERIFF'S OFFICE,,,,,
5451,NC,BEAUFORT COUNTY SHERIFFS OFFICE,,,,,
5452,NC,BEAUFORT POLICE DEPT,,,,,
5453,NC,BEECH MOUNTAIN POLICE DEPT,,,,,
5454,NC,BELHAVEN POLICE DEPT,,,,,
5455,NC,BELMONT POLICE DEPARTMENT,,,,,
5456,NC,BELMONT POLICE DEPT,,,,,
5457,NC,BERTIE COUNTY SHERIFF DEPT,,,,,
5458,NC,BERTIE COUNTY SHERIFF'S OFFICE,,,,,
5459,NC,BERTIE COUNTY SHERIFFS OFFICE,,,,,
5460,NC,BETHEL POLICE DEPARTMENT,,,,,
5461,NC,BETHEL POLICE DEPT,,,,,
5462,NC,BEULAVILLE POLICE DEPT,,,,,
5463,NC,BISCOE POLICE DEPARTMENT,,,,,
5464,NC,BISCOE POLICE DEPT,,,,,
5465,NC,BLADEN COUNTY SHERIFF DEPT,,,,,
5466,NC,BLADEN COUNTY SHERIFF'S OFFICE,,,,,
5467,NC,BLADEN COUNTY SHERIFFS OFFICE,,,,,
5468,NC,BLADENBORO POLICE DEPARTMENT,,,,,
5469,NC,BLADENBORO POLICE DEPT,,,,,
5470,NC,BLOWING ROCK POLICE DEPT,,,,,
5471,NC,BOILING SPRING LAKES POLICE DEPT,,,,,
5472,NC,BOILING SPRINGS LAKE POLICE DEPT,,,,,
5473,NC,BOILING SPRINGS POLICE DEPT,,,,,
5474,NC,BOONE POLICE DEPARTMENT,,,,,
5475,NC,BOONE POLICE DEPT,,,,,
5476,NC,BRIDGETON POLICE DEPARTMENT,,,,,
5477,NC,BRIDGETON POLICE DEPT,,,,,
5478,NC,BROUGHTON POLICE DEPARTMENT,,,,,
5479,NC,BROUGHTON POLICE DEPT,,,,,
5480,NC,BRUNSWICK COUNTY SHERIFF OFFICE,,,,,
5481,NC,BRUNSWICK COUNTY SHERIFF'S OFFICE,,,,,
5482,NC,BRUNSWICK COUNTY SHERIFFS OFFICE,,,,,
5483,NC,BRYSON CITY POLICE DEPT,,,,,
5484,NC,BUNCOMBE COUNTY SHERIFF,,,,,
5485,NC,BUNCOMBE COUNTY SHERIFF DEPT,,,,,
5486,NC,BURGAW POLICE DEPARTMENT,,,,,
5487,NC,BURGAW POLICE DEPT,,,,,
5488,NC,BURKE COUNTY SHERIFF DEPT,,,,,
5489,NC,BURKE COUNTY SHERIFF'S OFFICE,,,,,
5490,NC,BURKE COUNTY SHERIFFS OFFICE,,,,,
5491,NC,BURNSVILLE POLICE DEPARTMENT,,,,,
5492,NC,BURNSVILLE POLICE DEPT,,,,,
5493,NC,BUTNER PUBLIC SAFETY,,,,,
5494,NC,CABARRUS COUNTY SHERIFF DEPT,,,,,
5495,NC,CABARRUS COUNTY SHERIFF'S OFFICE,,,,,
5496,NC,CALDWELL COUNTY SHERIFF DEPT,,,,,
5497,NC,CALDWELL COUNTY SHERIFF'S OFFICE,,,,,
5498,NC,CALDWELL COUNTY SHERIFFS OFFICE,,,,,
5499,NC,CAMDEN COUNTY SHERIFFS OFFICE,,,,,
5500,NC,CANDOR POLICE DEPT,,,,,
5501,NC,CAROLINA BEACH POLICE DEPT,,,,,
5502,NC,CARTHAGE POLICE DEPT,,,,,
5503,NC,CARY POLICE DEPT,,,,,
5504,NC,CASWELL COUNTY SHERIFF,,,,,
5505,NC,CASWELL COUNTY SHERIFF DEPT,,,,,
5506,NC,CATAWBA COUNTY SHERIFF DEPT,,,,,
5507,NC,CATAWBA COUNTY SHERIFF'S OFFICE,,,,,
5508,NC,CATAWBA COUNTY SHERIFFS OFFICE,,,,,
5509,NC,CHAPEL HILL POLICE DEPT,,,,,
5510,NC,CHARLOTTE MECKLENBURG POLICE DEPT,,,,,
5511,NC,CHATHAM COUNTY SHERIFF DEPT,,,,,
5512,NC,CHEROKEE COUNTY SHERIFF DEPT,,,,,
5513,NC,CHEROKEE COUNTY SHERIFF'S OFFICE,,,,,
5514,NC,CHEROKEE COUNTY SHERIFFS OFFICE,,,,,
5515,NC,CHERRYVILLE POLICE DEPT,,,,,
5516,NC,CHINA GROVE POLICE DEPT,,,,,
5517,NC,CHOWAN COUNTY SHERIFF DEPT,,,,,
5518,NC,CHOWAN COUNTY SHERIFF'S OFFICE,,,,,
5519,NC,CHOWAN COUNTY SHERIFFS OFFICE,,,,,
5520,NC,CLAY COUNTY SHERIFF DEPT,,,,,
5521,NC,CLAY COUNTY SHERIFF'S OFFICE,,,,,
5522,NC,CLAY COUNTY SHERIFFS OFFICE,,,,,
5523,NC,CLAYTON POLICE DEPT,,,,,
5524,NC,CLEVELAND COUNTY SHERIFF DEPT,,,,,
5525,NC,CLEVELAND COUNTY SHERIFF'S OFFICE,,,,,
5526,NC,CLEVELAND COUNTY SHERIFFS OFFICE,,,,,
5527,NC,COATS POLICE DEPARTMENT,,,,,
5528,NC,COATS POLICE DEPT,,,,,
5529,NC,COLUMBUS COUNTY SHERIFF DEPT,,,,,
5530,NC,COLUMBUS COUNTY SHERIFF'S OFFICE,,,,,
5531,NC,COLUMBUS POLICE DEPT,,,,,
5532,NC,CONCORD POLICE DEPT,,,,,
5533,NC,CORNELIUS POLICE DEPT,,,,,
5534,NC,CRAMERTON POLICE DEPT,,,,,
5535,NC,CRAVEN COUNTY SHERIFF DEPT,,,,,
5536,NC,CRAVEN COUNTY SHERIFF OFFICE,,,,,
5537,NC,CREEDMOOR POLICE DEPT,,,,,
5538,NC,CUMBERLAND COUNTY ALCOHOL ENF,,,,,
5539,NC,CUMBERLAND COUNTY SHERIFF DEPT,,,,,
5540,NC,CURRITUCK COUNTY SHERIFF DEPT,,,,,
5541,NC,DARE COUNTY SHERIFF DEPT,,,,,
5542,NC,DARE COUNTY SHERIFF OFFICE,,,,,
5543,NC,DAVIDSON COUNTY SHERIFF DEPT,,,,,
5544,NC,DAVIDSON COUNTY SHERIFF OFFICE,,,,,
5545,NC,DAVIDSON POLICE DEPT,,,,,
5546,NC,DAVIE COUNTY SHERIFF DEPT,,,,,
5547,NC,DHS/ICE WINSTON SALEM,,,,,
5548,NC,DOBSON POLICE DEPT,,,,,
5549,NC,DOI/FWS,,,,,
5550,NC,DOI/FWS WASHINGTON,,,,,
5551,NC,DOI/NPS BLUE RIDGE,,,,,
5552,NC,DOJ/BOP BUTNER,,,,,
5553,NC,DOJ/BUREAU OF PRISONS FCI BUTNER,,,,,
5554,NC,DOJ/DEA RALEIGH,,,,,
5555,NC,DOJ/USMS EAST DIST OF NC,,,,,
5556,NC,DOJ/USMS NEW BERN,,,,,
5557,NC,DREXEL POLICE DEPT,,,,,
5558,NC,DUCK POLICE DEPT,,,,,
5559,NC,DUNN POLICE DEPARTMENT,,,,,
5560,NC,DUPLIN COUNTY SHERIFF DEPT,,,,,
5561,NC,DURHAM COUNTY SHERIFF DEPT,,,,,
5562,NC,DURHAM POLICE DEPT,,,,,
5563,NC,EDEN POLICE DEPT,,,,,
5564,NC,EDENTON POLICE DEPT,,,,,
5565,NC,EDGECOMBE COUNTY SHERIFF DEPT,,,,,
5566,NC,ELIZABETH CITY POLICE DEPT,,,,,
5567,NC,ELKIN POLICE DEPT,,,,,
5568,NC,ELON POLICE DEPT,,,,,
5569,NC,ENFIELD POLICE DEPT,,,,,
5570,NC,FAIRMONT POLICE DEPT,,,,,
5571,NC,FARMVILLE POLICE DEPT,,,,,
5572,NC,FAYETTEVILLE POLICE DEPT,,,,,
5573,NC,FLETCHER POLICE DEPT,,,,,
5574,NC,FOREST CITY POLICE DEPT,,,,,
5575,NC,FORSYTH ALCOHOLIC BEV CONTROL,,,,,
5576,NC,FORSYTH COUNTY SHERIFF OFFICE,,,,,
5577,NC,FORT FISHER HISTORIC SITE POLICE,,,,,
5578,NC,FOUR OAKS POLICE DEPARTMENT,,,,,
5579,NC,FOXFIRE VILLAGE POLICE DEPT,,,,,
5580,NC,FRANKLIN COUNTY SHERIFF DEPT,,,,,
5581,NC,FRANKLIN POLICE DEPT,,,,,
5582,NC,FRANKLINTON POLICE DEPT,,,,,
5583,NC,GARNER POLICE DEPT,,,,,
5584,NC,GARYSBURG POLICE DEPT,,,,,
5585,NC,GASTON CO SHERIFF DEPT,,,,,
5586,NC,GASTON COUNTY POLICE DEPT,,,,,
5587,NC,GASTONIA CITY POLICE DEPT,,,,,
5588,NC,GIBSONVILLE POLICE DEPT,,,,,
5589,NC,GLEN ALPINE POLICE DEPT,,,,,
5590,NC,GOLDSBORO POLICE DEPT,,,,,
5591,NC,GRAHAM COUNTY SHERIFF DEPT,,,,,
5592,NC,GRAHAM POLICE DEPT,,,,,
5593,NC,GRANITE FALLS POLICE DEPT,,,,,
5594,NC,GRANITE QUARRY POLICE DEPT,,,,,
5595,NC,GRANVILLE COUNTY SHERIFF DEPT,,,,,
5596,NC,GREATER ASHEVILLE REG AIRPORT DPS,,,,,
5597,NC,GREENE COUNTY SHERIFF DEPT,,,,,
5598,NC,GREENVILLE POLICE DEPT,,,,,
5599,NC,GRIFTON POLICE DEPT,,,,,
5600,NC,GUILFORD COUNTY SHERIFF DEPT,,,,,
5601,NC,HALIFAX COUNTY SHERIFF DEPT,,,,,
5602,NC,HALIFAX COUNTY SHERIFF OFFICE,,,,,
5603,NC,HAMLET POLICE DEPT,,,,,
5604,NC,HARNETT COUNTY SHERIFF DEPT,,,,,
5605,NC,HAVELOCK POLICE DEPT,,,,,
5606,NC,HAW RIVER POLICE DEPT,,,,,
5607,NC,HAYWOOD COUNTY SHERIFF DEPT,,,,,
5608,NC,HENDERSON POLICE DEPT,,,,,
5609,NC,HERTFORD COUNTY SHERIFF DEPT,,,,,
5610,NC,HIGH POINT PARKS POLICE,,,,,
5611,NC,HIGH POINT POLICE DEPT,,,,,
5612,NC,HIGHLANDS POLICE DEPT,,,,,
5613,NC,HILLSBOROUGH POLICE DEPT,,,,,
5614,NC,HOKE COUNTY SHERIFF DEPT,,,,,
5615,NC,HOLLY RIDGE POLICE DEPT,,,,,
5616,NC,HOLLY SPRINGS POLICE,,,,,
5617,NC,HOPE MILLS POLICE DEPT,,,,,
5618,NC,HUNTERSVILLE POLICE DEPT,,,,,
5619,NC,HYDE COUNTY SHERIFF DEPT,,,,,
5620,NC,JACKSON COUNTY SHERIFF DEPT,,,,,
5621,NC,JACKSON POLICE DEPT,,,,,
5622,NC,JACKSONVILLE POLICE DEPT,,,,,
5623,NC,JONES COUNTY SHERIFF DEPT,,,,,
5624,NC,JONESVILLE POLICE DEPT,,,,,
5625,NC,KANNAPOLIS POLICE DEPT,,,,,
5626,NC,KENANSVILLE POLICE DEPT,,,,,
5627,NC,KENLY POLICE DEPT,,,,,
5628,NC,KERNERSVILLE POLICE DEPT,,,,,
5629,NC,KILL DEVIL HILLS POLICE DEPT,,,,,
5630,NC,KING POLICE DEPT,,,,,
5631,NC,KINGS MOUNTAIN POLICE DEPT,,,,,
5632,NC,KINSTON DEPARTMENT OF PUBLIC SAFETY,,,,,
5633,NC,KINSTON POLICE DEPT,,,,,
5634,NC,KITTY HAWK POLICE DEPT,,,,,
5635,NC,KNIGHTDALE PUBLIC SAFETY,,,,,
5636,NC,KURE BEACH POLICE DEPT,,,,,
5637,NC,LAKE LURE POLICE DEPT,,,,,
5638,NC,LAKE WACCAMAW POLICE DEPT,,,,,
5639,NC,LANDIS POLICE DEPT,,,,,
5640,NC,LAURINBURG POLICE DEPT,,,,,
5641,NC,LEE COUNTY SHERIFF DEPT,,,,,
5642,NC,LELAND POLICE DEPT,,,,,
5643,NC,LENOIR COUNTY SHERIFF DEPT,,,,,
5644,NC,LENOIR POLICE DEPT,,,,,
5645,NC,LEXINGTON POLICE DEPT,,,,,
5646,NC,LIBERTY POLICE DEPT,,,,,
5647,NC,LILLINGTON POLICE DEPT,,,,,
5648,NC,LINCOLN COUNTY SHERIFF DEPT,,,,,
5649,NC,LINCOLNTON POLICE DEPT,,,,,
5650,NC,LITTLETON POLICE DEPT,,,,,
5651,NC,LONG VIEW POLICE DEPT,,,,,
5652,NC,LOUISBURG COLLEGE CAMPUS POLICE DEP,,,,,
5653,NC,LOUISBURG COLLEGE POLICE HI_ED,,,,,
5654,NC,LOUISBURG POLICE DEPT,,,,,
5655,NC,LOWELL POLICE DEPT,,,,,
5656,NC,LUMBERTON POLICE DEPT,,,,,
5657,NC,MACON COUNTY SHERIFF DEPT,,,,,
5658,NC,MADISON COUNTY SHERIFF DEPT,,,,,
5659,NC,MADISON POLICE DEPT,,,,,
5660,NC,MAGGIE VALLEY POLICE DEPT,,,,,
5661,NC,MANTEO POLICE DEPT,,,,,
5662,NC,MARION POLICE DEPT,,,,,
5663,NC,MARS HILL POLICE DEPT,,,,,
5664,NC,MARTIN COUNTY SHERIFF DEPT,,,,,
5665,NC,MATTHEWS POLICE DEPT,,,,,
5666,NC,MAXTON POLICE DEPT,,,,,
5667,NC,MAYODAN POLICE DEPT,,,,,
5668,NC,MAYSVILLE POLICE DEPT,,,,,
5669,NC,MCDOWELL COUNTY SHERIFF DEPT,,,,,
5670,NC,MEBANE POLICE DEPT,,,,,
5671,NC,MIDDLESEX POLICE DEPT,,,,,
5672,NC,MINT HILL POLICE DEPT,,,,,
5673,NC,MITCHELL COUNTY SHERIFF DEPT,,,,,
5674,NC,MOCKSVILLE POLICE DEPT,,,,,
5675,NC,MOORE COUNTY SHERIFF DEPT,,,,,
5676,NC,MOORESVILLE POLICE DEPT,,,,,
5677,NC,MOREHEAD CITY POLICE DEPT,,,,,
5678,NC,MORGANTON DEPT OF PUBLIC SAFETY,,,,,
5679,NC,MORGANTON POLICE,,,,,
5680,NC,MOUNT AIRY POLICE DEPT,,,,,
5681,NC,MOUNT GILEAD POLICE DEPT,,,,,
5682,NC,MOUNT HOLLY POLICE DEPT,,,,,
5683,NC,MOUNT OLIVE POLICE DEPT,,,,,
5684,NC,MURFREESBORO POLICE DEPT,,,,,
5685,NC,MURPHY POLICE DEPT,,,,,
5686,NC,NAGS HEAD POLICE DEPT,,,,,
5687,NC,NASH COUNTY ALCOHOLIC BEV CONTROL,,,,,
5688,NC,NAVASSA POLICE DEPT,,,,,
5689,NC,NC ALCOHOL LAW ENFORCEMENT,,,,,
5690,NC,NC CENTRAL UNIVERSITY POLICE  HI_ED,,,,,
5691,NC,NC DEPT CRIME CONTROL  PUB SAFETY-,,,,,
5692,NC,NC DEPT OF HEALTH AND HUMAN SVCS,,,,,
5693,NC,NC DEPT OF PUBLIC SAFETY-ALE,,,,,
5694,NC,NC DIVISION OF PRISONS,,,,,
5695,NC,NC JUSTICE ACADEMY,,,,,
5696,NC,NC LAW ENFORCEMENT SUPPORT,,,,,
5697,NC,NC PARKS & REC FALLS LAKE REC AREA,,,,,
5698,NC,NC STATE BUREAU OF INVESTIGATION,,,,,
5699,NC,NC STATE CAPITOL POLICE,,,,,
5700,NC,NC STATE HIGHWAY PATROL,,,,,
5701,NC,NC STATE PORT AUTHORITY POLICE,,,,,
5702,NC,NEW  BERN POLICE DEPT,,,,,
5703,NC,NEW BERN POLICE DEPT,,,,,
5704,NC,NEW HANOVER COUNTY SHERIFF DEPT,,,,,
5705,NC,NEWPORT POLICE DEPT,,,,,
5706,NC,NEWTON POLICE DEPT,,,,,
5707,NC,NORLINA POLICE DEPT,,,,,
5708,NC,NORTH TOPSAIL BEACH POLICE DEPT,,,,,
5709,NC,NORTH WILKESBORO POLICE DEPT,,,,,
5710,NC,NORTHAMPTON COUNTY SHERIFF DEPT,,,,,
5711,NC,NORTHWEST POLICE DEPT,,,,,
5712,NC,NORWOOD POLICE DEPT,,,,,
5713,NC,OAKBORO POLICE,,,,,
5714,NC,OCEAN ISLE BEACH POLICE DEPT,,,,,
5715,NC,OLD FORT POLICE DEPT,,,,,
5716,NC,ONSLOW COUNTY SHERIFF DEPT,,,,,
5717,NC,ONSLOW COUNTY SHERIFF'S OFFICE,,,,,
5718,NC,ONSLOW COUNTY SHERIFFS OFFICE,,,,,
5719,NC,ORANGE COUNTY SHERIFF DEPT,,,,,
5720,NC,ORIENTAL POLICE DEPT,,,,,
5721,NC,PAMLICO COUNTY SHERIFF DEPT,,,,,
5722,NC,PARKTON POLICE DEPT,,,,,
5723,NC,PASQUOTANK COUNTY SHERIFF DEPT,,,,,
5724,NC,PENDER COUNTY SHERIFF DEPT,,,,,
5725,NC,PERSON COUNTY SHERIFF DEPT,,,,,
5726,NC,PILOT MOUNTAIN POLICE DEPT,,,,,
5727,NC,PINE LEVEL POLICE DEPT,,,,,
5728,NC,PINEBLUFF POLICE DEPT,,,,,
5729,NC,PINEHURST POLICE DEPT,,,,,
5730,NC,PINETOPS POLICE DEPT,,,,,
5731,NC,PITT COUNTY SHERIFF OFFICE,,,,,
5732,NC,PLYMOUTH POLICE DEPT,,,,,
5733,NC,POLK COUNTY SHERIFF DEP,,,,,
5734,NC,POLK COUNTY SHERIFF DEPT,,,,,
5735,NC,PRINCETON POLICE DEPT,,,,,
5736,NC,RALEIGH DURHAM INTL AIRPORT POLICE,,,,,
5737,NC,RAMSEUR POLICE DEPT,,,,,
5738,NC,RANDLEMAN POLICE DEPT,,,,,
5739,NC,RANDOLPH COUNTY SHERIFF DEPT,,,,,
5740,NC,RANDOLPH COUNTY SHERIFFS OFFICE,,,,,
5741,NC,RANLO POLICE DEPT,,,,,
5742,NC,REIDSVILLE POLICE DEPT,,,,,
5743,NC,RICH SQUARE POLICE DEPT,,,,,
5744,NC,RICHMOND COUNTY SHERIFF DEPT,,,,,
5745,NC,ROANOKE RAPIDS POLICE DEPT,,,,,
5746,NC,ROBBINS POLICE DEPT,,,,,
5747,NC,ROBESON COUNTY SHERIFF DEPT,,,,,
5748,NC,ROCKINGHAM COUNTY SHERIFF DEPT,,,,,
5749,NC,ROCKINGHAM COUNTY SHERIFF OFFICE,,,,,
5750,NC,ROCKINGHAM POLICE DEPT,,,,,
5751,NC,ROCKWELL POLICE DEPT,,,,,
5752,NC,ROLESVILLE POLICE DEPT,,,,,
5753,NC,ROWAN COUNTY SHERIFF DEPT,,,,,
5754,NC,ROWLAND POLICE DEPT,,,,,
5755,NC,RUTHERFORD COUNTY SHERIFF DEPT,,,,,
5756,NC,RUTHERFORDTON POLICE DEPT,,,,,
5757,NC,SAINT PAULS POLICE DEPT,,,,,
5758,NC,SALISBURY POLICE DEPT,,,,,
5759,NC,SAMPSON COUNTY SHERIFF DEPT,,,,,
5760,NC,SCOTLAND NECK POLICE DEPT,,,,,
5761,NC,SEABOARD POLICE DEPT,,,,,
5762,NC,SILER CITY POLICE DEPT,,,,,
5763,NC,SMITHFIELD POLICE DEPT,,,,,
5764,NC,SOUTHERN SHORES POLICE DEPT,,,,,
5765,NC,SPARTA POLICE DEPT,,,,,
5766,NC,SPENCER POLICE DEPT,,,,,
5767,NC,SPINDALE POLICE DEPT,,,,,
5768,NC,SPRING LAKE POLICE DEPT,,,,,
5769,NC,SPRUCE PINE POLICE DEPT,,,,,
5770,NC,STALLINGS POLICE DEPT,,,,,
5771,NC,STANFIELD POLICE DEPT,,,,,
5772,NC,STANLY COUNTY SHERIFF DEPT,,,,,
5773,NC,STANTONSBURG POLICE DEPT,,,,,
5774,NC,STATESVILLE POLICE DEPT,,,,,
5775,NC,STEM POLICE DEPT,,,,,
5776,NC,SUGAR MOUNTAIN POLICE DEPT,,,,,
5777,NC,SURF CITY POLICE DEPT,,,,,
5778,NC,SURRY COUNTY SHERIFF DEPT,,,,,
5779,NC,SURRY COUNTY SHERIFF OFFICE,,,,,
5780,NC,SWANSBORO POLICE DEPT,,,,,
5781,NC,TABOR CITY POLICE DEPT,,,,,
5782,NC,TAYLORSVILLE POLICE DEPT,,,,,
5783,NC,THOMASVILLE POLICE DEPT,,,,,
5784,NC,TOPSAIL BEACH POLICE DEPT,,,,,
5785,NC,TRANSYLVANIA COUNTY SHERIFF DEPT,,,,,
5786,NC,TRIAD ALCOHOLIC BEV CONTROL LE,,,,,
5787,NC,TROUTMAN POLICE DEPT,,,,,
5788,NC,TROY POLICE DEPT,,,,,
5789,NC,TRYON POLICE DEPT,,,,,
5790,NC,UNION COUNTY SHERIFF DEPT,,,,,
5791,NC,UNIV OF NC ASHEVILLE POLICE,,,,,
5792,NC,UNIV OF NC ASHEVILLE POLICE HI_ED,,,,,
5793,NC,US DHS ICE WINSTON SALEM,,,,,
5794,NC,US DOI NPS BLUE RIDGE,,,,,
5795,NC,US DOJ DEA RALEIGH,,,,,
5796,NC,US DOJ PRISON BUR FCI BUTNER,,,,,
5797,NC,US FISH AND WILDLIFE SERVICE,,,,,
5798,NC,US MARSHAL SERVICE EAST DIST OF NC,,,,,
5799,NC,USDA FOREST SERVICE LEI NEW BERN,,,,,
5800,NC,VALDESE POLICE DEPT,,,,,
5801,NC,VANCE COUNTY SHERIFF DEPT,,,,,
5802,NC,VASS POLICE DEPT,,,,,
5803,NC,WADESBORO POLICE DEPT,,,,,
5804,NC,WAKE COUNTY SHERIFF DEPT,,,,,
5805,NC,WAKE FOREST POLICE DEPT,,,,,
5806,NC,WAKE MEDICAL CAMPUS POLICE,,,,,
5807,NC,WAKEMED CAMPUS POLICE,,,,,
5808,NC,WALLACE POLICE DEPT,,,,,
5809,NC,WARRENTON POLICE DEPT,,,,,
5810,NC,WARSAW POLICE DEPT,,,,,
5811,NC,WASHINGTON POLICE DEPT,,,,,
5812,NC,WATAUGA COUNTY SHERIFF DEPT,,,,,
5813,NC,WAYNE COUNTY SHERIFF OFFICE,,,,,
5814,NC,WAYNESVILLE POLICE DEPT,,,,,
5815,NC,WELDON POLICE DEPT,,,,,
5816,NC,WESTERN CAROLINA UNIV POLICE DEPT,,,,,
5817,NC,WHITAKERS POLICE DEPT,,,,,
5818,NC,WHITEVILLE POLICE DEPT,,,,,
5819,NC,WILKES COUNTY SHERIFF DEPT,,,,,
5820,NC,WILKES COUNTY SHERIFFS OFFICE,,,,,
5821,NC,WILLIAMSTON POLICE DEPT,,,,,
5822,NC,WILMINGTON POLICE DEPT,,,,,
5823,NC,WINDSOR POLICE DEPT,,,,,
5824,NC,WINFALL POLICE DEPT,,,,,
5825,NC,WINGATE POLICE DEPT,,,,,
5826,NC,WINSTON SALEM POLICE DEPT,,,,,
5827,NC,WINTERVILLE POLICE DEPT,,,,,
5828,NC,WOODFIN POLICE DEPT,,,,,
5829,NC,WRIGHTSVILLE BEACH POLICE DEPT,,,,,
5830,NC,YADKIN COUNTY SHERIFF DEPT,,,,,
5831,NC,YADKINVILLE POLICE DEPT,,,,,
5832,NC,YANCEY COUNTY SHERIFF DEPT,,,,,
5833,NC,YANCEY COUNTY SHERIFFS OFFICE,,,,,
5834,NC,YOUNGSVILLE POLICE DEPT,,,,,
5835,NC,ZEBULON POLICE DEPT,,,,,
5836,ND,ADAMS COUNTY SHERIFF DEPT,,,,,
5837,ND,BARNES COUNTY SHERIFF DEPT,,,,,
5838,ND,BELFIELD POLICE DEPT,,,,,
5839,ND,BERTHOLD POLICE DEPT,,,,,
5840,ND,BEULAH POLICE DEPT,,,,,
5841,ND,BISMARCK POLICE DEPT,,,,,
5842,ND,BOTTINEAU COUNTY SHERIFF DEPT,,,,,
5843,ND,BOWMAN COUNTY SHERIFF DEPT,,,,,
5844,ND,BOWMAN COUNTY SHERIFF OFFICE,,,,,
5845,ND,BURKE COUNTY SHERIFF DEPT,,,,,
5846,ND,BURLEIGH COUNTY SHERIFF DEPT,,,,,
5847,ND,BURLEIGH COUNTY SHERIFFS DEPT,,,,,
5848,ND,BURLINGTON POLICE DEPT,,,,,
5849,ND,CANDO POLICE DEPT,,,,,
5850,ND,CARRINGTON POLICE DEPT,,,,,
5851,ND,CASS COUNTY SHERIFF DEPT,,,,,
5852,ND,CAVALIER COUNTY SHERIFF DEPT,,,,,
5853,ND,CAVALIER POLICE DEPT,,,,,
5854,ND,DEVILS LAKE POLICE DEPT,,,,,
5855,ND,DHS USCBP USBP PORTAL STATION,,,,,
5856,ND,DHS/CBP/PATROL PORTAL STATION,,,,,
5857,ND,DICKINSON POLICE DEPT,,,,,
5858,ND,DIVIDE COUNTY SHERIFF DEPT,,,,,
5859,ND,DUNN COUNTY SHERIFF DEPT,,,,,
5860,ND,EDDY COUNTY SHERIFF DEPT,,,,,
5861,ND,ELLENDALE POLICE DEPARTMENT,,,,,
5862,ND,EMMONS COUNTY SHERIFF DEPT,,,,,
5863,ND,FARGO POLICE DEPT,,,,,
5864,ND,FOSTER COUNTY SHERIFF DEPT,,,,,
5865,ND,GOLDEN VALLEY COUNTY SHERIFF,,,,,
5866,ND,GRAFTON POLICE DEPT,,,,,
5867,ND,GRAND FORKS COUNTY SHERIFF DEPT,,,,,
5868,ND,GRAND FORKS POLICE DEPT,,,,,
5869,ND,GRANT COUNTY SHERIFF DEPT,,,,,
5870,ND,GRIGGS COUNTY SHERIFF DEPT,,,,,
5871,ND,GRIGGS COUNTY SHERIFF OFFICE,,,,,
5872,ND,HARVEY POLICE DEPT,,,,,
5873,ND,HAZEN POLICE DEPT,,,,,
5874,ND,HETTINGER COUNTY SHERIFF DEPT,,,,,
5875,ND,JAMESTOWN POLICE DEPT,,,,,
5876,ND,KENMARE POLICE DEPT,,,,,
5877,ND,KILLDEER POLICE DEPT,,,,,
5878,ND,KULM POLICE DEPT,,,,,
5879,ND,LAMOURE COUNTY SHERIFF DEPT,,,,,
5880,ND,LAMOURE POLICE DEPT,,,,,
5881,ND,LISBON POLICE DEPARTMENT,,,,,
5882,ND,LOGAN COUNTY SHERIFF DEPT,,,,,
5883,ND,MANDAN POLICE DEPT,,,,,
5884,ND,MCHENRY COUNTY SHERIFF DEPT,,,,,
5885,ND,MCINTOSH COUNTY SHERIFF DEPT,,,,,
5886,ND,MCLEAN COUNTY SHERIFF DEPT,,,,,
5887,ND,MCLEAN COUNTY SHERIFF OFFICE,,,,,
5888,ND,MERCER COUNTY SHERIFF DEPT,,,,,
5889,ND,MINOT POLICE DEPT,,,,,
5890,ND,MORTON COUNTY SHERIFF DEPT,,,,,
5891,ND,MORTON COUNTY SHERIFF OFFICE,,,,,
5892,ND,MOUNTRAIL COUNTY SHERIFF DEPT,,,,,
5893,ND,ND ATTY GEN BUREAU OF CRIMINAL INV,,,,,
5894,ND,ND DEPT OF CORRECTIONS,,,,,
5895,ND,ND DEPT OF FISH AND GAME,,,,,
5896,ND,ND HIGHWAY PATROL BISMARCK,,,,,
5897,ND,ND PARKS AND RECREATION DEPT,,,,,
5898,ND,ND STATE COLLEGE OF SCIENCE POLICE,,,,,
5899,ND,NELSON COUNTY SHERIFF DEPT,,,,,
5900,ND,NORTHWOOD POLICE DEPT,,,,,
5901,ND,OAKES POLICE DEPT,,,,,
5902,ND,PEMBINA COUNTY SHERIFF DEPT,,,,,
5903,ND,PIERCE COUNTY SHERIFF DEPT,,,,,
5904,ND,POWERS LAKE POLICE DEPT,,,,,
5905,ND,RAMSEY COUNTY SHERIFF DEPT,,,,,
5906,ND,RANSOM COUNTY SHERIFF DEPT,,,,,
5907,ND,RAY POLICE DEPARTMENT,,,,,
5908,ND,RENVILLE COUNTY SHERIFF DEPT,,,,,
5909,ND,RICHLAND COUNTY SHERIFF DEPT,,,,,
5910,ND,ROLETTE COUNTY SHERRIFF DEPT,,,,,
5911,ND,ROLLA POLICE DEPT,,,,,
5912,ND,RUGBY POLICE DEPT,,,,,
5913,ND,SARGENT COUNTY SHERIFF DEPT,,,,,
5914,ND,SCRANTON POLICE DEPT,,,,,
5915,ND,SHERIDAN COUNTY SHERIFF DEPT,,,,,
5916,ND,STARK COUNTY SHERIFF DEPT,,,,,
5917,ND,STEELE COUNTY SHERIFF DEPT,,,,,
5918,ND,STUTSMAN COUNTY DTF,,,,,
5919,ND,SURREY POLICE DEPT,,,,,
5920,ND,TIOGA POLICE DEPT,,,,,
5921,ND,TOWNER COUNTY SHERIFF,,,,,
5922,ND,TOWNER COUNTY SHERIFF DEPT,,,,,
5923,ND,TRAILL COUNTY SHERIFF DEPT,,,,,
5924,ND,VALLEY CITY POLICE DEPT,,,,,
5925,ND,WAHPETON POLICE DEPT,,,,,
5926,ND,WALSH COUNTY SHERIFF DEPT,,,,,
5927,ND,WARD COUNTY SHERIFF DEPT,,,,,
5928,ND,WATFORD CITY POLICE DEPT,,,,,
5929,ND,WELLS COUNTY SHERIFF DEPT,,,,,
5930,ND,WEST FARGO POLICE DEPT,,,,,
5931,ND,WILLIAMS COUNTY SHERIFF DEPT,,,,,
5932,ND,WILLIAMS COUNTY SHERIFF OFFICE,,,,,
5933,ND,WILLISTON POLICE DEPT,,,,,
5934,NE,ATKINSON POLICE DEPT,,,,,
5935,NE,BEATRICE POLICE DEPT,,,,,
5936,NE,BUFFALO COUNTY SHERIFF OFFICE,,,,,
5937,NE,BURT COUNTY SHERIFF DEPT,,,,,
5938,NE,CASS COUNTY SHERIFF DEPT,,,,,
5939,NE,CEDAR BLUFFS POLICE DEPT,,,,,
5940,NE,CHADRON POLICE DEPT,,,,,
5941,NE,CHASE COUNTY SHERIFF DEPT,,,,,
5942,NE,COLFAX COUNTY SHERIFF OFFICE,,,,,
5943,NE,COZAD POLICE DEPT,,,,,
5944,NE,DAKOTA COUNTY SHERIFF DEPT,,,,,
5945,NE,DAWSON COUNTY SHERIFF DEPT,,,,,
5946,NE,DIXON COUNTY SHERIFF DEPT,,,,,
5947,NE,DOI/NPS MIDWEST REGION,,,,,
5948,NE,DOUGLAS COUNTY SHERIFF DEPT,,,,,
5949,NE,FAIRBURY POLICE DEPT,,,,,
5950,NE,FILLMORE COUNTY SHERIFF DEPT,,,,,
5951,NE,FREMONT POLICE DEPT,,,,,
5952,NE,GAGE COUNTY SHERIFF DEPT,,,,,
5953,NE,GOTHENBERG POLICE DEPT,,,,,
5954,NE,GRAND ISLAND POLICE DEPT,,,,,
5955,NE,GREELEY COUNTY SHERIFF DEPT,,,,,
5956,NE,HASTINGS POLICE DEPT,,,,,
5957,NE,HOLT COUNTY SHERIFF DEPT,,,,,
5958,NE,HOWARD COUNTYSHERIFF,,,,,
5959,NE,JEFFERSON COUNTY SHERIFF OFFICE,,,,,
5960,NE,KEITH COUNTY SHERIFF OFFICE,,,,,
5961,NE,KIMBALL COUNTY SHERIFF DEPT,,,,,
5962,NE,LA VISTA POLICE DEPARTMENT,,,,,
5963,NE,LANCASTER COUNTY SHERIFF DEPT,,,,,
5964,NE,LINCOLN POLICE DEPT,,,,,
5965,NE,LYONS POLICE DEPT,,,,,
5966,NE,MADISON COUNTY SHERIFF DEPT,,,,,
5967,NE,MCPHERSON COUNTY SHERIFF DEPT,,,,,
5968,NE,NANCE COUNTY SHERIFF DEPT,,,,,
5969,NE,NE STATE PATROL,,,,,
5970,NE,NE STATE PATROL AIR DIVISION,,,,,
5971,NE,NEMAHA COUNTY SHERIFF OFFICE,,,,,
5972,NE,NORFOLK POLICE DEPT,,,,,
5973,NE,NUCKOLLS COUNTY SHERIFF DEPT,,,,,
5974,NE,OGALLALA POLICE DEPT,,,,,
5975,NE,OMAHA POLICE DEPT,,,,,
5976,NE,ONEILL POLICE DEPT,,,,,
5977,NE,POLK COUNTY SHERIFF DEPT,,,,,
5978,NE,RED WILLOW COUNTY SHERIFF DEPT,,,,,
5979,NE,SAINT PAUL POLICE DEPT,,,,,
5980,NE,SARPY COUNTY SHERIFF DEPT,,,,,
5981,NE,SOUTH SIOUX CITY POLICE DEPT,,,,,
5982,NE,TEKAMAH POLICE DEPT,,,,,
5983,NE,THURSTON COUNTY SHERIFF DEPT,,,,,
5984,NE,UNION PACIFIC RAILROAD POLICE DEPT,,,,,
5985,NE,US DOI NPS MIDWEST REGION,,,,,
5986,NE,WHEELER COUNTY SHERIFF'S DEPT,,,,,
5987,NE,WHEELER COUNTY SHERIFFS DEPT,,,,,
5988,NE,YORK COUNTY SHERIFF,,,,,
5989,NH,ALLENSTOWN POLICE DEPT,,,,,
5990,NH,ALTON POLICE DEPT,,,,,
5991,NH,ASHLAND POLICE DEPT,,,,,
5992,NH,BARNSTEAD POLICE DEPT,,,,,
5993,NH,BELKNAP COUNTY DEPT OF CORRECTIONS,,,,,
5994,NH,BELKNAP COUNTY SHERIFF DEPT,,,,,
5995,NH,BERLIN POLICE DEPT,,,,,
5996,NH,BOSCAWEN POLICE DEPT,,,,,
5997,NH,BRENTWOOD POLICE DEPT,,,,,
5998,NH,BRIDGEWATER POLICE DEPT,,,,,
5999,NH,BRISTOL POLICE DEPT,,,,,
6000,NH,BROOKLINE POLICE DEPT,,,,,
6001,NH,CARROLL COUNTY SHERIFF DEPT,,,,,
6002,NH,CARROLL POLICE DEPT,,,,,
6003,NH,CENTER HARBOR POLICE DEPT,,,,,
6004,NH,CHESTERFIELD POLICE DEPT,,,,,
6005,NH,CLAREMONT POLICE DEPT,,,,,
6006,NH,COOS COUNTY SHERIFF DEPT,,,,,
6007,NH,DEERFIELD POLICE DEPT,,,,,
6008,NH,DERRY POLICE DEPT,,,,,
6009,NH,DOVER POLICE DEPT,,,,,
6010,NH,DURHAM POLICE DEPT,,,,,
6011,NH,EAST KINGSTON POLICE DEPT,,,,,
6012,NH,EASTON POLICE DEPT,,,,,
6013,NH,EFFINGHAM POLICE DEPT,,,,,
6014,NH,ENFIELD POLICE DEPT,,,,,
6015,NH,EPPING POLICE DEPT,,,,,
6016,NH,EXETER POLICE DEPT,,,,,
6017,NH,FARMINGTON POLICE DEPT,,,,,
6018,NH,FRANCONIA POLICE DEPT,,,,,
6019,NH,FRANKLIN POLICE DEPT,,,,,
6020,NH,FREMONT POLICE DEPT,,,,,
6021,NH,GILFORD POLICE DEPT,,,,,
6022,NH,GRAFTON COUNTY SHERIFF DEPT,,,,,
6023,NH,GRAFTON POLICE DEPT,,,,,
6024,NH,GRANTHAM POLICE DEPT,,,,,
6025,NH,GROTON POLICE DEPT,,,,,
6026,NH,HAMPSTEAD POLICE DEPT,,,,,
6027,NH,HAMPTON POLICE DEPT,,,,,
6028,NH,HAVERHILL POLICE DEPT,,,,,
6029,NH,HENNIKER POLICE DEPT,,,,,
6030,NH,HOLLIS POLICE DEPT,,,,,
6031,NH,HOOKSETT POLICE DEPT,,,,,
6032,NH,HUDSON POLICE DEPT,,,,,
6033,NH,JAFFREY POLICE DEPT,,,,,
6034,NH,KENSINGTON POLICE DEPT,,,,,
6035,NH,KINGSTON POLICE DEPT,,,,,
6036,NH,LACONIA POLICE DEPT,,,,,
6037,NH,LANCASTER POLICE DEPT,,,,,
6038,NH,LINCOLN POLICE DEPT,,,,,
6039,NH,LITTLETON POLICE DEPT,,,,,
6040,NH,LONDONDERRY POLICE DEPT,,,,,
6041,NH,LOUDON POLICE DEPT,,,,,
6042,NH,MADBURY POLICE DEPARTMENT,,,,,
6043,NH,MANCHESTER POLICE DEPT,,,,,
6044,NH,MEREDITH POLICE DEPT,,,,,
6045,NH,MERRIMACK COUNTY SHERIFF DEPT,,,,,
6046,NH,MERRIMACK COUNTY SHERIFFS OFFICE,,,,,
6047,NH,MERRIMACK POLICE DEPT,,,,,
6048,NH,MIDDLETON POLICE DEPT,,,,,
6049,NH,MILTON POLICE DEPT,,,,,
6050,NH,MONT VERNON POLICE DEPT,,,,,
6051,NH,NASHUA POLICE DEPT,,,,,
6052,NH,NEW BOSTON POLICE DEPT,,,,,
6053,NH,NEW DURHAM POLICE DEPT,,,,,
6054,NH,NEWTON POLICE DEPT,,,,,
6055,NH,NH DEPT OF FISH AND GAME,,,,,
6056,NH,NH STATE POLICE,,,,,
6057,NH,NORTHFIELD POLICE DEPT,,,,,
6058,NH,NORTHWOOD POLICE DEPT,,,,,
6059,NH,PEMBROKE POLICE DEPT,,,,,
6060,NH,PETERBOROUGH POLICE DEPT,,,,,
6061,NH,PIERMONT POLICE DEPT,,,,,
6062,NH,PLAISTOW POLICE DEPT,,,,,
6063,NH,ROCHESTER POLICE DEPT,,,,,
6064,NH,ROCKINGHAM COUNTY SHERIFF DEPT,,,,,
6065,NH,SALEM POLICE DEPT,,,,,
6066,NH,SANDOWN POLICE DEPT,,,,,
6067,NH,SANDWICH POLICE DEPT,,,,,
6068,NH,SEABROOK POLICE DEPT,,,,,
6069,NH,SOMERSWORTH POLICE DEPT,,,,,
6070,NH,SPRINGFIELD POLICE DEPT,,,,,
6071,NH,STRAFFORD COUNTY SHERIFF DEPT,,,,,
6072,NH,SUTTON POLICE DEPT,,,,,
6073,NH,TAMWORTH POLICE DEPT,,,,,
6074,NH,TILTON POLICE DEPT,,,,,
6075,NH,TOWN OF EPPING NH POLICE DEPT,,,,,
6076,NH,TROY POLICE DEPT,,,,,
6077,NH,WAKEFIELD POLICE DEPT,,,,,
6078,NH,WATERVILLE VALLEY POLICE DEPT,,,,,
6079,NH,WINDHAM POLICE DEPT,,,,,
6080,NJ,ABERDEEN TOWNSHIP POLICE DEPT,,,,,
6081,NJ,ABSECON CITY POLICE DEPARTMENT,,,,,
6082,NJ,ALLENHURST POLICE DEPT,,,,,
6083,NJ,ASBURY PARK POLICE DEPT,,,,,
6084,NJ,ATLANTIC CITY POLICE DEPT,,,,,
6085,NJ,ATLANTIC COUNTY SHERIFF DEPT,,,,,
6086,NJ,ATLANTIC COUNTY SHERIFF OFFICE,,,,,
6087,NJ,ATLANTIC HIGHLANDS POLICE DEPT,,,,,
6088,NJ,AVALON POLICE DEPT,,,,,
6089,NJ,AVON BY THE SEA POLICE DEPT,,,,,
6090,NJ,BARNEGAT TOWNSHIP POLICE DEPT,,,,,
6091,NJ,BEACH HAVEN POLICE DEPT,,,,,
6092,NJ,BEDMINSTER TOWNSHIP POLICE DEPT,,,,,
6093,NJ,BELLEVILLE POLICE DEPT,,,,,
6094,NJ,BELMAR POLICE DEPT,,,,,
6095,NJ,BERGEN COUNTY SHERIFF DEPT,,,,,
6096,NJ,BERGEN COUNTY SHERIFFS OFFICE,,,,,
6097,NJ,BERKELEY TOWNSHIP POLICE DEPT,,,,,
6098,NJ,BERLIN TOWNSHIP POLICE DEPT,,,,,
6099,NJ,BERNARDSVILLE POLICE DEPT,,,,,
6100,NJ,BLOOMFIELD POLICE DEPT,,,,,
6101,NJ,BOGOTA POLICE DEPT,,,,,
6102,NJ,BOONTON POLICE DEPARTMENT,,,,,
6103,NJ,BOONTON POLICE DEPT,,,,,
6104,NJ,BOROUGH OF BRIELLE,,,,,
6105,NJ,BOROUGH OF CHESTER POLICE DEPT,,,,,
6106,NJ,BRADLEY BEACH POLICE,,,,,
6107,NJ,BRADLEY BEACH POLICE DEPT,,,,,
6108,NJ,BRICK TOWNSHIP POLICE DEPT,,,,,
6109,NJ,BRIELLE POLICE DEPT,,,,,
6110,NJ,BRIGANTINE POLICE DEPARTMENT,,,,,
6111,NJ,BROOKLAWN POLICE DEPT,,,,,
6112,NJ,CAMDEN COUNTY SHERIFF DEPT,,,,,
6113,NJ,CAMDEN COUNTY SHERIFFS OFFICE,,,,,
6114,NJ,CAPE MAY COUNTY PROSECUTOR,,,,,
6115,NJ,CAPE MAY COUNTY PROSECUTOR OFFICE,,,,,
6116,NJ,CHATHAM TOWNSHIP POLICE DEPT,,,,,
6117,NJ,CHERRY HILL POLICE DEPT,,,,,
6118,NJ,CHESILHURST POLICE DEPT,,,,,
6119,NJ,CHESTER TOWNSHIP POLICE DEPT,,,,,
6120,NJ,CHESTERFIELD TWP POLICE DEPT,,,,,
6121,NJ,CINNAMINSON TOWNSHIP POLICE DEPT,,,,,
6122,NJ,CLARK POLICE DEPARTMENT,,,,,
6123,NJ,CLAYTON POLICE DEPT,,,,,
6124,NJ,CLINTON POLICE DEPT,,,,,
6125,NJ,COLLINGSWOOD POLICE DEPT,,,,,
6126,NJ,COLTS NECK TWP POLICE DEPARTMENT,,,,,
6127,NJ,COLTS NECK TWP POLICE DEPT,,,,,
6128,NJ,CRANBURY TWP POLICE DEPT,,,,,
6129,NJ,CRANFORD POLICE DEPARTMENT,,,,,
6130,NJ,CRANFORD POLICE DEPT,,,,,
6131,NJ,DEAL POLICE DEPT,,,,,
6132,NJ,DELRAN TOWNSHIP POLICE DEPT,,,,,
6133,NJ,DENVILLE POLICE DEPT,,,,,
6134,NJ,DEPTFORD TOWNSHIP POLICE DEPT,,,,,
6135,NJ,DHS/ICE/HSI NEWARK,,,,,
6136,NJ,DOJ/FBI NEW JERSEY,,,,,
6137,NJ,DOJ/FBI NEWARK,,,,,
6138,NJ,DUNELLEN POLICE DEPT,,,,,
6139,NJ,EAST BRUNSWICK POLICE DEPT,,,,,
6140,NJ,EAST GREENWICH TOWNSHIP POLICE,,,,,
6141,NJ,EAST HANOVER POLICE DEPT,,,,,
6142,NJ,EAST RUTHERFORD POLICE DEPT,,,,,
6143,NJ,EAST WINDSOR TOWNSHIP POLICE DEPT,,,,,
6144,NJ,EASTAMPTON POLICE DEPT,,,,,
6145,NJ,EASTAMPTON TWP POLICE DEPT,,,,,
6146,NJ,EATONTOWN POLICE DEPT,,,,,
6147,NJ,EDGEWATER POLICE DEPARTMENT,,,,,
6148,NJ,EDISON POLICE DEPT,,,,,
6149,NJ,EGG HARBOR CITY POLICE DEPARTMENT,,,,,
6150,NJ,ELIZABETH POLICE DEPT,,,,,
6151,NJ,ENGLEWOOD CLIFFS POLICE DEPARTMENT,,,,,
6152,NJ,ENGLISHTOWN POLICE DEPT,,,,,
6153,NJ,ESSEX COUNTY SHERIFF DEPT,,,,,
6154,NJ,EVESHAM POLICE DEPT,,,,,
6155,NJ,EWING POLICE DEPT,,,,,
6156,NJ,FAIR HAVEN BOROUGH POLICE DEPT,,,,,
6157,NJ,FEDERAL BUREAU OF INVESTIGATION,,,,,
6158,NJ,FORT LEE POLICE DEPT,,,,,
6159,NJ,FREEHOLD BORO POLICE DEPT,,,,,
6160,NJ,FREEHOLD TOWNSHIP POLICE DEPT,,,,,
6161,NJ,GALLOWAY TOWNSHIP POLICE DEPT,,,,,
6162,NJ,GARFIELD POLICE DEPARTMENT,,,,,
6163,NJ,GARFIELD POLICE DEPT,,,,,
6164,NJ,GARWOOD POLICE DEPARTMENT,,,,,
6165,NJ,GLOUCESTER CITY POLICE DEPT,,,,,
6166,NJ,GREEN BROOK POLICE DEPT,,,,,
6167,NJ,HACKENSACK POLICE DEPT,,,,,
6168,NJ,HAMMONTON POLICE DEPT,,,,,
6169,NJ,HARDING TOWNSHIP POLICE DEPT,,,,,
6170,NJ,HARRINGTON PARK POLICE DEPT,,,,,
6171,NJ,HARRISON TOWNSHIP POLICE DEPT,,,,,
6172,NJ,HARVEY CEDARS POLICE DEPT,,,,,
6173,NJ,HASBROUCK HEIGHTS POLICE DEPT,,,,,
6174,NJ,HAWTHORNE BOROUGH POLICE DEPT,,,,,
6175,NJ,HAZLET TOWNSHIP POLICE DEPT,,,,,
6176,NJ,HI NELLA POLICE DEPT,,,,,
6177,NJ,HI-NELLA POLICE DEPT,,,,,
6178,NJ,HIGHLANDS BOROUGH POLICE DEPT,,,,,
6179,NJ,HILLSDALE POLICE DEPT,,,,,
6180,NJ,HOLMDEL TWP POLICE DEPT,,,,,
6181,NJ,HOWELL TOWNSHIP POLICE DEPT,,,,,
6182,NJ,JACKSON TWP POLICE DEPT,,,,,
6183,NJ,JERSEY CITY POLICE DEPT,,,,,
6184,NJ,KEANSBURG POLICE DEPT,,,,,
6185,NJ,KEARNY POLICE DEPT,,,,,
6186,NJ,KENILWORTH POLICE DEPT,,,,,
6187,NJ,KEYPORT POLICE DEPARTMENT,,,,,
6188,NJ,LACEY TOWNSHIP POLICE DEPT,,,,,
6189,NJ,LAKEHURST POLICE DEPT,,,,,
6190,NJ,LAKEWOOD POLICE DEPT,,,,,
6191,NJ,LAKEWOOD TWP POLICE DEPT,,,,,
6192,NJ,LEONIA POLICE DEPT,,,,,
6193,NJ,LINDEN POLICE DEPT,,,,,
6194,NJ,LITTLE FERRY POLICE DEPT,,,,,
6195,NJ,LITTLE SILVER POLICE DEPT,,,,,
6196,NJ,LIVINGSTON POLICE DEPT,,,,,
6197,NJ,LODI POLICE DEPT,,,,,
6198,NJ,LONG BEACH TOWNSHIP POLICE DEPT,,,,,
6199,NJ,LONG BRANCH POLICE DEPT,,,,,
6200,NJ,LONG HILL TOWNSHIP POLICE DEPT,,,,,
6201,NJ,LUMBERTON TWP POLICE DEPT,,,,,
6202,NJ,LYNDHURST POLICE DEPT,,,,,
6203,NJ,MADISON BORO POLICE DEPT,,,,,
6204,NJ,MADISON POLICE DEPT,,,,,
6205,NJ,MANALAPAN TOWNSHIP POLICE DEPT,,,,,
6206,NJ,MANCHESTER POLICE DEPT,,,,,
6207,NJ,MANSFIELD TWP POLICE DEPARTMENT,,,,,
6208,NJ,MANTOLOKING POLICE DEPT,,,,,
6209,NJ,MANTUA TOWNSHIP POLICE DEPARTMENT,,,,,
6210,NJ,MANTUA TOWNSHIP POLICE DEPT,,,,,
6211,NJ,MAPLE SHADE POLICE DEPT,,,,,
6212,NJ,MAPLEWOOD POLICE DEPARTMENT,,,,,
6213,NJ,MARLBORO TOWNSHIP POLICE DEPT,,,,,
6214,NJ,MATAWAN POLICE DEPT,,,,,
6215,NJ,MEDFORD LAKES POLICE DEPT,,,,,
6216,NJ,MIDDLE TOWNSHIP POLICE DEPT,,,,,
6217,NJ,MIDDLETOWN TOWNSHIP POLICE DEPT,,,,,
6218,NJ,MILLTOWN POLICE DEPT,,,,,
6219,NJ,MILLVILLE POLICE DEPT,,,,,
6220,NJ,MONMOUTH BEACH POLICE DEPT,,,,,
6221,NJ,MONMOUTH COUNTY SHERIFF DEPT,,,,,
6222,NJ,MONROE TOWNSHIP POLICE DEPT,,,,,
6223,NJ,MONTVILLE TOWNSHIP POLICE DEPT,,,,,
6224,NJ,MORRIS COUNTY PARK POLICE,,,,,
6225,NJ,MORRISTOWN  BUREAU OF POLICE,,,,,
6226,NJ,MOUNT OLIVE TOWNSHIP POLICE DEPT,,,,,
6227,NJ,MOUNTAIN LAKES POLICE DEPT,,,,,
6228,NJ,MOUNTAINSIDE POLICE DEPT,,,,,
6229,NJ,MULLICA  POLICE DEPARTMENT,,,,,
6230,NJ,NEPTUNE CITY POLICE DEPT,,,,,
6231,NJ,NEW BRUNSWICK POLICE DEPARTMENT,,,,,
6232,NJ,NEW PROVIDENCE POLICE DEPARTMENT,,,,,
6233,NJ,NEWARK POLICE DEPT,,,,,
6234,NJ,NJ FISH AND WILDLIFE BUREAU OF LAW,,,,,
6235,NJ,NJ STATE POLICE - TRAINING ACADEMY,,,,,
6236,NJ,NJ STATE POLICE AVIATION BUREAU,,,,,
6237,NJ,NJ STATE POLICE LAKEHURST,,,,,
6238,NJ,NJ STATE POLICE SPECIAL OPS SECTION,,,,,
6239,NJ,NJ STATE POLICE TRENTON,,,,,
6240,NJ,NJ STATE POLICE-FIELD OPS SECTION,,,,,
6241,NJ,NJ TRANSIT POLICE,,,,,
6242,NJ,NORTH BRUNSWICK POLICE DEPT,,,,,
6243,NJ,NORTH WILDWOOD POLICE DEPT,,,,,
6244,NJ,OCEAN COUNTY SHERIFF DEPT,,,,,
6245,NJ,OCEAN COUNTY SHERIFF OFFICE,,,,,
6246,NJ,OCEAN GATE POLICE DEPT,,,,,
6247,NJ,OCEAN TOWNSHIP POLICE DEPT,,,,,
6248,NJ,OCEANPORT POLICE DEPT,,,,,
6249,NJ,OLD BRIDGE TOWNSHIP POLICE DEPT,,,,,
6250,NJ,OLD TAPPAN POLICE DEPT,,,,,
6251,NJ,PALISADES PARK POLICE DEPT,,,,,
6252,NJ,PARAMUS POLICE DEPT,,,,,
6253,NJ,PASSAIC COUNTY SHERIFF DEPARTMENT,,,,,
6254,NJ,PASSAIC COUNTY SHERIFF OFFICE,,,,,
6255,NJ,PASSAIC COUNTY SHERIFFS OFFICE,,,,,
6256,NJ,PATERSON POLICE DEPT,,,,,
6257,NJ,PAULSBORO POLICE DEPARTMENT,,,,,
6258,NJ,PEMBERTON TOWNSHIP POLICE DEPT,,,,,
6259,NJ,PERTH AMBOY POLICE DEPT,,,,,
6260,NJ,PINE BEACH POLICE DEPT,,,,,
6261,NJ,PISCATAWAY POLICE DEPT,,,,,
6262,NJ,PLAINFIELD POLICE DEPT,,,,,
6263,NJ,PLAINFIELD POLICE DIVISION,,,,,
6264,NJ,PLEASANTVILLE POLICE DEPT,,,,,
6265,NJ,PLUMSTED TOWNSHIP POLICE DEPT,,,,,
6266,NJ,POINT PLEASANT BEACH POLICE DEPT,,,,,
6267,NJ,POINT PLEASANT POLICE DEPT,,,,,
6268,NJ,RAHWAY POLICE DEPT,,,,,
6269,NJ,RAMSEY POLICE DEPT,,,,,
6270,NJ,RARITAN TOWNSHIP POLICE DEPT,,,,,
6271,NJ,READINGTON TOWNSHIP POLICE DEPT,,,,,
6272,NJ,RED BANK POLICE DEPT,,,,,
6273,NJ,RIVER VALE POLICE DEPT,,,,,
6274,NJ,ROBBINSVILLE TWP POLICE DEPARTMENT,,,,,
6275,NJ,ROCHELLE PARK POLICE DEPT,,,,,
6276,NJ,ROSELLE PARK POLICE DEPT,,,,,
6277,NJ,ROXBURY TOWNSHIP POLICE DEPT,,,,,
6278,NJ,RUMSON POLICE DEPT,,,,,
6279,NJ,RUTHERFORD POLICE DEPARTMENT,,,,,
6280,NJ,SADDLE RIVER POLICE DEPT,,,,,
6281,NJ,SAYREVILLE POLICE DEPT,,,,,
6282,NJ,SCOTCH PLAINS POLICE DEPT,,,,,
6283,NJ,SEA BRIGHT POLICE DEPT,,,,,
6284,NJ,SEA GIRT BOROUGH POLICE DEPT,,,,,
6285,NJ,SEASIDE HEIGHTS POLICE DEPT,,,,,
6286,NJ,SEASIDE PARK POLICE DEPT,,,,,
6287,NJ,SHIP BOTTOM POLICE DEPT,,,,,
6288,NJ,SHREWSBURY POLICE DEPT,,,,,
6289,NJ,SOMERS POINT POLICE DEPT,,,,,
6290,NJ,SPRING LAKE BOROUGH POLICE DEPT,,,,,
6291,NJ,SPRING LAKE HEIGHTS POLICE DEPT,,,,,
6292,NJ,SPRING LAKE POLICE DEPT,,,,,
6293,NJ,SPRINGFIELD POLICE DEPARTMENT,,,,,
6294,NJ,SPRINGFIELD POLICE DEPT,,,,,
6295,NJ,SPRINGFIELD TWP POLICE DEPARTMENT,,,,,
6296,NJ,SPRINGFIELD TWP POLICE DEPT,,,,,
6297,NJ,STAFFORD TOWNSHIP POLICE DEPT,,,,,
6298,NJ,SURF CITY POLICE DEPT,,,,,
6299,NJ,TINTON FALLS POLICE DEPT,,,,,
6300,NJ,TOMS RIVER POLICE DEPT,,,,,
6301,NJ,TOMS RIVER TOWNSHIP POLICE DEPT,,,,,
6302,NJ,TOTOWA POLICE DEPT,,,,,
6303,NJ,TRENTON POLICE DEPT,,,,,
6304,NJ,TUCKERTON BOROUGH POLICE DEPT,,,,,
6305,NJ,UNION BEACH POLICE,,,,,
6306,NJ,UNION COUNTY POLICE DEPT,,,,,
6307,NJ,UNION COUNTY PROSECUTOR'S OFFICE LE,,,,,
6308,NJ,UNION COUNTY PROSECUTORS OFFICE LE,,,,,
6309,NJ,UNION COUNTY SHERIFF DEPT,,,,,
6310,NJ,UNION TOWNSHIP POLICE DEPT,,,,,
6311,NJ,UPPER SADDLE RIVER POLICE DEPT,,,,,
6312,NJ,US DHS ICE INVESTIGATIONS NEWARK,,,,,
6313,NJ,VOORHEES POLICE DEPT,,,,,
6314,NJ,WALL TOWNSHIP POLICE DEPT,,,,,
6315,NJ,WASHINGTON TWP POLICE DEPT,,,,,
6316,NJ,WATERFORD TWP POLICE DEPARTMENT,,,,,
6317,NJ,WEST CALDWELL POLICE DEPT,,,,,
6318,NJ,WEST DEPTFORD POLICE DEPT,,,,,
6319,NJ,WEST LONG BRANCH POLICE DEPT,,,,,
6320,NJ,WEST MILFORD POLICE,,,,,
6321,NJ,WEST NEW YORK POLICE DEPT,,,,,
6322,NJ,WEST PATERSON POLICE DEPT,,,,,
6323,NJ,WEST WILDWOOD POLICE DEPT,,,,,
6324,NJ,WEST WINDSOR TWP POLICE DEPT,,,,,
6325,NJ,WESTAMPTON POLICE DEPT,,,,,
6326,NJ,WESTFIELD POLICE DEPT,,,,,
6327,NJ,WILDWOOD POLICE DEPT,,,,,
6328,NJ,WOOD-RIDGE POLICE DEPT,,,,,
6329,NJ,WOODCLIFF LAKE POLICE DEPARTMENT,,,,,
6330,NJ,WOOLWICH TOWNSHIP POLICE DEPT,,,,,
6331,NJ,WYCKOFF POLICE DEPT,,,,,
6332,NM,ALAMOGORDO DEPT OF PUBLIC SAFETY,,,,,
6333,NM,ALAMOGORDO POLICE DEPARTMENT,,,,,
6334,NM,ALBUQUERQUE POLICE DEPT,,,,,
6335,NM,BERNALILLO COUNTY SHERIFF DEPT,,,,,
6336,NM,BLOOMFIELD POLICE DEPT,,,,,
6337,NM,CARISBAD POLICE DEPT,,,,,
6338,NM,CARLSBAD POLICE DEPT,,,,,
6339,NM,CATRON COUNTY SHERIFF DEPT,,,,,
6340,NM,CATRON COUNTY SHERIFF OFFICE,,,,,
6341,NM,CHAVES COUNTY SHERIFF OFFICE,,,,,
6342,NM,CHAVES COUNTY SHERIFFS OFFICE,,,,,
6343,NM,CIBOLA COUNTY SHERIFF DEPT,,,,,
6344,NM,CIBOLA COUNTY SHERIFFS OFFICE,,,,,
6345,NM,CIMARRON POLICE DEPT,,,,,
6346,NM,CLOVIS POLICE DEPT,,,,,
6347,NM,COLFAX COUNTY SHERIFF DEPT,,,,,
6348,NM,COLFAX COUNTY SHERIFFS OFFICE,,,,,
6349,NM,DEMING POLICE DEPT,,,,,
6350,NM,DHS/ICE/HSI ALBUQUERQUE,,,,,
6351,NM,DNR CONSERV LAW ENF DIV TRIBAL LEA,,,,,
6352,NM,DNR CONSERVATION ENF DIVISION,,,,,
6353,NM,DONA ANA COUNTY SHERIFF DEPT,,,,,
6354,NM,DONA ANA COUNTY SHERIFFS DEPT,,,,,
6355,NM,EDDY COUNTY SHERIFFS OFFICE,,,,,
6356,NM,ELIDA POLICE DEPT,,,,,
6357,NM,ESPANOLA POLICE DEPT,,,,,
6358,NM,FARMINGTON  POLICE DEPT,,,,,
6359,NM,HARDING COUNTY SHERIFF OFFICE,,,,,
6360,NM,HOBBS POLICE DEPT,,,,,
6361,NM,ISLETA PUEBLO TRIBAL POLICE DEPT,,,,,
6362,NM,ISLETA TRIBAL POLICE DEPT,,,,,
6363,NM,JICARILLA APACHE NATION HLSD,,,,,
6364,NM,JICARILLA APACHE POLICE DEPARTMENT,,,,,
6365,NM,JICARILLA DNR,,,,,
6366,NM,JICARILLA TRIBAL DNR,,,,,
6367,NM,JICARILLA TRIBAL DNR LEA,,,,,
6368,NM,LAS CRUCES POLICE DEPT,,,,,
6369,NM,LAS VEGAS POLICE DEPT,,,,,
6370,NM,LEA COUNTY SHERIFF DEPT,,,,,
6371,NM,LEA COUNTY SHERIFF OFFICE,,,,,
6372,NM,LINCOLN COUNTY SHERIFF,,,,,
6373,NM,LINCOLN COUNTY SHERIFFS OFFICE,,,,,
6374,NM,LOS ALAMOS POLICE DEPARTMENT,,,,,
6375,NM,LOS LUNAS POLICE DEPT,,,,,
6376,NM,LUNA COUNTY SHERIFF DEPT,,,,,
6377,NM,LUNA COUNTY SHERIFF OFFICE,,,,,
6378,NM,MORA COUNTY SHERIFF DEPT,,,,,
6379,NM,NM DEPT OF CORRECTIONS,,,,,
6380,NM,NM MOUNTED PATROL,,,,,
6381,NM,NM STATE POLICE,,,,,
6382,NM,NM STATE UNIVERSITY POLICE DEPT,,,,,
6383,NM,NM STATE UNIVERSITY POLICE HI_ED,,,,,
6384,NM,OTERO COUNTY SHERIFF DEPT,,,,,
6385,NM,OTERO COUNTY SHERIFF OFFICE,,,,,
6386,NM,PORTALES POLICE DEPT,,,,,
6387,NM,PUEBLO OF LAGUNA PUBLIC SAFETY DEPT,,,,,
6388,NM,PUEBLO OF POJOAQUE TRIBAL PD,,,,,
6389,NM,QUESTA POLICE DEPT,,,,,
6390,NM,RAMAH NAVAJO POLICE DEPT,,,,,
6391,NM,RED RIVER MARSHALS OFFICE,,,,,
6392,NM,RIO ARRIBA COUNTY SHERIFF ESPANOLA,,,,,
6393,NM,RIO RANCHO POLICE DEPT,,,,,
6394,NM,ROSWELL POLICE DEPT,,,,,
6395,NM,RUIDOSO POLICE DEPT,,,,,
6396,NM,SAN JUAN COUNTY SHERIFF DEPT,,,,,
6397,NM,SAN MIGUEL COUNTY SHERIFF DEPT,,,,,
6398,NM,SAN MIGUEL COUNTY SHERIFF OFFICE,,,,,
6399,NM,SANDOVAL COUNTY SHERIFF DEPT,,,,,
6400,NM,SANDOVAL COUNTY SHERIFF OFFICE,,,,,
6401,NM,SANTA ANA POLICE DEPT,,,,,
6402,NM,SANTA CLARA  PUEBLO TRIBAL PD,,,,,
6403,NM,SANTA CLARA TRIBAL POLICE DEPT,,,,,
6404,NM,SANTA FE COUNTY SHERIFF DEPT,,,,,
6405,NM,SANTA FE COUNTY SHERIFF OFFICE,,,,,
6406,NM,SANTA FE POLICE DEPT,,,,,
6407,NM,SANTA ROSA POLICE DEPT,,,,,
6408,NM,SIERRA COUNTY SHERIFF DEPT,,,,,
6409,NM,SIERRA COUNTY SHERIFFS DEPT,,,,,
6410,NM,SILVER CITY POLICE DEPT,,,,,
6411,NM,SUNLAND PARK POLICE DEPT,,,,,
6412,NM,TAOS POLICE DEPT,,,,,
6413,NM,TAOS SKI VALLEY DPS,,,,,
6414,NM,TEXICO POLICE DEPT,,,,,
6415,NM,TORRANCE COUNTY SHERIFF DEPT,,,,,
6416,NM,TRUTH OR CONSEQUENCES POLICE DEPT,,,,,
6417,NM,UNION COUNTY SHERIFF'S OFFICE,,,,,
6418,NM,UNION COUNTY SHERIFFS OFFICE,,,,,
6419,NM,USDA FOREST SERVICE LEI ABQ SW REG.,,,,,
6420,NM,USDA FOREST SERVICE LEI SW REGION,,,,,
6421,NM,VALENCIA COUNTY SHERIFF DEPT,,,,,
6422,NM,VALENCIA COUNTY SHERIFF OFFICE,,,,,
6423,NM,VILLAGE OF HATCH POLICE DEPT,,,,,
6424,NV,BOULDER CITY POLICE DEPT,,,,,
6425,NV,CARLIN POLICE DEPT,,,,,
6426,NV,CARSON CITY SHERIFF DEPT,,,,,
6427,NV,CARSON CITY SHERIFF OFFICE,,,,,
6428,NV,DOJ/DEA LAS VEGAS,,,,,
6429,NV,DOJ/FBI LAS VEGAS,,,,,
6430,NV,DOJ/FBI RENO,,,,,
6431,NV,DOUGLAS COUNTY SHERIFF DEPT,,,,,
6432,NV,DOUGLAS COUNTY SHERIFFS OFFICE,,,,,
6433,NV,ELKO COUNTY SHERIFF DEPT,,,,,
6434,NV,ELKO POLICE DEPT,,,,,
6435,NV,EUREKA COUNTY SHERIFF DEPT,,,,,
6436,NV,FALLON POLICE DEPT,,,,,
6437,NV,FBI LAS VEGAS,,,,,
6438,NV,HUMBOLDT COUNTY SHERIFF DEPT,,,,,
6439,NV,LANDER COUNTY SHERIFF DEPT,,,,,
6440,NV,LAS VEGAS METRO POLICE DEPT,,,,,
6441,NV,LAS VEGAS METRO POLICE DEPT NORTH,,,,,
6442,NV,LAS VEGAS MUNICIPAL COURT MARSHAL,,,,,
6443,NV,LINCOLN COUNTY SHERIFF DEPT,,,,,
6444,NV,LYON COUNTY SHERIFF DEPT,,,,,
6445,NV,LYON COUNTY SHERIFF OFFICE,,,,,
6446,NV,MESQUITE POLICE DEPT,,,,,
6447,NV,NV DEPT OF AGRICULTURE,,,,,
6448,NV,NV DEPT OF AGRICULTURE (LEA/DNR),,,,,
6449,NV,NV DEPT OF WILDLIFE RENO JACKSON,,,,,
6450,NV,NYE COUNTY SHERIFF DEPT,,,,,
6451,NV,PERSHING COUNTY SHERIFF DEPT,,,,,
6452,NV,RENO POLICE DEPT,,,,,
6453,NV,SPARKS POLICE DEPT,,,,,
6454,NV,US DOJ DEA LAS VEGAS,,,,,
6455,NV,WALKER RIVER TRIBAL POLICE DEPT,,,,,
6456,NV,WASHOE COUNTY DA,,,,,
6457,NV,WASHOE COUNTY SHERIFF DEPT,,,,,
6458,NV,WASHOE CTY SCHOOL DIST POLICE K-12,,,,,
6459,NV,WASHOE CTY SCHOOL DISTRICT POLICE,,,,,
6460,NV,WEST WENDOVER POLICE DEPT,,,,,
6461,NV,WHITE PINE COUNTY SHERIFF DEPT,,,,,
6462,NV,WINNEMUCCA POLICE DEPT,,,,,
6463,NV,YERINGTON POLICE DEPT,,,,,
6464,NY,ALBANY COUNTY SHERIFF DEPT,,,,,
6465,NY,ALBANY COUNTY SHERIFF OFFICE,,,,,
6466,NY,ALBANY POLICE DEPARTMENT,,,,,
6467,NY,ALBION POLICE DEPT,,,,,
6468,NY,ALLEGANY COUNTY SHERIFF DEPT,,,,,
6469,NY,ALLEGANY COUNTY SHERIFFS OFFICE,,,,,
6470,NY,AMHERST POLICE DEPT,,,,,
6471,NY,AMSTERDAM POLICE DEPT,,,,,
6472,NY,AUBURN POLICE DEPT,,,,,
6473,NY,BEACON POLICE DEPT,,,,,
6474,NY,BLOOMING GROVE POLICE DEPT,,,,,
6475,NY,BROOME COUNTY SHERIFF OFFICE,,,,,
6476,NY,CAMBRIDGE GREENWICH POLICE DEPT,,,,,
6477,NY,CARMEL POLICE DEPT,,,,,
6478,NY,CAYUGA COUNTY SHERIFF DEPT,,,,,
6479,NY,CENTRE ISLAND POLICE DEPT,,,,,
6480,NY,CHEEKTOWAGA POLICE DEPT,,,,,
6481,NY,CHEMUNG COUNTY  SHERIFF DEPT,,,,,
6482,NY,CHEMUNG COUNTY SHERIFFS OFFICE,,,,,
6483,NY,CHENANGO COUNTY SHERIFF OFFICE,,,,,
6484,NY,CHESTER POLICE DEPT,,,,,
6485,NY,CHITTENANGO POLICE DEPT,,,,,
6486,NY,CLARKSTOWN POLICE DEPT,,,,,
6487,NY,CLINTON COUNTY SHERIFF DEPT,,,,,
6488,NY,COOPERSTOWN POLICE DEPT,,,,,
6489,NY,CORNWALL POLICE DEPT,,,,,
6490,NY,CRAWFORD POLICE DEPT,,,,,
6491,NY,CRAWFORD TOWN POLICE DEPT,,,,,
6492,NY,DELAWARE COUNTY SHERIFF DEPT,,,,,
6493,NY,DELAWARE COUNTY SHERIFFS OFFICE,,,,,
6494,NY,DHS/ICE/HSI JAMAICA,,,,,
6495,NY,DHS/ICE/HSI NEW YORK,,,,,
6496,NY,DOJ/DEA CORTLANDT MANOR,,,,,
6497,NY,EAST HAMPTON TOWN POLICE,,,,,
6498,NY,ENDICOTT POLICE DEPT,,,,,
6499,NY,ERIE COUNTY SHERIFF DEPT,,,,,
6500,NY,ESSEX COUNTY SHERIFF DEPT,,,,,
6501,NY,EVANS POLICE DEPT,,,,,
6502,NY,FLORAL PARK POLICE DEPT,,,,,
6503,NY,FRANKLIN COUNTY SHERIFF DEPT,,,,,
6504,NY,FREEPORT POLICE DEPT,,,,,
6505,NY,FULTON COUNTY SHERIFF DEPT,,,,,
6506,NY,GLEN COVE POLICE DEPT,,,,,
6507,NY,GOSHEN POLICE DEPT,,,,,
6508,NY,GREECE POLICE DEPT,,,,,
6509,NY,GREENBURGH TOWN POLICE DEPT,,,,,
6510,NY,GREENE COUNTY SHERIFF OFFICE,,,,,
6511,NY,GREENWOOD LAKE POLICE DEPT,,,,,
6512,NY,HAMBURG TOWN POLICE DEPT,,,,,
6513,NY,HAMILTON COUNTY SHERIFF'S OFFICE,,,,,
6514,NY,HAMILTON COUNTY SHERIFFS OFFICE,,,,,
6515,NY,HARRISON POLICE DEPT,,,,,
6516,NY,HERKIMER COUNTY SHERIFF DEPT,,,,,
6517,NY,HERKIMER COUNTY SHERIFFS OFFICE,,,,,
6518,NY,HERKIMER POLICE DEPT,,,,,
6519,NY,ILION POLICE DEPT,,,,,
6520,NY,IRONDEQUOIT POLICE DEPT,,,,,
6521,NY,JEFFERSON COUNTY SHERIFF OFFICE,,,,,
6522,NY,KINGSTON POLICE DEPT,,,,,
6523,NY,KIRKLAND POLICE DEPT,,,,,
6524,NY,LACKAWANNA POLICE DEPT,,,,,
6525,NY,LAKE SUCCESS POLICE DEPARTMENT,,,,,
6526,NY,LARCHMONT VILLAGE POLICE DEPT,,,,,
6527,NY,LEWIS COUNTY SHERIFF OFFICE,,,,,
6528,NY,LEWISBORO POLICE DEPT,,,,,
6529,NY,LIVINGSTON COUNTY SHERIFF OFFICE,,,,,
6530,NY,LONG BEACH POLICE DEPT,,,,,
6531,NY,MADISON COUNTY SHERIFF OFFICE,,,,,
6532,NY,MALVERNE POLICE DEPT,,,,,
6533,NY,MASSENA POLICE DEPT,,,,,
6534,NY,MIDDLETOWN CITY POLICE DEPT,,,,,
6535,NY,MOHAWK POLICE DEPARTMENT,,,,,
6536,NY,MOHAWK POLICE DEPT,,,,,
6537,NY,MONROE COUNTY SHERIFF DEPT,,,,,
6538,NY,MOUNT HOPE POLICE DEPT,,,,,
6539,NY,MOUNT MORRIS POLICE DEPT,,,,,
6540,NY,MOUNT PLEASANT POLICE DEPT,,,,,
6541,NY,MOUNT PLEASANT POLICE DEPT.,,,,,
6542,NY,MOUNT VERNON POLICE DEPT,,,,,
6543,NY,NASSAU COUNTY POLICE DEPT,,,,,
6544,NY,NEW CASTLE POLICE DEPT,,,,,
6545,NY,NEW HARTFORD POLICE DEPT,,,,,
6546,NY,NEW ROCHELLE POLICE DEPT,,,,,
6547,NY,NEW WINDSOR POLICE DEPT,,,,,
6548,NY,NEW YORK CITY POLICE DEPT,,,,,
6549,NY,NEW YORK STATE UNIV FARMINGDALE,,,,,
6550,NY,NEWBURGH CITY POLICE DEPT,,,,,
6551,NY,NEWBURGH TOWN POLICE DEPT,,,,,
6552,NY,NIAGARA COUNTY SHERIFF DEPT,,,,,
6553,NY,NORTH CASTLE POLICE DEPARTMENT,,,,,
6554,NY,NORTHPORT POLICE DEPT,,,,,
6555,NY,NORWICH POLICE DEPARTMENT,,,,,
6556,NY,NORWICH POLICE DEPT,,,,,
6557,NY,NY DEPT OF INVESTIGATION,,,,,
6558,NY,NY DIV OF LAW ENFORCE - SPEC OPC,,,,,
6559,NY,NY STATE PARK POLICE HUDSON VALLEY,,,,,
6560,NY,NY STATE POLICE HEADQUARTERS,,,,,
6561,NY,NY STATE UNIV FARMINGDALE HI_ED,,,,,
6562,NY,NY STATE UNIV MORRISVILLE PD HI_ED,,,,,
6563,NY,NY STATE UNIV MORRISVILLE POLICE,,,,,
6564,NY,NY STATE UNIV NEW PALTZ POLICE,,,,,
6565,NY,NY STATE UNIV ONEONTA POLICE,,,,,
6566,NY,NY STATE UNIV ONEONTA POLICE HI_ED,,,,,
6567,NY,NY STATE UNIV PD OLD WESTBURY HI_ED,,,,,
6568,NY,NY STATE UNIV POLICE OLD WESTBURY,,,,,
6569,NY,OLIVE TOWN POLICE DEPARTMENT,,,,,
6570,NY,ONEIDA COUNTY SHERIFF DEPT,,,,,
6571,NY,ONEIDA POLICE DEPT,,,,,
6572,NY,ONONDAGA COUNTY SHERIFF DEPT,,,,,
6573,NY,OSWEGO CITY POLICE DEPT,,,,,
6574,NY,OSWEGO COUNTY SHERIFF  OFFICE,,,,,
6575,NY,OTSEGO COUNTY SHERIFF DEPT,,,,,
6576,NY,OXFORD POLICE DEPT,,,,,
6577,NY,PAINTED POST POLICE DEPT,,,,,
6578,NY,PEEKSKILL POLICE DEPT,,,,,
6579,NY,PLATTSBURGH POLICE DEPT,,,,,
6580,NY,PORT WASHINGTON POLICE DEPT,,,,,
6581,NY,POUGHKEEPSIE POLICE DEPT,,,,,
6582,NY,QUOGUE VILLAGE POLICE DEPT,,,,,
6583,NY,RAMAPO POLICE DEPT,,,,,
6584,NY,RENSSELAER COUNTY SHERIFF DEPT,,,,,
6585,NY,RENSSELAER COUNTY SHERIFF'S OFFICE,,,,,
6586,NY,RENSSELAER COUNTY SHERIFFS OFFICE,,,,,
6587,NY,ROCHESTER POLICE DEPT,,,,,
6588,NY,ROSENDALE POLICE,,,,,
6589,NY,RYE POLICE DEPT,,,,,
6590,NY,SANDS POINT POLICE DEPT,,,,,
6591,NY,SARATOGA COUNTY SHERIFF DEPT,,,,,
6592,NY,SCHUYLER COUNTY SHERIFF OFFICE,,,,,
6593,NY,SENECA FALLS POLICE DEPT,,,,,
6594,NY,SHANDAKEN POLICE DEPT,,,,,
6595,NY,SHAWANGUNK POLICE DEPT,,,,,
6596,NY,SOUTHAMPTON TOWN POLICE DEPT,,,,,
6597,NY,SPRING VALLEY POLICE DEPT,,,,,
6598,NY,STEUBEN COUNTY SHERIFF DEPT,,,,,
6599,NY,SUFFOLK COUNTY POLICE DEPT,,,,,
6600,NY,SUFFOLK COUNTY SHERIFF DEPT,,,,,
6601,NY,SULLIVAN COUNTY SHERIFF OFFICE,,,,,
6602,NY,SYRACUSE POLICE DEPT,,,,,
6603,NY,TICONDEROGA POLICE DEPT,,,,,
6604,NY,TIOGA COUNTY SHERIFF,,,,,
6605,NY,TOMPKINS COUNTY SHERIFF OFFICE,,,,,
6606,NY,TUCKAHOE VILLAGE POLICE DEPT,,,,,
6607,NY,ULSTER COUNTY SHERIFF DEPT,,,,,
6608,NY,US DHS HIS,,,,,
6609,NY,US TREASURY MINT POLICE,,,,,
6610,NY,UTICA POLICE DEPT,,,,,
6611,NY,WARREN COUNTY SHERIFF DEPT,,,,,
6612,NY,WASHINGTON COUNTY SHERIFF  OFFICE,,,,,
6613,NY,WASHINGTON COUNTY SHERIFFS OFFICE,,,,,
6614,NY,WATERFORD POLICE DEPT,,,,,
6615,NY,WATERTOWN POLICE DEPARTMENT,,,,,
6616,NY,WEST SENECA POLICE DEPT,,,,,
6617,NY,WESTHAMPTON BEACH VILLAGE POLICE DE,,,,,
6618,NY,WYOMING COUNTY SHERIFF DEPT,,,,,
6619,NY,YATES COUNTY SHERIFF DEPT,,,,,
6620,OH,ADA POLICE DEPT,,,,,
6621,OH,ADAMS CTY SHERIFF DEPT,,,,,
6622,OH,AKRON POLICE DEPT,,,,,
6623,OH,ALLEN CO SHERIFF DEPT,,,,,
6624,OH,ALLIANCE POLICE DEPT,,,,,
6625,OH,AMBERLEY VILLAGE POLICE DEPT,,,,,
6626,OH,AMELIA POLICE DEPT,,,,,
6627,OH,ANDOVER POLICE DEPT,,,,,
6628,OH,ANSONIA POLICE DEPT,,,,,
6629,OH,ARCANUM POLICE DEPT,,,,,
6630,OH,ARLINGTON HEIGHTS POLICE DEPT,,,,,
6631,OH,ASHLAND CO SHERIFF DEPT,,,,,
6632,OH,ASHLAND CTY SHERIFF DEPT,,,,,
6633,OH,ASHLAND POLICE DEPT,,,,,
6634,OH,ASHTABULA CTY SHERIFF DEPT,,,,,
6635,OH,ASHTABULA POLICE DEPT,,,,,
6636,OH,ASHVILLE POLICE DEPT,,,,,
6637,OH,ATHENS COUTY SHERIFFS OFFICE,,,,,
6638,OH,ATHENS CTY SHERIFF DEPT,,,,,
6639,OH,ATTICA POLICE DEPT,,,,,
6640,OH,AUGLAIZE COUNTY SHERIFFS OFFICE,,,,,
6641,OH,AUGLAIZE CTY SHERIFF DEPT,,,,,
6642,OH,AUSTINTOWN TWP POLICE DEPT,,,,,
6643,OH,AVON LAKE POLICE DEPT,,,,,
6644,OH,AVON POLICE DEPT,,,,,
6645,OH,BAINBRIDGE TWP POLICE DEPT,,,,,
6646,OH,BALTIMORE POLICE DEPT,,,,,
6647,OH,BARBERTON POLICE DEPT,,,,,
6648,OH,BARNESVILLE POLICE DEPT,,,,,
6649,OH,BATH TWP POLICE DEPT,,,,,
6650,OH,BAY VIEW POLICE DEPT,,,,,
6651,OH,BAZETTA TOWNSHIP POLICE DEPT,,,,,
6652,OH,BEACH CITY POLICE DEPT,,,,,
6653,OH,BEAVER TWP POLICE DEPT,,,,,
6654,OH,BEAVERCREEK POLICE DEPT,,,,,
6655,OH,BEDFORD HEIGHTS POLICE DEPT,,,,,
6656,OH,BEDFORD POLICE DEPT,,,,,
6657,OH,BELLAIRE POLICE DEPT,,,,,
6658,OH,BELLEFONTAINE POLICE DEPT,,,,,
6659,OH,BELLEVUE POLICE DEPT,,,,,
6660,OH,BELLVILLE POLICE DEPT,,,,,
6661,OH,BELMONT COUNTY SHERIFFS OFFICE,,,,,
6662,OH,BELMONT CTY SHERIFF DEPT,,,,,
6663,OH,BELPRE POLICE DEPT,,,,,
6664,OH,BENTLEYVILLE POLICE DEPT,,,,,
6665,OH,BEREA POLICE DEPT,,,,,
6666,OH,BETHEL POLICE DEPT,,,,,
6667,OH,BETHESDA POLICE DEPT,,,,,
6668,OH,BEXLEY POLICE DEPT,,,,,
6669,OH,BLAKESLEE POLICE DEPT,,,,,
6670,OH,BLENDON TWP POLICE DEPT,,,,,
6671,OH,BLOOMVILLE POLICE DEPT,,,,,
6672,OH,BLUE ASH POLICE DEPT,,,,,
6673,OH,BLUFFTON POLICE DEPT,,,,,
6674,OH,BOARDMAN POLICE DEPT,,,,,
6675,OH,BOLIVAR POLICE DEPT,,,,,
6676,OH,BOTKINS POLICE DEPT,,,,,
6677,OH,BOWLING GREEN POLICE DEPT,,,,,
6678,OH,BOWLING GREEN STATE UNIV PD,,,,,
6679,OH,BRADY LAKE POLICE DEPT,,,,,
6680,OH,BREWSTER POLICE DEPT,,,,,
6681,OH,BRIMFIELD POLICE,,,,,
6682,OH,BROADVIEW HEIGHTS PD,,,,,
6683,OH,BROOKFIELD TWP POLICE DEPT,,,,,
6684,OH,BROOKLYN HEIGHTS POLICE DEPT,,,,,
6685,OH,BROOKVILLE POLICE DEPT,,,,,
6686,OH,BRUNSWICK HILLS TWP POLICE DEPT,,,,,
6687,OH,BRUNSWICK POLICE DEPT,,,,,
6688,OH,BRYAN POLICE DEPT,,,,,
6689,OH,BUCHTEL POLICE DEPT,,,,,
6690,OH,BUCKEYE LAKE POLICE DEPT,,,,,
6691,OH,BUCKLAND POLICE DEPT,,,,,
6692,OH,BUCYRUS POLICE DEPT,,,,,
6693,OH,BURTON POLICE DEPT,,,,,
6694,OH,BUTLER CTY SHERIFF DEPT,,,,,
6695,OH,CADIZ POLICE DEPT,,,,,
6696,OH,CALDWELL POLICE DEPT,,,,,
6697,OH,CAMPBELL POLICE DEPT,,,,,
6698,OH,CANAL FULTON POLICE DEPT,,,,,
6699,OH,CANFIELD POLICE DEPT,,,,,
6700,OH,CANTON POLICE DEPT,,,,,
6701,OH,CARDINGTON POLICE DEPT,,,,,
6702,OH,CARLISLE POLICE DEPT,,,,,
6703,OH,CARROLL COUNTY SHERIFFS OFFICE,,,,,
6704,OH,CARROLL CTY SHERIFF DEPT,,,,,
6705,OH,CARROLL POLICE DEPT,,,,,
6706,OH,CARROLLTON POLICE DEPT,,,,,
6707,OH,CASTALIA POLICE DEPT,,,,,
6708,OH,CELINA POLICE DEPT,,,,,
6709,OH,CENTERVILLE POLICE DEPT,,,,,
6710,OH,CENTRAL STATE UNIV POLICE,,,,,
6711,OH,CENTRAL STATE UNIV POLICE HI_ED,,,,,
6712,OH,CHAGRIN FALLS POLICE DEPT,,,,,
6713,OH,CHAMPAIGN CTY SHERIFF DEPT,,,,,
6714,OH,CHILLICOTHE POLICE DEPT,,,,,
6715,OH,CIRCLEVILLE POLICE DEPT,,,,,
6716,OH,CLARK CTY SHERIFF DEPT,,,,,
6717,OH,CLAY CENTER POLICE DEPT,,,,,
6718,OH,CLAY TWP POLICE DEPT (OTTAWA CTY),,,,,
6719,OH,CLAY TWP POLICE DEPT BROOKVILLE,,,,,
6720,OH,CLAY TWP POLICE DEPT GENOA,,,,,
6721,OH,CLERMONT COUNTY SHERIFFS OFFICE,,,,,
6722,OH,CLERMONT CTY SHERIFF DEPT,,,,,
6723,OH,CLEVELAND HEIGHTS POLICE DEPT,,,,,
6724,OH,CLEVELAND HTS POLICE DEPT,,,,,
6725,OH,CLEVELAND METROPARKS RANGER DEPT,,,,,
6726,OH,CLEVES POLICE DEPT,,,,,
6727,OH,COAL GROVE POLICE DEPT,,,,,
6728,OH,COALTON POLICE DEPT,,,,,
6729,OH,COLDWATER POLICE DEPT,,,,,
6730,OH,COLERAIN TWP POLICE DEPT,,,,,
6731,OH,COLLEGE OF MT. ST  JOSEPH PD HI_ED,,,,,
6732,OH,COLLEGE OF MT. ST  JOSEPH POLICE,,,,,
6733,OH,COLUMBIANA CTY DTF,,,,,
6734,OH,COLUMBIANA CTY SHERIFF DEPT,,,,,
6735,OH,COLUMBIANA POLICE DEPT,,,,,
6736,OH,COLUMBUS DIVISON OF POLICE,,,,,
6737,OH,COLUMBUS DIVISON POLICE DEPT,,,,,
6738,OH,COLUMBUS GROVE POLICE DEPT,,,,,
6739,OH,COMMERCIAL POINT POLICE DEPT,,,,,
6740,OH,CONNEAUT POLICE DEPT,,,,,
6741,OH,CONTINENTAL POLICE DEPT,,,,,
6742,OH,COPLEY POLICE DEPT,,,,,
6743,OH,CORNING POLICE DEPT,,,,,
6744,OH,CORTLAND POLICE DEPT,,,,,
6745,OH,COSHOCTON CTY SHERIFF DEPT,,,,,
6746,OH,COVINGTON POLICE DEPT,,,,,
6747,OH,CRAIG BEACH POLICE DEPT,,,,,
6748,OH,CRAWFORD CTY SHERIFF DEPT,,,,,
6749,OH,CRESTLINE POLICE DEPT,,,,,
6750,OH,CRIDERSVILLE POLICE DEPT,,,,,
6751,OH,CROSS CREEK TWP POLICE DEPT,,,,,
6752,OH,CUYAHOGA CTY SHERIFF DEPT,,,,,
6753,OH,DANVILLE POLICE DEPT,,,,,
6754,OH,DARKE COUNTY SHERIFFS OFFICE,,,,,
6755,OH,DARKE CTY SHERIFF DEPT,,,,,
6756,OH,DEER PARK POLICE DEPT,,,,,
6757,OH,DEFIANCE CITY POLICE DEPT,,,,,
6758,OH,DEFIANCE CO SHERIFF DEPT,,,,,
6759,OH,DEFIANCE POLICE DEPT,,,,,
6760,OH,DEGRAFF POLICE DEPT,,,,,
6761,OH,DELAWARE CTY SHERIFF DEPT,,,,,
6762,OH,DELAWARE POLICE DEPT,,,,,
6763,OH,DELHI TWP POLICE DEPT,,,,,
6764,OH,DELPHOS POLICE DEPT,,,,,
6765,OH,DELTA POLICE DEPT,,,,,
6766,OH,DESHLER POLICE DEPT,,,,,
6767,OH,DHS/ICE COLUMBUS,,,,,
6768,OH,DHS/ICE OHIO,,,,,
6769,OH,DHS/ICE SEC INVESTIGATIONS,,,,,
6770,OH,DHS/ICE STRONGVILLE,,,,,
6771,OH,DHS/ICE/HSI BLUE ASH,,,,,
6772,OH,DHS/ICE/HSI OHIO,,,,,
6773,OH,DOJ/FBI CINCINNATI DIVISION,,,,,
6774,OH,DOJ/FBI CLEVELAND,,,,,
6775,OH,DOJ/USMS COLUMBUS,,,,,
6776,OH,DOYLESTOWN POLICE DEPT,,,,,
6777,OH,EAST CLEVELAND POLICE DEPT,,,,,
6778,OH,EATON POLICE DEPT,,,,,
6779,OH,EDGERTON POLICE DEPT,,,,,
6780,OH,EDON POLICE DEPT,,,,,
6781,OH,EHOVE POLICE ACADEMY,,,,,
6782,OH,ELIDA POLICE DEPT,,,,,
6783,OH,ELMORE POLICE DEPT,,,,,
6784,OH,ELMWOOD PLACE POLICE DEPT,,,,,
6785,OH,EMPIRE POLICE DEPT,,,,,
6786,OH,ENGLEWOOD POLICE DEPT,,,,,
6787,OH,EUCLID POLICE DEPT,,,,,
6788,OH,FAIRBORN POLICE DEPT,,,,,
6789,OH,FAIRFAX POLICE DEPT,,,,,
6790,OH,FAIRFIELD COUNTY SHERIFFS OFFICE,,,,,
6791,OH,FAIRFIELD CTY SHERIFF DEPT,,,,,
6792,OH,FAIRFIELD MED CTR POLICE DEPT,,,,,
6793,OH,FAIRFIELD TWP POLICE DEPT,,,,,
6794,OH,FAIRLAWN POLICE DEPT,,,,,
6795,OH,FAIRPORT HARBOR POLICE DEPT,,,,,
6796,OH,FAYETTE COUNTY SHERIFFS OFFICE,,,,,
6797,OH,FAYETTE CTY SHERIFF'S DEPT,,,,,
6798,OH,FAYETTE CTY SHERIFFS DEPT,,,,,
6799,OH,FAYETTE POLICE DEPT,,,,,
6800,OH,FAYETTEVILLE POLICE DEPT,,,,,
6801,OH,FINDLAY POLICE DEPT,,,,,
6802,OH,FIVE RIVERS METRO PARKS PD,,,,,
6803,OH,FIVE RIVERS METROPARKS,,,,,
6804,OH,FOREST PARK POLICE DEPT,,,,,
6805,OH,FOREST POLICE DEPT,,,,,
6806,OH,FORT JENNINGS POLICE DEPT,,,,,
6807,OH,FOSTORIA POLICE DEPT,,,,,
6808,OH,FOWLER POLICE DEPT,,,,,
6809,OH,FRANKLIN CTY SHERIFF DEPT,,,,,
6810,OH,FRANKLIN TWP POLICE DEPT,,,,,
6811,OH,FRAZEYSBURG POLICE DEPT,,,,,
6812,OH,FREMONT POLICE DEPT,,,,,
6813,OH,FULTON CTY SHERIFF DEPT,,,,,
6814,OH,GAHANNA POLICE DEPT,,,,,
6815,OH,GALLIA COUNTY SHERIFFS OFFICE,,,,,
6816,OH,GALLIA CTY SHERIFF DEPT,,,,,
6817,OH,GARFIELD HEIGHTS POLICE DEPT,,,,,
6818,OH,GEAUGA COUNTY  SHERIFF'S OFFICE,,,,,
6819,OH,GEAUGA COUNTY  SHERIFFS OFFICE,,,,,
6820,OH,GEAUGA PARK DISTRICT RANGERS,,,,,
6821,OH,GEAUGA PARK LAW ENFORCEMENT RANGERS,,,,,
6822,OH,GENEVA ON THE LAKE POLICE DEPT,,,,,
6823,OH,GENOA POLICE DEPT,,,,,
6824,OH,GENOA TWP POLICE DEPT,,,,,
6825,OH,GEORGETOWN POLICE DEPT,,,,,
6826,OH,GERMAN TOWNSHIP POLICE,,,,,
6827,OH,GERMAN TWP POLICE DEPT,,,,,
6828,OH,GERMANTOWN POLICE DEPT,,,,,
6829,OH,GERMANTOWN TWP POLICE,,,,,
6830,OH,GIRARD POLICE DEPT,,,,,
6831,OH,GLENDALE POLICE DEPT,,,,,
6832,OH,GNADENHUTTEN POLICE DEPT,,,,,
6833,OH,GOLF MANOR POLICE DEPT,,,,,
6834,OH,GOSHEN TWP POLICE DEPT-SALEM,,,,,
6835,OH,GRAFTON POLICE DEPT,,,,,
6836,OH,GRAND RIVER POLICE DEPT,,,,,
6837,OH,GRANDVIEW HEIGHTS POLICE DIV,,,,,
6838,OH,GRANVILLE POLICE DEPT,,,,,
6839,OH,GRATIS POLICE DEPT,,,,,
6840,OH,GREATER CLEVELAND TRANSIT POLICE,,,,,
6841,OH,GREEN SPRINGS POLICE DEPT,,,,,
6842,OH,GREEN TWP POLICE DEPT,,,,,
6843,OH,GREENE COUNTY SHERIFFS OFFICE,,,,,
6844,OH,GREENE CTY SHERIFF DEPT,,,,,
6845,OH,GREENFIELD POLICE DEPT,,,,,
6846,OH,GROVEPORT POLICE DEPT,,,,,
6847,OH,GUERNSEY CTY SHERIFF DEPT,,,,,
6848,OH,HAMILTON COUNTY SHERIFFS OFFICE,,,,,
6849,OH,HAMILTON CTY POLICE ASSN SWAT,,,,,
6850,OH,HAMILTON CTY SHERIFF DEPT,,,,,
6851,OH,HAMILTON POLICE DEPT,,,,,
6852,OH,HAMILTON TWP POLICE DEPT,,,,,
6853,OH,HANCOCK COUNTY SHERIFFS OFFICE,,,,,
6854,OH,HANCOCK CTY SHERIFF DEPT,,,,,
6855,OH,HANGING ROCK POLICE DEPT,,,,,
6856,OH,HARDIN COUNTY SHERIFF'S OFFICE,,,,,
6857,OH,HARDIN COUNTY SHERIFFS OFFICE,,,,,
6858,OH,HARRISON CTY SHERIFF DEPT,,,,,
6859,OH,HARTFORD TOWNSHIP PD,,,,,
6860,OH,HARVEYSBURG POLICE DEPT,,,,,
6861,OH,HASKINS POLICE DEPARTMENT,,,,,
6862,OH,HASKINS VILLAGE POLICE DEPT,,,,,
6863,OH,HIGHLAND COUNTY SHERIFFS OFFICE,,,,,
6864,OH,HIGHLAND CTY SHERIFF DEPT,,,,,
6865,OH,HIGHLAND HILLS POLICE DEPT,,,,,
6866,OH,HILLIARD POLICE DEPT,,,,,
6867,OH,HILLSBORO POLICE DEPT,,,,,
6868,OH,HIRAM POLICE DEPT,,,,,
6869,OH,HOCKING COLLEGE POLICE DEPT,,,,,
6870,OH,HOCKING COLLEGE POLICE DEPT HI_ED,,,,,
6871,OH,HOCKING CTY SHERIFF DEPT,,,,,
6872,OH,HOLLAND POLICE DEPT,,,,,
6873,OH,HOLMES CTY SHERIFF DEPT,,,,,
6874,OH,HUBBARD POLICE DEPT,,,,,
6875,OH,HUBBARD TWP POLICE DEPT,,,,,
6876,OH,HUBER HEIGHTS POLICE DEPT,,,,,
6877,OH,HURON CTY SHERIFF DEPT,,,,,
6878,OH,INDEPENDENCE POLICE DEPT,,,,,
6879,OH,INDIAN HILL POLICE DEPT,,,,,
6880,OH,IRONTON POLICE DEPT,,,,,
6881,OH,JACKSON CENTER POLICE DEPT,,,,,
6882,OH,JACKSON CTY SHERIFF DEPT,,,,,
6883,OH,JACKSON POLICE DEPT,,,,,
6884,OH,JACKSON TWP NORTH JACKSON,,,,,
6885,OH,JACKSON TWP POLICE DEPT MASSILLON,,,,,
6886,OH,JEFFERSON CTY SHERIFF DEPT,,,,,
6887,OH,JOHNNY APPLESEED METRO PARK,,,,,
6888,OH,JUNCTION CITY POLICE DEPT,,,,,
6889,OH,KALIDA POLICE DEPT,,,,,
6890,OH,KENT POLICE DEPT,,,,,
6891,OH,KENTON POLICE DEPT,,,,,
6892,OH,KETTERING POLICE DEPT,,,,,
6893,OH,KINSMAN POLICE DEPT,,,,,
6894,OH,KIRTLAND HILLS POLICE DEPT,,,,,
6895,OH,KIRTLAND POLICE DEPT,,,,,
6896,OH,KNOX CTY SHERIFF DEPT,,,,,
6897,OH,LAKE COUNTY NARCOTICS AGENCY,,,,,
6898,OH,LAKE COUNTY PROSECUTOR'S OFFICE,,,,,
6899,OH,LAKE COUNTY PROSECUTORS OFFICE,,,,,
6900,OH,LAKE CTY NARCOTICS AGENCY,,,,,
6901,OH,LAKE TWP POLICE DEPT,,,,,
6902,OH,LAKELAND COMM COLLEGE POLICE,,,,,
6903,OH,LAKELAND COMM COLLEGE POLICE HI_ED,,,,,
6904,OH,LANCASTER POLICE DEPT,,,,,
6905,OH,LAURELVILLE POLICE DEPT,,,,,
6906,OH,LAWRENCE CTY SHERIFF DEPT,,,,,
6907,OH,LAWRENCE TWP POLICE DEPT,,,,,
6908,OH,LEBANON POLICE DEPT,,,,,
6909,OH,LEESBURG POLICE DEPT,,,,,
6910,OH,LEIPSIC POLICE DEPT,,,,,
6911,OH,LIBERTY TWP POLICE DEPT,,,,,
6912,OH,LICKING COUNTY SHERIFFS OFFICE,,,,,
6913,OH,LICKING CTY SHERIFF DEPT,,,,,
6914,OH,LICKING CTY SHERIFFS OFFICE,,,,,
6915,OH,LIMA POLICE DEPT,,,,,
6916,OH,LINCOLN HEIGHTS POLICE DEPT,,,,,
6917,OH,LINNDALE POLICE DEPT,,,,,
6918,OH,LISBON POLICE DEPT,,,,,
6919,OH,LITHOPOLIS POLICE DEPT,,,,,
6920,OH,LIVERPOOL TWP POLICE DEPT,,,,,
6921,OH,LODI POLICE DEPT,,,,,
6922,OH,LOGAN CTY SHERIFF DEPT,,,,,
6923,OH,LOGAN POLICE DEPT,,,,,
6924,OH,LONDON POLICE DEPT,,,,,
6925,OH,LORAIN COUTY METRO PARKS,,,,,
6926,OH,LORAIN CTY  METRO PARKS,,,,,
6927,OH,LORAIN CTY SHERIFF DEPT,,,,,
6928,OH,LORAIN POLICE DEPT,,,,,
6929,OH,LORDSTOWN POLICE DEPT,,,,,
6930,OH,LOUISVILLE POLICE DEPT,,,,,
6931,OH,LOVELAND POLICE DEPT,,,,,
6932,OH,LOWELLVILLE POLICE DEPT,,,,,
6933,OH,LUCAS CTY SHERIFF DEPT,,,,,
6934,OH,LUCKEY POLICE DEPT,,,,,
6935,OH,LYNCHBURG POLICE DEPT,,,,,
6936,OH,MACEDONIA POLICE DEPT,,,,,
6937,OH,MADEIRA POLICE DEPT,,,,,
6938,OH,MADISON CO SHERIFF DEPT,,,,,
6939,OH,MADISON COUNTY SHERIFFS OFFICE,,,,,
6940,OH,MADISON TOWNSHIP FIRE DEPT,,,,,
6941,OH,MADISON TWP POLICE DEPT (MADISON),,,,,
6942,OH,MADISON TWP POLICE DEPT GROVEPORT,,,,,
6943,OH,MADISON TWP POLICE DEPT MADISON,,,,,
6944,OH,MADISON VILLAGE POLICE DEPT,,,,,
6945,OH,MAGNOLIA POLICE DEPT,,,,,
6946,OH,MAHONING COUNTY SHERIFFS OFFICE,,,,,
6947,OH,MAHONING CTY SHERIFF DEPT,,,,,
6948,OH,MAHONING VALLEY CRISIS RESPONSE,,,,,
6949,OH,MAINEVILLE POLICE DEPT,,,,,
6950,OH,MALINTA POLICE DEPT,,,,,
6951,OH,MANCHESTER POLICE DEPT,,,,,
6952,OH,MANSFIELD POLICE DEPT,,,,,
6953,OH,MAPLE HEIGHTS POLICE DEPT,,,,,
6954,OH,MARIETTA POLICE DEPT,,,,,
6955,OH,MARION CTY SHERIFF DEPT,,,,,
6956,OH,MARION POLICE DEPT,,,,,
6957,OH,MARION TWP POLICE DEPT,,,,,
6958,OH,MARLBORO TWP POLICE DEPT,,,,,
6959,OH,MARSHALLVILLE POLICE DEPT,,,,,
6960,OH,MARTINS FERRY POLICE DEPT,,,,,
6961,OH,MARYSVILLE DIVISION OF POLICE,,,,,
6962,OH,MASSILLON POLICE DEPT,,,,,
6963,OH,MATAMORAS POLICE DEPT,,,,,
6964,OH,MAYFIELD HEIGHTS POLICE DEPT,,,,,
6965,OH,MCARTHUR POLICE DEPT,,,,,
6966,OH,MCCLURE POLICE DEPT,,,,,
6967,OH,MCCOMB POLICE DEPT,,,,,
6968,OH,MECHANICSBURG POLICE DEPT,,,,,
6969,OH,MEDINA COUNTY SHERIFFS OFFICE,,,,,
6970,OH,MEDINA CTY SHERIFF DEPT,,,,,
6971,OH,MEDWAY DRUG ENFORCEMENT AGENCY,,,,,
6972,OH,MEIGS COUNTY SHERIFFS OFFICE,,,,,
6973,OH,MEIGS CTY SHERIFF DEPT,,,,,
6974,OH,MENTOR LAKE POLICE DEPT,,,,,
6975,OH,MENTOR POLICE DEPT,,,,,
6976,OH,METROHEALTH SYSTEM POLICE,,,,,
6977,OH,METROPARKS OF BUTLER CTY,,,,,
6978,OH,MIAMI CTY  SHERIFF'S  OFFICE,,,,,
6979,OH,MIAMI CTY  SHERIFFS  OFFICE,,,,,
6980,OH,MIAMI TOWNSHIP POLICE DEPT DAYTON,,,,,
6981,OH,MIDDLEBURG HEIGHTS POLICE DEPT,,,,,
6982,OH,MIDDLEFIELD POLICE DEPT,,,,,
6983,OH,MIDDLETOWN POLICE DEPT,,,,,
6984,OH,MIDVALE POLICE DEPT,,,,,
6985,OH,MILL CREEK METROPARKS POLICE,,,,,
6986,OH,MILLERSPORT POLICE DEPT,,,,,
6987,OH,MILTON POLICE DISTRICT,,,,,
6988,OH,MILTON TWP POLICE DISTRICT,,,,,
6989,OH,MOGADORE POLICE DEPT,,,,,
6990,OH,MONROE CTY SHERIFF DEPT,,,,,
6991,OH,MONROE POLICE DEPT,,,,,
6992,OH,MONROEVILLE POLICE DEPT,,,,,
6993,OH,MONTGOMERY CTY SHERIFF DEPT,,,,,
6994,OH,MONTGOMERY POLICE DEPT,,,,,
6995,OH,MONTPELIER POLICE DEPT,,,,,
6996,OH,MONTVILLE TWP POLICE DEPT,,,,,
6997,OH,MORAINE POLICE DEPT,,,,,
6998,OH,MORELAND HILLS POLICE DEPT,,,,,
6999,OH,MORGAN COUNTY SHERIFFS OFFICE,,,,,
7000,OH,MORGAN CTY SHERIFF DEPT,,,,,
7001,OH,MORROW POLICE DEPT,,,,,
7002,OH,MOUNT ORAB POLICE DEPT,,,,,
7003,OH,MOWRYSTOWN POLICE DEPT,,,,,
7004,OH,MURRAY CITY POLICE DEPT,,,,,
7005,OH,MUSKINGUM CO SHERIFF DEPT,,,,,
7006,OH,NAVARRE POLICE DEPT,,,,,
7007,OH,NELSONVILLE POLICE DEPT,,,,,
7008,OH,NEW ALEXANDRIA POLICE DEPT,,,,,
7009,OH,NEW BOSTON POLICE DEPT,,,,,
7010,OH,NEW KNOXVILLE POLICE DEPT,,,,,
7011,OH,NEW LEBANON POLICE,,,,,
7012,OH,NEW LEXINGTON POLICE DEPT,,,,,
7013,OH,NEW LONDON POLICE DEPT,,,,,
7014,OH,NEW MADISON POLICE DEPT,,,,,
7015,OH,NEW MIDDLETOWN POLICE DEPT,,,,,
7016,OH,NEW PHILADELPHIA POLICE DEPT,,,,,
7017,OH,NEW VIENNA POLICE DEPT,,,,,
7018,OH,NEWCOMERSTOWN POLICE DEPT,,,,,
7019,OH,NILES POLICE DEPT,,,,,
7020,OH,NOBLE COUNTY SHERIFF DEPT,,,,,
7021,OH,NOBLE CTY SHERIFF DEPT,,,,,
7022,OH,NORTH BALTIMORE POLICE DEPT,,,,,
7023,OH,NORTH CANTON POLICE DEPT,,,,,
7024,OH,NORTH COLLEGE HILL POLICE,,,,,
7025,OH,NORTH COLLEGE HILL POLICE DEPT,,,,,
7026,OH,NORTH COLLEGE HILL POLICE HI_ED,,,,,
7027,OH,NORTH HAMPTON POLICE DEPT,,,,,
7028,OH,NORTH KINGSVILLE POLICE DEPT,,,,,
7029,OH,NORTH ROYALTON POLICE DEPT,,,,,
7030,OH,NORTHFIELD VILLAGE POLICE DEPT,,,,,
7031,OH,NORWALK POLICE DEPT,,,,,
7032,OH,NORWOOD POLICE DEPT,,,,,
7033,OH,NT RAILWAY PD (REPUBLIC STEEL),,,,,
7034,OH,OAK HILL POLICE DEPT,,,,,
7035,OH,OAKWOOD PUBLIC SAFETY DEPT,,,,,
7036,OH,OAKWOOD VILLAGE POLICE DEPT,,,,,
7037,OH,OBERLIN POLICE DEPT,,,,,
7038,OH,OBETZ POLICE DEPT,,,,,
7039,OH,OH BUREAU OF CRIMINAL ID  INVEST,,,,,
7040,OH,OH BUREAU OF CRIMINAL ID & INVEST,,,,,
7041,OH,OH DEPT OF NATURAL RESOURCES,,,,,
7042,OH,OH PEACE OFFICER TNG ACADEMY,,,,,
7043,OH,OH STATE HIGHWAY PATROL,,,,,
7044,OH,OH STATE UNIV POLICE DEPT,,,,,
7045,OH,OH STATE UNIV POLICE DEPT HI_ED,,,,,
7046,OH,OLMSTED FALLS POLICE DEPT,,,,,
7047,OH,ONTARIO POLICE DEPT,,,,,
7048,OH,ORANGE VILLAGE POLICE DEPT,,,,,
7049,OH,OREGON POLICE DEPT,,,,,
7050,OH,ORRVILLE POLICE DEPT,,,,,
7051,OH,ORWELL POLICE DEPT,,,,,
7052,OH,OSTRANDER DIVISION POLICE,,,,,
7053,OH,OTTAWA CTY SHERIFF DEPT,,,,,
7054,OH,OTTAWA HILLS POLICE DEPT,,,,,
7055,OH,OTTAWA POLICE DEPT,,,,,
7056,OH,OWENSVILLE POLICE DEPT,,,,,
7057,OH,OXFORD POLICE DEPT,,,,,
7058,OH,OXFORD TOWNSHIP POLICE DEPT,,,,,
7059,OH,PAINESVILLE POLICE DEPT,,,,,
7060,OH,PARMA HEIGHTS POLICE DEPT,,,,,
7061,OH,PARMA POLICE DEPT,,,,,
7062,OH,PATASKALA POLICE DEPT,,,,,
7063,OH,PAULDING CTY SHERIFF DEPT,,,,,
7064,OH,PEEBLES POLICE DEPT,,,,,
7065,OH,PEMBERVILLE POLICE DEPT,,,,,
7066,OH,PEPPER PIKE POLICE DEPT,,,,,
7067,OH,PERKINS TWP POLICE DEPT,,,,,
7068,OH,PERRY CTY SHERIFF DEPT,,,,,
7069,OH,PERRY POLICE DEPT,,,,,
7070,OH,PERRY TWP POLICE DEPT,,,,,
7071,OH,PERRY TWP POLICE DEPT (BROOKVILLE),,,,,
7072,OH,PERRY TWP POLICE DEPT (DUBLIN),,,,,
7073,OH,PERRYSBURG POLICE DEPT,,,,,
7074,OH,PERRYSBURG TWP POLICE DEPT,,,,,
7075,OH,PICKAWAY CTY SHERIFF DEPT,,,,,
7076,OH,PICKERINGTON POLICE DEPT,,,,,
7077,OH,PIKE CTY SHERIFF DEPT,,,,,
7078,OH,PIONEER POLICE DEPT,,,,,
7079,OH,PIQUA POLICE DEPT,,,,,
7080,OH,PLYMOUTH POLICE DEPT,,,,,
7081,OH,POLAND VILLAGE POLICE DEPT,,,,,
7082,OH,POMEROY POLICE DEPT,,,,,
7083,OH,PORT CLINTON POLICE DEPT,,,,,
7084,OH,PORTAGE CTY SHERIFF DEPT,,,,,
7085,OH,PORTSMOUTH POLICE DEPT,,,,,
7086,OH,PREBLE CTY SHERIFF DEPT,,,,,
7087,OH,PROCTORVILLE POLICE DEPT,,,,,
7088,OH,PUTNAM CTY SHERIFF DEPT,,,,,
7089,OH,RAVENNA POLICE DEPT,,,,,
7090,OH,RAYLAND POLICE DEPARTMENT,,,,,
7091,OH,READING POLICE DEPT,,,,,
7092,OH,REPUBLIC N&T RAILWAY REPUBLIC STEEL,,,,,
7093,OH,REPUBLIC NT RAILWAY REPUBLIC STEEL,,,,,
7094,OH,REPUBLIC POLICE DEPT,,,,,
7095,OH,REYNOLDSBURG POLICE DEPT,,,,,
7096,OH,RICHFIELD POLICE DEPT,,,,,
7097,OH,RICHLAND CTY SHERIFF DEPT,,,,,
7098,OH,RICHMOND HEIGHTS POLICE DEPT,,,,,
7099,OH,RIO GRANDE POLICE DEPT,,,,,
7100,OH,RIPLEY POLICE DEPT,,,,,
7101,OH,RITTMAN POLICE DEPT,,,,,
7102,OH,RIVERSIDE POLICE DEPT,,,,,
7103,OH,ROAMING SHORES POLICE DEPT,,,,,
7104,OH,ROCKFORD POLICE DEPT,,,,,
7105,OH,ROCKY RIDGE POLICE DEPT,,,,,
7106,OH,ROSS CTY SHERIFF DEPT,,,,,
7107,OH,ROSS TWP POLICE DEPT,,,,,
7108,OH,ROSSFORD POLICE DEPT,,,,,
7109,OH,RUSSELL POLICE DEPT,,,,,
7110,OH,RUSSELLS POINT POLICE DEPT,,,,,
7111,OH,RUSSELLVILLE POLICE DEPT,,,,,
7112,OH,RUTLAND POLICE DEPT,,,,,
7113,OH,SAGAMORE HILLS POLICE DEPT,,,,,
7114,OH,SALINE TWP POLICE DEPT,,,,,
7115,OH,SALINEVILLE POLICE DEPT,,,,,
7116,OH,SANDUSKY COUTY SHERIFFS OFFICE,,,,,
7117,OH,SANDUSKY CTY SHERIFF DEPT,,,,,
7118,OH,SANDUSKY POLICE DEPT,,,,,
7119,OH,SANDUSKY VETERANS HOME POLICE,,,,,
7120,OH,SCIOTO COUNTY SHERIFF'S OFFICE,,,,,
7121,OH,SCIOTO COUNTY SHERIFFS OFFICE,,,,,
7122,OH,SCOTT POLICE DEPT,,,,,
7123,OH,SENECA COUNTY SHERIFFS OFFICE,,,,,
7124,OH,SENECA CTY SHERIFF DEPT,,,,,
7125,OH,SEVILLE POLICE DEPT,,,,,
7126,OH,SHADYSIDE POLICE DEPT,,,,,
7127,OH,SHAKER HEIGHTS POLICE DEPT,,,,,
7128,OH,SHARON TWP POLICE DEPT,,,,,
7129,OH,SHARONVILLE POLICE DEPT,,,,,
7130,OH,SHAWNEE HILLS POLICE DEPT,,,,,
7131,OH,SHAWNEE TWP POLICE DEPT,,,,,
7132,OH,SHEFFIELD LAKE POLICE DEPT,,,,,
7133,OH,SHELBY CTY SHERIFF DEPT,,,,,
7134,OH,SHELBY POLICE DEPT,,,,,
7135,OH,SILVER LAKE POLICE DEPT,,,,,
7136,OH,SILVERTON POLICE DEPT,,,,,
7137,OH,SINCLAIR POLICE DEPT,,,,,
7138,OH,SMITH TWP POLICE DEPT,,,,,
7139,OH,SOUTH CHARLESTON POLICE DEPT,,,,,
7140,OH,SOUTH POINT POLICE DEPT,,,,,
7141,OH,SOUTH ZANESVILLE POLICE DEPT,,,,,
7142,OH,SOUTHEAST OH NARC SWAT DEPT,,,,,
7143,OH,SOUTHEASTERN OHIO REGIONAL JAIL,,,,,
7144,OH,SPENCER POLICE DEPT,,,,,
7145,OH,SPRINGBORO POLICE DEPT,,,,,
7146,OH,SPRINGFIELD POLICE DEPT,,,,,
7147,OH,SPRINGFIELD TWP PD AKRON,,,,,
7148,OH,SPRINGFIELD TWP PD CINNCINATI,,,,,
7149,OH,SPRINGFIELD TWP POLICE DEPT (AKRON),,,,,
7150,OH,ST LOUISVILLE POLICE DEPT,,,,,
7151,OH,ST PARIS POLICE DEPT,,,,,
7152,OH,STARK COUNTY SHERIFFS OFFICE,,,,,
7153,OH,STARK CTY SHERIFF DEPT,,,,,
7154,OH,STEUBENVILLE POLICE DEPT,,,,,
7155,OH,STOW POLICE DEPT,,,,,
7156,OH,STRASBURG POLICE DEPT,,,,,
7157,OH,STRATTON POLICE DEPT,,,,,
7158,OH,STREETSBORO POLICE DEPT,,,,,
7159,OH,STRONGSVILLE POLICE DEPT,,,,,
7160,OH,STRUTHERS POLICE DEPT,,,,,
7161,OH,STRYKER POLICE DEPT,,,,,
7162,OH,SUGAR GROVE POLICE DEPT,,,,,
7163,OH,SUGARCREEK POLICE DEPT,,,,,
7164,OH,SUGARCREEK TWP POLICE DEPT,,,,,
7165,OH,SUMMA HEALTH POLICE PROTECTIVE SVCS,,,,,
7166,OH,SUMMIT COUNTY SHERIFFS OFFICE,,,,,
7167,OH,SUMMIT CTY SHERIFF DEPT,,,,,
7168,OH,SUNBURY POLICE DEPT,,,,,
7169,OH,SYLVANIA POLICE DIVISON,,,,,
7170,OH,SYLVANIA TWP POLICE DEPT,,,,,
7171,OH,SYRACUSE POLICE DEPT,,,,,
7172,OH,TALLMADGE POLICE DEPT,,,,,
7173,OH,TERRACE PARK POLICE DEPT,,,,,
7174,OH,TIFFIN POLICE DEPT,,,,,
7175,OH,TILTONSVILLE POLICE DEPT,,,,,
7176,OH,TOLEDO POLICE DEPT,,,,,
7177,OH,TOLEDO- LUCAS CTY  PORT AUTH POL,,,,,
7178,OH,TORONTO POLICE DEPT,,,,,
7179,OH,TRENTON POLICE DEPT,,,,,
7180,OH,TRUMBULL CO SHERIFF DEPT,,,,,
7181,OH,TRUMBULL COUNTY SHERIFFS OFFICE,,,,,
7182,OH,TRURO TOWNSHIP FIRE DEPT,,,,,
7183,OH,TUSCARAWAS CTY COURT,,,,,
7184,OH,TUSCARAWAS CTY SHERIFF DEPT,,,,,
7185,OH,TWINSBURG POLICE DEPT,,,,,
7186,OH,UHRICHSVILLE POLICE DEPT,,,,,
7187,OH,UNION CITY POLICE DEPT,,,,,
7188,OH,UNION CTY SHERIFF DEPT,,,,,
7189,OH,UNION POLICE DEPT,,,,,
7190,OH,UNION TWP2 POLICE DEPT,,,,,
7191,OH,UNIONTOWN POLICE DEPT,,,,,
7192,OH,UNIV CIRCLE POLICE DEPT,,,,,
7193,OH,UNIV CIRCLE POLICE DEPT HI_ED,,,,,
7194,OH,UNIV OF AKRON POLICE DEPT,,,,,
7195,OH,UNIV OF AKRON POLICE DEPT HI_ED,,,,,
7196,OH,UNIV OF CINCINNATI POLICE DEPT,,,,,
7197,OH,UNIV OF CINCINNATI POLICE HI_ED,,,,,
7198,OH,UNIVERSITY HEIGHTS POLICE DEPT,,,,,
7199,OH,UPPER ARLINGTON POLICE,,,,,
7200,OH,UPPER ARLINGTON POLICE DIVISION,,,,,
7201,OH,UPPER SANDUSKY POLICE DEPT,,,,,
7202,OH,US DHS ICE,,,,,
7203,OH,US DOJ DEA WOOSTER MEDWAY,,,,,
7204,OH,US DOJ FBI CINCINNATI DIVISION,,,,,
7205,OH,US FBI CLEVELAND,,,,,
7206,OH,US MARSHAL SVC COLUMBUS,,,,,
7207,OH,USDA FOREST SERVICE LEI NELSONVILLE,,,,,
7208,OH,UTICA POLICE DEPT,,,,,
7209,OH,VERMILION POLICE DEPT,,,,,
7210,OH,VILLAGE OF BETHEL POLICE DEPT,,,,,
7211,OH,VINTON CTY SHERIFF DEPT,,,,,
7212,OH,WAITE HILL POLICE DEPT,,,,,
7213,OH,WAITE HILL VILLAGE POLICE DEPT,,,,,
7214,OH,WALBRIDGE POLICE DEPT,,,,,
7215,OH,WALTON HILLS POLICE DEPT,,,,,
7216,OH,WAPAKONETA POLICE DEPT,,,,,
7217,OH,WARREN CITY POLICE DEPT,,,,,
7218,OH,WARREN CTY SHERIFF'S OFFICE,,,,,
7219,OH,WARREN TWP POLICE DEPT,,,,,
7220,OH,WARRENSVILLE HEIGHTS FIRE INV,,,,,
7221,OH,WARRENSVILLE HEIGHTS POLICE DEPT,,,,,
7222,OH,WASHINGTON COUNTY SHERIFFS OFFICE,,,,,
7223,OH,WASHINGTON CTY SHERIFF OFFICE,,,,,
7224,OH,WASHINGTON TWP PD (TOLEDO),,,,,
7225,OH,WASHINGTON TWP PD LEWISTOWN,,,,,
7226,OH,WASHINGTON TWP PD TOLEDO,,,,,
7227,OH,WASHINGTONVILLE POLICE DEPT,,,,,
7228,OH,WATERVILLE POLICE DEPT,,,,,
7229,OH,WAUSEON POLICE DEPT,,,,,
7230,OH,WAVERLY POLICE DEPT,,,,,
7231,OH,WAYNE COUNTY SHERIFFS OFFICE,,,,,
7232,OH,WAYNE CTY SHERIFF DEPT,,,,,
7233,OH,WAYNESFIELD POLICE DEPT,,,,,
7234,OH,WAYNESVILLE POLICE DEPT,,,,,
7235,OH,WELLS TWP POLICE DEPT,,,,,
7236,OH,WELLSVILLE POLICE DEPT,,,,,
7237,OH,WEST CARROLLTON POLICE DEPT,,,,,
7238,OH,WEST FARMINGTON POLICE DEPT,,,,,
7239,OH,WEST JEFFERSON POLICE DEPT,,,,,
7240,OH,WEST LIBERTY POLICE DEPT,,,,,
7241,OH,WESTERVILLE POLICE DEPT,,,,,
7242,OH,WHITEHALL POLICE DEPT,,,,,
7243,OH,WHITEHOUSE POLICE DEPT,,,,,
7244,OH,WICKLIFFE POLICE DEPT,,,,,
7245,OH,WILLARD POLICE DEPT,,,,,
7246,OH,WILLIAMS CO SHERIFF DEPT,,,,,
7247,OH,WILLIAMSBURG POLICE DEPT,,,,,
7248,OH,WILLOUGHBY POLICE DEPT,,,,,
7249,OH,WINTERSVILLE POLICE DEPT,,,,,
7250,OH,WOOD COUNTY SHERIFFS OFFICE,,,,,
7251,OH,WOOD CTY SHERIFF DEPT,,,,,
7252,OH,WOODLAWN POLICE DEPT,,,,,
7253,OH,WORTHINGTON  POLICE DEPT,,,,,
7254,OH,WYANDOT CTY SHERIFF DEPT,,,,,
7255,OH,WYOMING POLICE DEPT,,,,,
7256,OH,YORKVILLE POLICE DEPT,,,,,
7257,OH,YOUNGSTOWN POLICE DEPT,,,,,
7258,OH,YOUNGSTOWN STATE UNIV PD,,,,,
7259,OH,YOUNGSTOWN STATE UNIV PD HI_ED,,,,,
7260,OH,YOUNGSTOWN STATE UNIV POLICE ACAD,,,,,
7261,OK,ACHILLE POLICE DEPT,,,,,
7262,OK,ADA POLICE DEPT,,,,,
7263,OK,ADAIR CTY SHERIFF OFFICE,,,,,
7264,OK,ALLEN POLICE DEPT,,,,,
7265,OK,ALTUS POLICE DEPT,,,,,
7266,OK,APACHE POLICE DEPT,,,,,
7267,OK,ARNETT POLICE DEPT,,,,,
7268,OK,AVANT POLICE DEPT,,,,,
7269,OK,BARTLESVILLE POLICE DEPT,,,,,
7270,OK,BECKHAM CCO SHERIFF DEPT,,,,,
7271,OK,BENNINGTON POLICE DEPT,,,,,
7272,OK,BERNICE POLICE DEPT,,,,,
7273,OK,BETHANY POLICE DEPT,,,,,
7274,OK,BIXBY POLICE DEPT,,,,,
7275,OK,BLANCHARD POLICE DEPT,,,,,
7276,OK,BOKOSHE POLICE DEPT,,,,,
7277,OK,BRAGGS POLICE DEPT,,,,,
7278,OK,BRISTOW POLICE DEPT,,,,,
7279,OK,BROKEN ARROW POLICE DEPT,,,,,
7280,OK,BRYAN CTY SHERIFF DEPT,,,,,
7281,OK,CACHE POLICE DEPT,,,,,
7282,OK,CADDO CTY SHERIFF DEPT,,,,,
7283,OK,CALVIN POLICE DEPT,,,,,
7284,OK,CANADIAN CTY SHERIFF DEPT,,,,,
7285,OK,CARL ALBERT CAMPUS POLICE HI_ED,,,,,
7286,OK,CARNEGIE POLICE DEPT,,,,,
7287,OK,CARNEY POLICE DEPT,,,,,
7288,OK,CARTER CTY SHERIFF DEPT,,,,,
7289,OK,CATOOSA POLICE DEPT,,,,,
7290,OK,CHANDLER POLICE DEPT,,,,,
7291,OK,CHATTANOOGA POLICE DEPT,,,,,
7292,OK,CHEROKEE CTY SHERIFF DEPT,,,,,
7293,OK,CHEROKEE NATION MARSHAL SERVICE,,,,,
7294,OK,CHICKASAW NATION LIGHTHORSE POLICE,,,,,
7295,OK,CHICKASHA POLICE DEPT,,,,,
7296,OK,CHOCTAW CTY SHERIFF DEPT,,,,,
7297,OK,CHOCTAW POLICE DEPT,,,,,
7298,OK,CHOUTEAU POLICE DEPT,,,,,
7299,OK,CIMARRON CTY SHERIFF DEPT,,,,,
7300,OK,CITIZENS POTAWATOMI NATION PD,,,,,
7301,OK,CLEVELAND COUNTY SHERIFF'S OFFICE,,,,,
7302,OK,CLEVELAND COUNTY SHERIFFS OFFICE,,,,,
7303,OK,COAL CO SHERIFF OFFICE,,,,,
7304,OK,COAL COUNTY SHERIFF OFFICE,,,,,
7305,OK,COALGATE POLICE DEPARTMENT,,,,,
7306,OK,COLCORD POLICE DEPT,,,,,
7307,OK,COMANCHE COUNTY SHERIFF DEPT,,,,,
7308,OK,COMANCHE NATION POLICE,,,,,
7309,OK,COMANCHE POLICE DEPT.,,,,,
7310,OK,CRAIG CTY SHERIFF DEPT,,,,,
7311,OK,CUSTER CTY SHERIFF DEPT,,,,,
7312,OK,CYRIL POLICE DEPT,,,,,
7313,OK,DAVENPORT POLICE DEPT,,,,,
7314,OK,DAVIS POLICE DEPT,,,,,
7315,OK,DEL CITY POLICE DEPT,,,,,
7316,OK,DELAWARE CTY SHERIFF'S OFFICE,,,,,
7317,OK,DELAWARE CTY SHERIFFS OFFICE,,,,,
7318,OK,DEPEW POLICE DEPT,,,,,
7319,OK,DEWEY CTY SHERIFF DEPT,,,,,
7320,OK,DHS/CBP AIR/MARINE OKLAHOMA CITY,,,,,
7321,OK,DHS/CBP/PATROL OKLAHOMA CITY,,,,,
7322,OK,DHS/ICE OKLAHOMA CITY,,,,,
7323,OK,DOI/BIA/OJS DISTR,,,,,
7324,OK,DOJ/DEA TULSA,,,,,
7325,OK,DOJ/FBI OKLAHOMA CITY,,,,,
7326,OK,DOJ/FBI OKLAHOMA CITY DIV,,,,,
7327,OK,DRUMRIGHT POLICE DEPT,,,,,
7328,OK,DUNCAN POLICE DEPT,,,,,
7329,OK,EAST CENTRAL UNIV POLICE HI_ED,,,,,
7330,OK,EAST CENTRAL UNIVERSITY POLICE,,,,,
7331,OK,EASTERN OK STATE COLLEGE PD,,,,,
7332,OK,EASTERN OK STATE COLLEGE PD HI_ED,,,,,
7333,OK,ELGIN POLICE DEPT,,,,,
7334,OK,ELLIS CTY SHERIFF DEPT,,,,,
7335,OK,ELMORE POLICE DEPT,,,,,
7336,OK,ENID POLICE DEPT.,,,,,
7337,OK,FAIRVIEW POLICE DEPT,,,,,
7338,OK,FLETCHER POLICE DEPT,,,,,
7339,OK,FORGAN POLICE DEPT,,,,,
7340,OK,FORT GIBSON POLICE DEPT,,,,,
7341,OK,FREDERICK POLICE DEPT,,,,,
7342,OK,GARFIELD CTY SHERIFF DEPT,,,,,
7343,OK,GORE POLICE DEPT,,,,,
7344,OK,GRADY CO SHERIFF'S OFFICE,,,,,
7345,OK,GRADY CO SHERIFFS OFFICE,,,,,
7346,OK,GRADY COUNTY CRIMINAL JUSTICE,,,,,
7347,OK,GRADY CTY SHERIFF DEPT,,,,,
7348,OK,GRAND RIVER DAM AUTHORITY,,,,,
7349,OK,GUTHRIE POLICE DEPT,,,,,
7350,OK,HAILEYVILLE POLICE DEPT,,,,,
7351,OK,HENRYETTA POLICE DEPT,,,,,
7352,OK,HOOKER POLICE DEPT,,,,,
7353,OK,JAY POLICE DEPT,,,,,
7354,OK,JENKS POLICE DEPT,,,,,
7355,OK,KEOTA POLICE DEPARTMENT,,,,,
7356,OK,KEYES POLICE DEPARTMENT,,,,,
7357,OK,KICKHPOO TRIBAL POLICE DEPT,,,,,
7358,OK,KIEFER POLICE DEPT,,,,,
7359,OK,KIOWA CTY SHERIFF DEPT,,,,,
7360,OK,KREBS POLICE DEPT,,,,,
7361,OK,LAMONT POLICE DEPT,,,,,
7362,OK,LAWTON POLICE DEPT,,,,,
7363,OK,LEFLORE CTY SHERIFF DEPT,,,,,
7364,OK,MARLOW POLICE DEPT,,,,,
7365,OK,MCALESTER POLICE DEPT.,,,,,
7366,OK,MCCURTAIN CTY SHERIFF DEPT,,,,,
7367,OK,MCCURTAIN POLICE DEPT,,,,,
7368,OK,MCLOUD POLICE DEPT,,,,,
7369,OK,MEDFORD POLICE DEPT,,,,,
7370,OK,MEDICINE PARK POLICE DEPT,,,,,
7371,OK,MID-AMERICA CHRISTIAN UNIV HI_ED,,,,,
7372,OK,MID-AMERICA CHRISTIAN UNIVERSITY,,,,,
7373,OK,MOORE POLICE DEPT,,,,,
7374,OK,MOORELAND POLICE DEPT,,,,,
7375,OK,MURRAY STATE COLLEGE POLICE,,,,,
7376,OK,MUSKOGEE CTY SHERIFF DEPT,,,,,
7377,OK,MUSKOGEE POLICE DEPT,,,,,
7378,OK,MUSTANG POLICE DEPT,,,,,
7379,OK,NEWCASTLE POLICE DEPT,,,,,
7380,OK,NINNEKAH POLICE DEPT,,,,,
7381,OK,NORTH ENID POLICE DEPT,,,,,
7382,OK,OK 3RD JUDICIAL DISTRICT DTF,,,,,
7383,OK,OK BUREAU OF NARCOTICS,,,,,
7384,OK,OK DEPT OF AGRICULTURE-,,,,,
7385,OK,OK DEPT OF PUB SAFETY HWY PATROL,,,,,
7386,OK,OKLAHOMA CITY UNIV OK CITY,,,,,
7387,OK,OKLAHOMA COUNTY SHERIFF DEPT,,,,,
7388,OK,OKMULGEE CTY SHERIFF DEPT,,,,,
7389,OK,OKMULGEE POLICE DEPT,,,,,
7390,OK,OSAGE CTY SHERIFF DEPT,,,,,
7391,OK,OWASSO POLICE DEPT,,,,,
7392,OK,PANAMA POLICE DEPT,,,,,
7393,OK,PAWHUSKA POLICE DEPT,,,,,
7394,OK,PAWNEE CTY SHERIFF DEPT,,,,,
7395,OK,PAYNE CTY SHERIFF DEPT,,,,,
7396,OK,PAYNE CTY SHERIFF OFFICE,,,,,
7397,OK,PERRY POLICE DEPT,,,,,
7398,OK,PITTSBURG CTY SHERIFF DEPT,,,,,
7399,OK,POCOLA POLICE DEPT,,,,,
7400,OK,PONCA CITY POLICE DEPT,,,,,
7401,OK,PONTOTOC CTY SHERIFF DEPT,,,,,
7402,OK,POTTAWATOMIE CTY SHERIFF DEPT,,,,,
7403,OK,PURCELL POLICE DEPT,,,,,
7404,OK,PUTNAM CITY CAMPUS PD HI_ED,,,,,
7405,OK,PUTNAM CITY CAMPUS POLICE DEPT,,,,,
7406,OK,ROCK ISLAND POLICE DEPT,,,,,
7407,OK,ROGER MILLS CTY SHERIFF DEPT,,,,,
7408,OK,ROGERS CTY SHERIFF'S OFFICE,,,,,
7409,OK,ROGERS CTY SHERIFFS OFFICE,,,,,
7410,OK,RUSH SPRINGS POLICE DEPT,,,,,
7411,OK,SAND SPRINGS POLICE DEPT,,,,,
7412,OK,SEMINOLE CTY SHERIFF DEPT,,,,,
7413,OK,SEMINOLE CTY SHERIFF OFFICE,,,,,
7414,OK,SEMINOLE STATE COLLEGE PD,,,,,
7415,OK,SEMINOLE STATE COLLEGE PD HI_ED,,,,,
7416,OK,SENTINEL POLICE DEPT,,,,,
7417,OK,SEQUOYAH CTY SHERIFF DEPT,,,,,
7418,OK,SHAWNEE POLICE DEPT,,,,,
7419,OK,STEPHENS CTY SHERIFF DEPT,,,,,
7420,OK,STONEWALL POLICE DEPT,,,,,
7421,OK,STRATFORD POLICE DEPT,,,,,
7422,OK,STROUD POLICE DEPT,,,,,
7423,OK,TAHLEQUAH POLICE DEPT,,,,,
7424,OK,TECUMSEH POLICE DEPT,,,,,
7425,OK,TEXAS CTY SHERIFF DEPT,,,,,
7426,OK,THOMAS POLICE DEPARTMENT,,,,,
7427,OK,TRYON POLICE DEPT,,,,,
7428,OK,TULSA COUNTY  SHERIFF'S OFFICE,,,,,
7429,OK,TULSA COUNTY  SHERIFFS OFFICE,,,,,
7430,OK,TULSA POLICE DEPT,,,,,
7431,OK,TUPELO POLICE DEPT,,,,,
7432,OK,UNIV OF OK HEALTH SCIENCES CTR PD,,,,,
7433,OK,UNIV OF OK HEALTH SCIENCES PD HI_ED,,,,,
7434,OK,US BORDER PATROL OK CITY,,,,,
7435,OK,US DEPT OF VA MUSKOGEE,,,,,
7436,OK,US DHS CBP AIR & MARINE OK CITY,,,,,
7437,OK,US DHS ICE OK CITY,,,,,
7438,OK,US DOI BIA OJS DISTR,,,,,
7439,OK,US DOJ DEA TULSA,,,,,
7440,OK,US DOJ FBI OKLAHOMA CITY DIVISION,,,,,
7441,OK,USDA FOREST SERVICE LEI IDABEL,,,,,
7442,OK,USDVA/LE MUSKOGEE,,,,,
7443,OK,VA/MUSKOGEE,,,,,
7444,OK,VINITA POLICE DEPT,,,,,
7445,OK,WARR ACRES POLICE DEPT,,,,,
7446,OK,WAURIKA POLICE DEPT,,,,,
7447,OK,WAYNOKA POLICE DEPT,,,,,
7448,OK,WEATHERFORD POLICE DEPT,,,,,
7449,OK,WEBBERS FALLS POLICE DEPT,,,,,
7450,OK,WELEETKA POLICE DEPT,,,,,
7451,OK,WETUMKA POLICE DEPT,,,,,
7452,OK,WEWOKA POLICE DEPT,,,,,
7453,OK,WISTER POLICE DEPT,,,,,
7454,OK,WOODS CTY SHERIFF DEPT,,,,,
7455,OK,WOODWARD CTY SHERIFF DEPT,,,,,
7456,OK,WOODWARD POLICE DEPT,,,,,
7457,OK,WYNONA POLICE DEPT,,,,,
7458,OK,YUKON POLICE DEPT.,,,,,
7459,OR,ASTORIA POLICE DEPT,,,,,
7460,OR,BAKER CTY SHERIFF DEPT,,,,,
7461,OR,BANDON POLICE DEPT,,,,,
7462,OR,BEND POLICE DEPT,,,,,
7463,OR,BENTON COUNTY SHERIFF OFFICE,,,,,
7464,OR,BOARDMAN POLICE DEPT,,,,,
7465,OR,CENTRAL POINT POLICE DEPT,,,,,
7466,OR,CLACKAMAS COUNTY SHERIFF'S OFFICE,,,,,
7467,OR,CLACKAMAS COUNTY SHERIFFS OFFICE,,,,,
7468,OR,COLUMBIA CTY SHERIFF'S OFFICE,,,,,
7469,OR,COLUMBIA CTY SHERIFFS OFFICE,,,,,
7470,OR,COOS COUNTY SHERIFF DEPT,,,,,
7471,OR,COTTAGE GROVE POLICE,,,,,
7472,OR,CURRY COUNTY SHERIFF,,,,,
7473,OR,DALLAS POLICE DEPT,,,,,
7474,OR,DESCHUTES CTY SHERIFF,,,,,
7475,OR,DOUGLAS COUNTY SHERIFF DEPT,,,,,
7476,OR,DOUGLAS COUNTY SHERIFF OFFICE,,,,,
7477,OR,ENTERPRISE POLICE DEPT,,,,,
7478,OR,EUGENE POLICE DEPT,,,,,
7479,OR,FLORENCE POLICE DEPT,,,,,
7480,OR,GILLIAM COUNTY SHERIFFS OFFICE,,,,,
7481,OR,GILLIAM CTY SHERIFF DEPT,,,,,
7482,OR,GRANT CTY SHERIFF DEPT,,,,,
7483,OR,GRANTS PASS DEPT OF PUBLIC SAFETY,,,,,
7484,OR,HERMISTON POLICE DEPT,,,,,
7485,OR,INDEPENDENCE POLICE DEPT,,,,,
7486,OR,JOSEPHINE COUNTY SHERIFF'S OFFICE,,,,,
7487,OR,JOSEPHINE COUNTY SHERIFFS OFFICE,,,,,
7488,OR,JUNCTION CITY POLICE DEPT,,,,,
7489,OR,KLAMATH COUNTY SHERIFF'S OFFICE,,,,,
7490,OR,KLAMATH COUNTY SHERIFFS OFFICE,,,,,
7491,OR,KLAMATH FALLS POLICE DEPT,,,,,
7492,OR,LANE CTY SHERIFF DEPT,,,,,
7493,OR,MALHEUR CTY SHERIFF DEPT,,,,,
7494,OR,MARION CTY SHERIFF DEPT,,,,,
7495,OR,MONMOUTH POLICE DEPT,,,,,
7496,OR,MORROW CTY  SHERIFF DEPT,,,,,
7497,OR,MORROW CTY  SHERIFF OFFICE,,,,,
7498,OR,MYRTLE CREEK POLICE DEPT,,,,,
7499,OR,NEWPORT POLICE DEPT,,,,,
7500,OR,NORTH PLAINS POLICE DEPT,,,,,
7501,OR,OR STATE POLICE SALEM,,,,,
7502,OR,POLK COUNTY SHERIFF'S OFFICE,,,,,
7503,OR,POLK COUNTY SHERIFFS OFFICE,,,,,
7504,OR,PORTLAND POLICE  DEPT,,,,,
7505,OR,SALEM POLICE DEPT,,,,,
7506,OR,SCAPPOOSE POLICE DEPT,,,,,
7507,OR,SEASIDE POLICE DEPT,,,,,
7508,OR,SHERMAN CTY  SHERIFF DEPT,,,,,
7509,OR,SPRINGFIELD POLICE DEPT,,,,,
7510,OR,TILLAMOOK CTY  SHERIFF DEPT,,,,,
7511,OR,TOLEDO POLICE DEPT,,,,,
7512,OR,UNION CO SHERIFF DEPT,,,,,
7513,OR,VERNONIA POLICE DEPT,,,,,
7514,OR,WALLOWA CTY SHERIFF'S OFFICE,,,,,
7515,OR,WALLOWA CTY SHERIFFS OFFICE,,,,,
7516,OR,WARRENTON POLICE DEPT,,,,,
7517,OR,WASHINGTON CTY SHERIFF DEPT,,,,,
7518,OR,WEST LINN POLICE DEPT,,,,,
7519,OR,WHEELER CTY SHERIFF DEPT,,,,,
7520,OR,YAMHILL CTY SHERIFF DEPT,,,,,
7521,PA,ABINGTON TOWNSHIP POLICE DEPT,,,,,
7522,PA,ALBURTIS POLICE DEPT,,,,,
7523,PA,ASTON TOWNSHIP POLICE DEPT,,,,,
7524,PA,BALDWIN BOROUGH POLICE DEPT,,,,,
7525,PA,BALDWIN TOWNSHIP POLICE DEPT,,,,,
7526,PA,BARRETT TOWNSHIP POLICE DEPT,,,,,
7527,PA,BEAVER BORO POLICE DEPT,,,,,
7528,PA,BEDMINSTER TOWNSHIP POLICE DEPT,,,,,
7529,PA,BETHEL TOWNSHIP POLICE DEPT,,,,,
7530,PA,BETHLEHEM POLICE DEPT,,,,,
7531,PA,BLOOMSBURG POLICE DEPT,,,,,
7532,PA,BRADFORD COUNTY SHERIFF DEPT,,,,,
7533,PA,BRADFORD POLICE DEPT,,,,,
7534,PA,BRECKNOCK TOWNSHIP POLICE DEPT,,,,,
7535,PA,BROOKVILLE POLICE DEPARTMENT,,,,,
7536,PA,BUCKINGHAM POLICE DEPT,,,,,
7537,PA,BUCKS COUNTY DEPT OF CORRECTIONS,,,,,
7538,PA,BUCKS COUNTY S. CENTRAL ERT,,,,,
7539,PA,CAMP HILL BOROUGH POLICE DEPT,,,,,
7540,PA,CARBON COUNTY CORRECTIONAL FAC,,,,,
7541,PA,CARBONDALE POLICE DEPT,,,,,
7542,PA,CARLISLE POLICE DEPT,,,,,
7543,PA,CARROLL TOWNSHIP POLICE DEPT,,,,,
7544,PA,CENTER TOWNSHIP POLICE DEPT,,,,,
7545,PA,CENTRAL BUCKS REGIONAL POLICE DEPT,,,,,
7546,PA,CHALFONT BORO POLICE DEPT,,,,,
7547,PA,CHESTER MONTGOMERY ERT,,,,,
7548,PA,CHESTER POLICE DEPT,,,,,
7549,PA,CHESTER TOWNSHIP POLICE DEPT,,,,,
7550,PA,CHRISTIANA BOROUGH POLICE DEPT,,,,,
7551,PA,CLAIRTON POLICE DEPT,,,,,
7552,PA,COLONIAL REGIONAL POLICE DEPT,,,,,
7553,PA,CONEMAUGH TOWNSHIP POLICE DEPT,,,,,
7554,PA,CONEWAGO TWP POLICE DEPT,,,,,
7555,PA,COVINGTON TOWNSHIP POLICE DEPT,,,,,
7556,PA,CUMBERLAND COUNTY PRISON DEPT,,,,,
7557,PA,CUMBERLAND COUNTY SHERIFF DEPT,,,,,
7558,PA,CUMBERLAND TOWNSHIP POLICE DEPT,,,,,
7559,PA,DARBY BOROUGH POLICE DEPT,,,,,
7560,PA,DELMONT POLICE DEPT,,,,,
7561,PA,DERRY TOWNSHIP POLICE DEPT,,,,,
7562,PA,DHS/ICE NATIONAL ARMORY OPS,,,,,
7563,PA,DHS/ICE/HSI MIDDLETOWN,,,,,
7564,PA,DHS/ICE/HSI PENNSYLVANIA,,,,,
7565,PA,DHS/ICE/OFPT ALTOONA,,,,,
7566,PA,DOJ/DEA PHILADELPHIA,,,,,
7567,PA,DOJ/FBI HARRISBURG,,,,,
7568,PA,DOJ/USMS PITTSBURGH,,,,,
7569,PA,DOJ/USMS WESTERN DIST,,,,,
7570,PA,DOYLESTOWN TOWNSHIP POLICE DEPT,,,,,
7571,PA,DUBLIN BOROUGH POLICE DEPT,,,,,
7572,PA,DUBOIS CITY POLICE DEPT,,,,,
7573,PA,DUNMORE POLICE DEPT,,,,,
7574,PA,EAST FALLOWFIELD TOWNSHIP POLICE,,,,,
7575,PA,EAST FRANKLIN TOWNSHIP POLICE DEPT,,,,,
7576,PA,EAST HEMPFIELD TOWNSHIP POLICE DEPT,,,,,
7577,PA,EAST PENNSBORO TOWNSHIP POLICE,,,,,
7578,PA,EAST VINCENT TOWNSHIP POLICE,,,,,
7579,PA,EASTERN PIKE REGIONAL POLICE DEPT,,,,,
7580,PA,EXETER BORO POLICE DEPT,,,,,
7581,PA,FAYETTE COUNTY DA'S OFFICE DTF,,,,,
7582,PA,FAYETTE COUNTY DAS OFFICE DTF,,,,,
7583,PA,FINDLAY TOWNSHIP POLICE DEPT,,,,,
7584,PA,FOREST COUNTY SHERIFF OFFICE,,,,,
7585,PA,HAMPTON TOWNSHIP POLICE DEPT,,,,,
7586,PA,HARRISBURG  BUREAU POLICE DEPT,,,,,
7587,PA,HEMLOCK TOWNSHIP POLICE DEPT,,,,,
7588,PA,HIGHSPIRE BOROUGH POLICE DEPT,,,,,
7589,PA,HILLTOWN TOWNSHIP POLICE DEPT,,,,,
7590,PA,HUD/OIG PENNSYLVANIA,,,,,
7591,PA,HUNTINGDON COUNTY SHERIFF OFFICE,,,,,
7592,PA,JEFFERSON HILLS BORO POLICE DEPT,,,,,
7593,PA,JEFFERSON TOWNSHIP POLICE DEPT,,,,,
7594,PA,JERMYN BOROUGH POLICE DEPT,,,,,
7595,PA,LANCASTER COUNTY SHERIFF DEPT,,,,,
7596,PA,LANCASTER POLICE DEPT,,,,,
7597,PA,LEHIGH COUNTY DTF,,,,,
7598,PA,LEHIGH TOWNSHIP POLICE DEPT,,,,,
7599,PA,LITITZ BOROUGH PD,,,,,
7600,PA,LOCUST TOWNSHIP POLICE DEPT,,,,,
7601,PA,LOWER ALLEN TOWNSHIP POLICE DEPT,,,,,
7602,PA,LOWER MAKEFIELD TOWNSHIP POLICE,,,,,
7603,PA,LOWER MILFORD TOWNSHIP POLICE,,,,,
7604,PA,LOWER PAXTON TOWNSHIP POLICE DEPT,,,,,
7605,PA,LOWER WINDSOR TOWNSHIP POLICE DEPT,,,,,
7606,PA,LUZERNE COUNTY SHERIFF DEPT,,,,,
7607,PA,MANOR TOWNSHIP POLICE DEPT,,,,,
7608,PA,MECHANICSBURG BOROUGH,,,,,
7609,PA,MECHANICSBURG POLICE DEPT,,,,,
7610,PA,MERCERSBURG BOROUGH POLICE DEPT,,,,,
7611,PA,MILLCREEK TWP POLICE DEPT 2,,,,,
7612,PA,MILTON BORO POLICE DEPT,,,,,
7613,PA,MINERSVILLE POLICE DEPT,,,,,
7614,PA,MONROE COUNTY SHERIFFS OFFICE,,,,,
7615,PA,MONTOUR TOWNSHIP POLICE DEPT,,,,,
7616,PA,MOON TOWNSHIP POLICE DEPT,,,,,
7617,PA,MOUNT CARMEL BOROUGH POLICE,,,,,
7618,PA,MOUNT CARMEL TWP POLICE DEPT,,,,,
7619,PA,MOUNT LEBANON POLICE DEPT,,,,,
7620,PA,NANTY GLO BOROUGH POLICE DEPT,,,,,
7621,PA,NEW BETHLEHEM BOROUGH POLICE DEPT,,,,,
7622,PA,NEW BRITAIN TOWNSHIP POLICE DEPT,,,,,
7623,PA,NEW CASTLE POLICE DEPT,,,,,
7624,PA,NEWBERRY TOWNSHIP POLICE,,,,,
7625,PA,NEWTOWN TOWNSHIP POLICE DEPT,,,,,
7626,PA,NORTH CORNWALL TWP POLICE DEPT,,,,,
7627,PA,NORTH LEBANON TWP POLICE DEPT,,,,,
7628,PA,NORTH SEWICKLEY TOWNSHIP,,,,,
7629,PA,Northampton Township Police Department,,,,,
7630,PA,NORTHAMPTON TWP POLICE DEPT,,,,,
7631,PA,NORTHEASTERN PA REG POLICE,,,,,
7632,PA,NORTHERN CAMBRIA BOROUGH POLICE DEP,,,,,
7633,PA,NORTHERN LANCASTER CO REG PD,,,,,
7634,PA,NORTHERN YORK CTY POLICE,,,,,
7635,PA,OFFICE OF IG US DEPT OF HUD,,,,,
7636,PA,OHIO TOWNSHIP POLICE DEPT,,,,,
7637,PA,OIL CITY POLICE DEPT,,,,,
7638,PA,PA DEPT OF GENERAL SVCS POLICE,,,,,
7639,PA,PA LAW ENF FISH AND BOAT COMMISSION,,,,,
7640,PA,PA LAW ENFORCEMENT PROGRAM,,,,,
7641,PA,PA PORT AUTHORITY POLICE DEPT,,,,,
7642,PA,PA SOUTHERN REGIONAL POLICE DEPT,,,,,
7643,PA,PA STATE CAPITOL POLICE,,,,,
7644,PA,PA STATE POLICE DEPT,,,,,
7645,PA,PARKER POLICE DEPT,,,,,
7646,PA,PAXTANG BOROUGH POLCIE DEPT,,,,,
7647,PA,PENBROOK POLICE DEPT,,,,,
7648,PA,PENNDEL BORO POLICE DEPT,,,,,
7649,PA,PHILADELPHIA POLICE DEPT,,,,,
7650,PA,PINE CREEK TOWNSHIP POLICE DEPT,,,,,
7651,PA,PITTSBURGH BUREAU OF POLICE,,,,,
7652,PA,PLAINS TOWNSHIP POLICE DEPT,,,,,
7653,PA,PLYMOUTH TOWNSHIP POLICE DEPT,,,,,
7654,PA,POTTSTOWN POLICE DEPARTMENT,,,,,
7655,PA,READING POLICE DEPARTMENT,,,,,
7656,PA,ROARING BROOK TOWNSHIP POLICE DEPT,,,,,
7657,PA,ROBINSON TOWNSHIP POLICE DEPT,,,,,
7658,PA,SALISBURY TOWNSHIP POLICE DEPT,,,,,
7659,PA,SCOTT TWP POLICE BLOOMSBURG,,,,,
7660,PA,SCRANTON POLICE DEPT,,,,,
7661,PA,SHAMOKIN POLICE DEPT,,,,,
7662,PA,SHENANGO TOWNSHIP POLICE DEPT,,,,,
7663,PA,SILVER SPRING TWP POLICE DEPT,,,,,
7664,PA,SOMERSET BORO POLICE DEPT,,,,,
7665,PA,SOUTH ANNVILLE TWP POLICE DEPT,,,,,
7666,PA,SPRING TWP POLICE DEPT READING,,,,,
7667,PA,SPRINGETTSBURY TWP POLICE DEPT,,,,,
7668,PA,SPRINGFIELD TOWNSHIP POLICE DEPT,,,,,
7669,PA,STEELTON BOROUGH POLICE DEPT,,,,,
7670,PA,STROUD AREA REGIONAL POLICE DEPT,,,,,
7671,PA,SUGAR NOTCH POLICE DEPT,,,,,
7672,PA,SULLIVAN COUNTY SHERIFF OFFICE,,,,,
7673,PA,SUSQUEHANNA TWP POLICE HARRISBURG,,,,,
7674,PA,TAMAQUA POLICE DEPT,,,,,
7675,PA,TAYLOR BOROUGH POLICE,,,,,
7676,PA,TREDYFFRIN TOWNSHIP POLICE DEPT,,,,,
7677,PA,UPPER DARBY TOWNSHIP POLICE,,,,,
7678,PA,UPPER DUBLIN TOWNSHIP POLICE DEPT,,,,,
7679,PA,UPPER GWYNEDD TOWNSHIP  POLICE,,,,,
7680,PA,UPPER POTTSGROVE TWP POLICE DEPT,,,,,
7681,PA,US DHS ICE HOMELAND SEC INV,,,,,
7682,PA,US DHS ICE NATIONAL ARMORY OPS,,,,,
7683,PA,US DOJ DEA PHILADELPHIA,,,,,
7684,PA,US FBI HARRISBURG,,,,,
7685,PA,US MARSHAL SVC WESTERN DIST OF PA,,,,,
7686,PA,USPS OFFICE OF INSPECTOR GENERAL,,,,,
7687,PA,USPS/USPIS IG WARRENDALE,,,,,
7688,PA,VENANGO COUNTY SHERIFF DEPT,,,,,
7689,PA,VERNON TOWNSHIP POLICE DEPT,,,,,
7690,PA,WARMINSTER TWP POLICE DEPT,,,,,
7691,PA,WAYMART BOROUGH POLICE DEPT,,,,,
7692,PA,WAYNE COUNTY SHERIFF DEPT,,,,,
7693,PA,WEATHERLY POLICE DEPARTMENT,,,,,
7694,PA,WEST BRANDYWINE POLICE DEPT,,,,,
7695,PA,WEST HAZLETON POLICE DEPT,,,,,
7696,PA,WEST HEMPFIELD TWP POLICE DEPT,,,,,
7697,PA,WEST SHORE REGIONAL POLICE,,,,,
7698,PA,WEST YORK BOROUGH POLICE DEPT,,,,,
7699,PA,WESTMORELAND CTY PARK POLICE DEPT,,,,,
7700,PA,WESTMORELAND CTY SHERIFF DEPT,,,,,
7701,PA,WILKES BARRE TWP POLICE DEPT,,,,,
7702,PA,WOMELSDORF POLICE DEPT,,,,,
7703,PA,WOODWARD TOWNSHIP POLICE DEPT,,,,,
7704,PA,YORK POLICE DEPT,,,,,
7705,PR,AGUADA POLICE DEPARTMENT,,,,,
7706,PR,ARECIBO POLICE DEPT,,,,,
7707,PR,ARROYO POLICE DEPT,,,,,
7708,PR,BARCELONETA POLICE DEPT,,,,,
7709,PR,BAYAMON MUNICIPAL POLICE,,,,,
7710,PR,CABO ROJO POLICE DEPT,,,,,
7711,PR,CAGUAS POLICE DEPT,,,,,
7712,PR,CAMUY POLICE DEPT,,,,,
7713,PR,CAROLINA MUNICIPAL POLICE DEPT,,,,,
7714,PR,CATANO POLICE DEPT,,,,,
7715,PR,CEIBA POLICE DEPT,,,,,
7716,PR,COMERIO POLICE DEPT,,,,,
7717,PR,COROZAL POLICE DEPT,,,,,
7718,PR,DHS/CBP AGUADILLA,,,,,
7719,PR,DOJ/FBI SAN JUAN,,,,,
7720,PR,DOJ/FBI SAN JUAN FIELD OFFICE,,,,,
7721,PR,DORADO POLICE DEPT,,,,,
7722,PR,DP MUNICIPAL DE MAYAGUEZ,,,,,
7723,PR,FAJARDO POLICE DEPT,,,,,
7724,PR,GOBIERNO DE QUEBRADILLAS/POLICIA,,,,,
7725,PR,GUANICA POLICE DEPT,,,,,
7726,PR,GUAYAMA CITY POLICE,,,,,
7727,PR,GUAYANILLA POLICE DEPT,,,,,
7728,PR,GUAYNABO CITY POLICE,,,,,
7729,PR,GURABO POLICE DEPT,,,,,
7730,PR,HATILLO MUNICIPAL POLICE DEPT,,,,,
7731,PR,HUMACAO POLICE DEPT,,,,,
7732,PR,ISABELA POLICE DEPT,,,,,
7733,PR,JUANA DIAZ-MUNICIPAL POLICE,,,,,
7734,PR,JUNCOS POLICE DEPT,,,,,
7735,PR,LAJAS POLICE DEPT,,,,,
7736,PR,LARES POLICE DEPT,,,,,
7737,PR,LAS MARIAS POLICE DEPT,,,,,
7738,PR,LAS PIEDRAS MUNICIPAL POLICE,,,,,
7739,PR,MAUNABO POLICE DEPT,,,,,
7740,PR,MOCA POLICE DEPT,,,,,
7741,PR,MUNICIPALITY OF AGUADILLA,,,,,
7742,PR,MUNICIPALITY OF CIALES,,,,,
7743,PR,MUNICIPALITY OF HORMIGUEROS,,,,,
7744,PR,MUNICIPALITY OF MANATI,,,,,
7745,PR,MUNICIPIO AUTONOMO DE VILLALBA,,,,,
7746,PR,MUNICIPIO DE MARICAO,,,,,
7747,PR,MUNICIPIO DE RIO GRANDE,,,,,
7748,PR,MUNICIPIO DE TRUJILLO ALTO,,,,,
7749,PR,MUNICPIO DE YABUCOA POLICIA MUNICIP,,,,,
7750,PR,OROCOVIS POLICE DEPT,,,,,
7751,PR,PATILLAS MUNICIPAL POLICE,,,,,
7752,PR,PATILLAS POLICE DEPT,,,,,
7753,PR,POLICIA MUNICIPAL DE CANOVANAS,,,,,
7754,PR,PONCE MUNICIPAL POLICE,,,,,
7755,PR,PR DEPT OF NATURAL  ENV RESOURCES,,,,,
7756,PR,PR DEPT OF NATURAL & ENV RESOURCES,,,,,
7757,PR,PUERTO RICO POLICE DEPT,,,,,
7758,PR,SALINAS POLICE DEPT,,,,,
7759,PR,SAN GERMAN POLICE DEPT,,,,,
7760,PR,SAN JUAN POLICE DEPT,,,,,
7761,PR,SAN SEBASTIAN POLICE DEPT,,,,,
7762,PR,SANTA ISABEL POLICE DEPT,,,,,
7763,PR,TOA ALTA POLICE DEPT,,,,,
7764,PR,US DHS CBP AGUADILLA,,,,,
7765,PR,US FBI SAN JUAN FIELD OFFICE,,,,,
7766,PR,UTUADO POLICE DEPT,,,,,
7767,PR,VEGA BAJA POLICE DEPT,,,,,
7768,PR,VIEQUES POLICE DEPT,,,,,
7769,RI,BARRINGTON POLICE DEPT,,,,,
7770,RI,BURRILLVILLE POLICE DEPT,,,,,
7771,RI,CHARLESTOWN POLICE DEPT,,,,,
7772,RI,COVENTRY POLICE DEPT,,,,,
7773,RI,CRANSTON POLICE DEPT,,,,,
7774,RI,DOJ/ATF PROVIDENCE,,,,,
7775,RI,DOJ/USMS PROVIDENCE,,,,,
7776,RI,EAST GREENWICH POLICE DEPT,,,,,
7777,RI,EAST PROVIDENCE POLICE DEPT,,,,,
7778,RI,FOSTER POLICE DEPT,,,,,
7779,RI,GLOCESTER POLICE DEPT,,,,,
7780,RI,HOPKINTON POLICE DEPT,,,,,
7781,RI,JAMESTOWN POLICE DEPT,,,,,
7782,RI,JOHNSTON POLICE DEPT,,,,,
7783,RI,LINCOLN POLICE DEPT,,,,,
7784,RI,LITTLE COMPTON POLICE DEPT,,,,,
7785,RI,MIDDLETOWN POLICE DEPT,,,,,
7786,RI,NEWPORT POLICE DEPT,,,,,
7787,RI,NORTH KINGSTOWN POLICE DEPT,,,,,
7788,RI,PAWTUCKET POLICE DEPT,,,,,
7789,RI,PROVIDENCE POLICE DEPT,,,,,
7790,RI,RI DEPARTMENT OF CORRECTIONS,,,,,
7791,RI,RI STATE POLICE,,,,,
7792,RI,RICHMOND POLICE DEPT,,,,,
7793,RI,SCITUATE POLICE DEPT,,,,,
7794,RI,SMITHFIELD POLICE DEPT,,,,,
7795,RI,TF GREEN INTL AIRPORT POLICE,,,,,
7796,RI,TIVERTON POLICE DEPT,,,,,
7797,RI,US DOJ ATF PROVIDENCE,,,,,
7798,RI,US MARSHAL SERVICE PROVIDENCE,,,,,
7799,RI,WARWICK POLICE DEPT,,,,,
7800,RI,WEST WARWICK POLICE DEPT,,,,,
7801,RI,WESTERLY POLICE DEPT,,,,,
7802,RI,WOONSOCKET POLICE DEPT,,,,,
7803,SC,AIKEN COUNTY SHERIFF DEPT,,,,,
7804,SC,AIKEN PUBLIC SAFETY DEPT,,,,,
7805,SC,ALLENDALE COUNTY SHERIFF DEPT,,,,,
7806,SC,ALLENDALE POLICE DEPT,,,,,
7807,SC,ANDERSON COUNTY SHERIFF'S OFFICE,,,,,
7808,SC,ANDERSON COUNTY SHERIFFS OFFICE,,,,,
7809,SC,ANDERSON POLICE DEPT,,,,,
7810,SC,ATLANTIC BEACH POLICE DEPARTMENT,,,,,
7811,SC,ATLANTIC BEACH POLICE DEPT,,,,,
7812,SC,AYNOR POLICE DEPT,,,,,
7813,SC,BARNWELL COUNTY SHERIFF DEPT,,,,,
7814,SC,BATESBURG LEESVILLE POLICE DEPT,,,,,
7815,SC,BATESBURG-LEESVILLE POLICE DEPT,,,,,
7816,SC,BEAUFORT CITY POLICE DEPT,,,,,
7817,SC,BEAUFORT COUNTY SHERIFF DEPT,,,,,
7818,SC,BEAUFORT COUNTY SHERIFFS OFFICE,,,,,
7819,SC,BEAUFORT POLICE DEPT,,,,,
7820,SC,BENNETTSVILLE POLICE DEPT,,,,,
7821,SC,BERKELEY COUNTY  SHERIFF OFFICE,,,,,
7822,SC,BISHOPVILLE POLICE DEPT,,,,,
7823,SC,BLACKSBURG POLICE DEPT,,,,,
7824,SC,BLUFFTON POLICE DEPT,,,,,
7825,SC,CALHOUN COUNTY SHERIFF DEPT,,,,,
7826,SC,CAMPOBELLO POLICE DEPT,,,,,
7827,SC,CAYCE PUBLIC SAFETY,,,,,
7828,SC,CHARLESTON COUNTY SHERIFF DEPT,,,,,
7829,SC,CHARLESTON POLICE DEPT,,,,,
7830,SC,CHEROKEE COUNTY SHERIFF DEPT,,,,,
7831,SC,CHESTER COUNTY SHERIFF DEPT,,,,,
7832,SC,CHESTERFIELD COUNTY SHERIFF DEPT,,,,,
7833,SC,CHESTERFIELD POLICE DEPT,,,,,
7834,SC,CLARENDON COUNTY SHERIFF DEPT,,,,,
7835,SC,CLOVER POLICE DEPT,,,,,
7836,SC,COLLETON COUNTY SHERIFF DEPT,,,,,
7837,SC,COLUMBIA POLICE DEPT,,,,,
7838,SC,DARLINGTON COUNTY SHERIFF DEPT,,,,,
7839,SC,DHS ICE HSI,,,,,
7840,SC,DHS/ICE/HSI NORTH CHARLESTON,,,,,
7841,SC,DHS/ICE/HSI SOUTH CAROLINA,,,,,
7842,SC,DILLON COUNTY SHERIFF DEPT,,,,,
7843,SC,DILLON POLICE DEPT,,,,,
7844,SC,DOJ/DEA FLORENCE,,,,,
7845,SC,DORCHESTER COUNT SHERIFF DEPT,,,,,
7846,SC,DORCHESTER COUNTY SHERIFFS OFFICE,,,,,
7847,SC,EASLEY POLICE DEPARTMENT,,,,,
7848,SC,EDGEFIELD COUNTY SHERIFF DEPT,,,,,
7849,SC,ESTILL POLICE DEPARTMENT,,,,,
7850,SC,FAIRFIELD COUNTY SHERIFFS OFFICE,,,,,
7851,SC,FLORENCE COUNTY SHERIFF DEPT,,,,,
7852,SC,FLORENCE POLICE DEPT,,,,,
7853,SC,FLORENCE REGIONAL AIRPORT POLICE,,,,,
7854,SC,FOLLY BEACH PUBLIC SAFETY,,,,,
7855,SC,FORT LAWN POLICE DEPT,,,,,
7856,SC,FOUNTAIN INN POLICE DEPT,,,,,
7857,SC,GEORGETOWN COUNTY SHERIFF  OFFICE,,,,,
7858,SC,GEORGETOWN POLICE DEPT,,,,,
7859,SC,GREENVILLE COUNTY SHERIFF DEPT,,,,,
7860,SC,GREENWOOD COUNTY SHERIFF OFFICE,,,,,
7861,SC,HAMPTON COUNTY SHERIFF DEPT,,,,,
7862,SC,HAMPTON POLICE DEPT,,,,,
7863,SC,HANAHAN POLICE DEPARTMENT,,,,,
7864,SC,HARDEEVILLE POLICE DEPT,,,,,
7865,SC,HARTSVILLE POLICE DEPT,,,,,
7866,SC,HORRY COUNTY POLICE DEPT,,,,,
7867,SC,INMAN POLICE DEPT,,,,,
7868,SC,IVA POLICE DEPARTMENT,,,,,
7869,SC,KERSHAW COUNTY SHERIFF'S OFFICE,,,,,
7870,SC,KERSHAW COUNTY SHERIFFS OFFICE,,,,,
7871,SC,LAKE CITY POLICE DEPT,,,,,
7872,SC,LAKE VIEW POLICE DEPT,,,,,
7873,SC,LANCASTER COUNTY SHERIFF DEPT,,,,,
7874,SC,LANCASTER COUNTY SHERIFFS OFFICE,,,,,
7875,SC,LATTA POLICE DEPT,,,,,
7876,SC,LAURENS COUNTY SHERIFF OFFICE,,,,,
7877,SC,LAURENS POLICE DEPT,,,,,
7878,SC,LEE COUNTY SHERIFF'S OFFICE,,,,,
7879,SC,LEE COUNTY SHERIFFS OFFICE,,,,,
7880,SC,LEXINGTON COUNTY SHERIFF DEPT,,,,,
7881,SC,LEXINGTON POLICE DEPT,,,,,
7882,SC,LYMAN POLICE DEPARTMENT,,,,,
7883,SC,MANNING POLICE DEPT,,,,,
7884,SC,MARION COUNTY SHERIFF OFFICE,,,,,
7885,SC,MARLBORO COUNTY SHERIFF,,,,,
7886,SC,MARLBORO COUNTY SHERIFFS OFFICE,,,,,
7887,SC,MAULDIN POLICE DEPT,,,,,
7888,SC,MCCORMICK POLICE DEPT,,,,,
7889,SC,MOUNT PLEASANT POLICE DEPT,,,,,
7890,SC,MULLINS POLICE DEPT,,,,,
7891,SC,MYRTLE BEACH POLICE DEPT,,,,,
7892,SC,NEWBERRY CITY POLICE DEPT,,,,,
7893,SC,NEWBERRY COUNTY SHERIFF DEPT,,,,,
7894,SC,NEWBERRY COUNTY SHERIFFS OFFICE,,,,,
7895,SC,NICHOLS POLICE DEPT,,,,,
7896,SC,NORTH AUGUSTA POLICE,,,,,
7897,SC,NORTH MYRTLE BEACH POLICE,,,,,
7898,SC,NORWAY POLICE DEPT,,,,,
7899,SC,OCONEE COUNTY SHERIFF DEPT,,,,,
7900,SC,ORANGEBURG COUNTY SHERIFF DEPT,,,,,
7901,SC,ORANGEBURG DEPT OF PUBLIC SAFETY,,,,,
7902,SC,PELION POLICE DEPT,,,,,
7903,SC,PICKENS CITY POLICE DEPT,,,,,
7904,SC,PICKENS COUNTY SHERIFF DEPT,,,,,
7905,SC,PORT ROYAL POLICE DEPT,,,,,
7906,SC,PROSPERITY POLICE DEPT,,,,,
7907,SC,RICHLAND COUNTY SHERIFF DEPT,,,,,
7908,SC,ROCK HILL POLICE DEPT,,,,,
7909,SC,SALUDA COUNTY SHERIFF OFFICE,,,,,
7910,SC,SALUDA POLICE DEPT,,,,,
7911,SC,SC DNR COLUMBIA,,,,,
7912,SC,SC HIGHWAY PATROL,,,,,
7913,SC,SC LAW ENFORCEMENT DIVISION,,,,,
7914,SC,SC LE TRG COUNCIL/CRIM JUST ACADEMY,,,,,
7915,SC,SC PUBLIC SERVICE AUTHORITY,,,,,
7916,SC,SC STATE UNIV POLICE DEPT,,,,,
7917,SC,SC STATE UNIV POLICE DEPT HI_ED,,,,,
7918,SC,SENECA POLICE DEPT,,,,,
7919,SC,SPARTANBURG CTY SHERIFF DEPT,,,,,
7920,SC,ST MATTHEWS POLICE DEPT,,,,,
7921,SC,SUMTER COUNTY SHERIFF DEPT,,,,,
7922,SC,SUMTER POLICE DEPT,,,,,
7923,SC,TRAVELERS REST POLICE DEPT,,,,,
7924,SC,UNION COUNTY SHERIFF DEPT,,,,,
7925,SC,UNION COUNTY SHERIFFS OFFICE,,,,,
7926,SC,UNION DEPT OF PUBLIC SAFETY,,,,,
7927,SC,UNIV OF SC SPARTANBURG POLICE DEPT,,,,,
7928,SC,UNIV OF SC SPARTANBURG POLICE HI_ED,,,,,
7929,SC,US DOJ DEA FLORENCE,,,,,
7930,SC,WELLFORD POLICE DEPT,,,,,
7931,SC,WEST COLUMBIA POLICE DEPT,,,,,
7932,SC,WESTMINSTER POLICE DEPT,,,,,
7933,SC,WHITMIRE POLICE DEPT,,,,,
7934,SC,WILLIAMSTON POLICE DEPT,,,,,
7935,SC,WINNSBORO DEPT OF PUBLIC SAFETY,,,,,
7936,SC,YORK COUNTY SHERIFF DEPT,,,,,
7937,SC,YORK POLICE DEPT,,,,,
